DOB,Last Name,First Name,Address 1,Address 2,City,State,Zip Code
30-04-2017,XPNAFRTAJ,FICMWKQQL,63586YNQECXGTBBWH,,ZODSH,NA,49418
20-05-1994,BXQTRCMRO,GOQCEULZZ,95607IZRUDMZDJPQK,,ZXFKD,CZ,34840
18-06-2011,SLOELHBST,VXCTIXPRS,51030XPLGEYHYPZKJ,,GHTFZ,RT,96193
24-04-1986,EGCFWIPWA,XZUQDLVOJ,52754YIJKSHJGGROF,,RFVKJ,LY,40502
11-10-2012,CGWCSFJGK,QFLFYDIPP,30101VZOZCUVOBBLO,,MXWBZ,GP,54261
25-03-1987,QACHRXURW,VFMGBGCFP,10350VKQOJAQIYRIO,,ZXUNN,MR,93477
03-06-1988,MDOLRUVJZ,RDCDFXPJB,49415JTTRPEVEJFNL,,PNYZZ,XI,01294
20-02-1959,IXCVXYOTJ,FPOZQCHXF,08035FYGSEYISBCJU,,DMUBC,EH,84954
28-03-1972,XHDNFIDSP,FHTYEUHHL,41229IKRLVEIVGWSI,,HMXXC,ZO,49286
29-01-2009,XNRBOTRAZ,IXDSUNSBT,91720PIWRMTATSPKC,,EBOQT,DP,97068
24-12-2020,VTERTVKBX,UEESGXJLW,80209RAGCTMWDXYBR,,KZTLX,UX,67030
18-09-1985,HRTLCRDYT,UFIUGKPXB,69255LVKEGCOVVBMG,,IXJJW,GG,57457
07-12-1977,SFYZAILCE,VDARHQUZT,13841BKMOMYBEUCNN,,CGEIU,YW,56838
26-02-1971,UQVSJJYIT,YYZYJZYXW,69614YBMHQGQEIEIP,,LWPHJ,ZF,70996
03-01-1951,QFCXYZEUL,HEWTIAPHW,36582VLXLOSJMXVYG,,REZKJ,HI,89343
16-10-1987,YCZIQHQYY,ZZTSCESNS,08849MHRVNOCYCLDR,,PVRQG,OX,54450
05-03-1969,ECKUISHLP,YZOODQVFS,99989HRIXFZLDOBVP,,PAEJX,YN,33830
08-04-2015,MVXHAROHZ,SUFIDWJFN,28138AJVJENWKCIPY,,JHKUN,WR,42370
18-06-1999,MDHXMQEMF,AQIBHCSVN,74625SUDSBPPYORFB,,BEMCJ,RN,92462
06-08-1979,SUJDBLNSX,QHNLNZGRQ,15191ZNBPDBLDIJEU,,JMVVJ,RJ,84243
06-12-2012,NZIUJGIWQ,JVEJZWLJK,36064MPDNRPRKRQFX,,DXBPA,SW,74418
28-11-1959,EYXUDBTXK,CDMCCZJSG,48606LHQQGSLQSEEQ,,HPURG,XK,81070
03-01-1984,BYYFCTHGH,GKPZTWSGQ,69370XHBRJVVDTFHP,,SGBBZ,RJ,28412
15-05-2009,UTOZCCVCT,TBRIJIHVV,69722VVQMQYSCTQBZ,,VHFJP,MY,30031
20-04-1976,AFNAORLYJ,QPXOVEWSM,10004NSQZORPOHMFY,,QFRXB,EP,04029
26-08-1963,ICWNENRGA,SVIBEENKZ,86093FGSFOTHEFLLX,,QMTMC,OY,81387
04-02-1982,DGFYUGTMC,IVEQENDUE,98539BPJWBFQQAPQO,,YYOQJ,JG,56718
02-06-1998,AVLBUJLSG,NHJBABXCN,68772RTBJOZPVQBHI,,YEJKB,FH,02965
28-04-2010,THEHSLLOF,USUQFPGLW,54764GETJMQJFNAGI,,GRIOC,RV,48629
22-12-1993,EBKNJHLUJ,YYRYYDBDG,12505FCOIMFBPEXUW,,YHSHN,SV,79224
16-10-1970,WETKEVYRC,NPFBVDMYL,09204BIOBUTGMETAN,,JWAAJ,RU,73453
16-02-1959,DWWDQSNMA,SLRWGOVTO,55726MVZBAVVGMKNS,,UTHGP,YK,54105
21-11-1995,IECYBUXPN,RKGWFZKCG,35470QCWWEQHXJEFD,,ENKNG,JS,71245
14-03-1975,MUGOFTCLK,ZDKAJQANH,33184PHYGQGPEOBIA,,XFTXO,IR,37220
02-02-1959,ZLEGWYAVJ,DXFDDAEZW,03162QCWEREMIVERW,,WGGAP,TC,32714
09-03-2017,WZASNTDQO,YQADWMPIW,24665NBRKPRXKLXPL,,BSKXE,TT,25198
13-10-1980,JCMHRSGHD,TZKINXTAP,28845VUOBZUEEBQRT,,IMDRA,JO,76123
24-08-1987,ACIAFIJIS,EPYOHPQWL,58483VMKZRVUPTGFB,,IQHJX,OT,82939
27-11-1980,IIEBYCUVR,OWBEELXOD,92002ATYUAKUCFIKO,,HHSPO,LL,92610
15-03-1950,IHWLPNUCG,PBYDGXOJE,36495TBHTZXYISLZL,,DOIAP,HB,54076
01-07-2012,OBRFGQWBW,QEOIAGNBS,25499EEKJWSAAMDDV,,YLRXX,UP,39352
08-06-1997,WRWTWRJBG,CRWCUIHML,74232SXKJVJQEEAYX,,JWFXK,SR,64610
17-06-2008,RNHBHQUUY,RUGVSQJCT,76455SABZSETFNLNO,,LXJKT,IV,66443
19-01-2001,LWXHTZUJU,JJOILXZCQ,46826QZWCUPVRPYOH,,XZNSU,FS,00654
05-11-2002,JBYXTWBMR,CGTROPQOX,19131YITOPKYFLTIQ,,OUFQU,DS,24644
13-03-1998,EDMTJRTXK,WOVXJQVOX,13323AZNDSCZEFHWG,,UCLQM,JN,20767
10-02-1966,MFFCRJBML,ITUTWPVQZ,98303BRMUSIOPIHFL,,JFHRB,US,26598
07-09-1962,CKIACJZWX,AIZSSOEYZ,95747HNUPDSKYSFIK,,BUEVY,PN,51368
23-11-1983,TKGTOLHSP,WTYQBVQQL,57805FZJESCBCTYHR,,JMDDD,TU,10968
06-02-1960,GKMIZYOVA,WYWZFIFJJ,76705NFLAMHZTURJN,,KPUKM,SY,15241
15-01-2001,MXAEGRQUX,AFVIOSOQO,15274IQGPAJWZPHAH,,LKZYT,FO,59832
12-12-1991,XBQTIPBVU,XHIBJRDCY,65553OWGDDPBRNCZO,,QLEJH,LQ,60580
02-09-1968,AVJKHDMOA,TLIYADYRZ,35905KXFIZCIUYAJT,,QIVJJ,JT,90949
31-05-1977,AKXRETDIT,JZLNPSPMA,13866GSZRLSMCFZOG,,JNREK,KV,03647
25-02-2009,QHQZXTHGI,UDQMQABWK,27708SUQMPJHZGLOY,,WBLFI,JN,19486
20-08-1988,DKQOCJXKD,MXNPMCJRY,63311BZBXTUYSJIUT,,XHREU,MC,73188
12-05-1973,WMCZKGUHT,HOYCZANTX,35956RNOFAUWLNQGD,,KHCHC,BL,90809
03-02-1972,HRYNMBFNE,IZPLHCZLC,64916IGJUHDVMRKMD,,FTCBK,LH,42896
12-02-1999,CHNNMDARR,JSBSYPYLX,28482RHYQGFMSJEFT,,DITOR,MI,96915
30-09-1967,ZIIGBCJOV,DRSBOXHGQ,99435HGNIFPEWYITX,,VJPYC,MM,55843
27-12-1961,GNPRWTANC,UXBWQUXYA,35813CDPEMIYZQSGS,,FPFHZ,CX,29565
27-02-1958,RELSCKRLR,JWLBNNCYU,57806BZZZQZKURQLF,,UVMDD,ED,09658
28-11-1970,GHUYQAQMY,PBCEPHELV,14323HWRHLCNUELVX,,DHDOF,UL,94663
16-10-1973,FQFXXKSAQ,IUTFBXLNB,44859NZAYISWBINQG,,UHVMU,JG,83410
02-04-2008,EJSTZYJZY,WCONJPLNC,59203HGMWJUCNNDPE,,EEZYF,ZN,13221
12-04-1987,UYXMDUBXJ,QQEJOJJHJ,27823PQLNBXFNPXUZ,,TZHYX,NJ,10322
02-03-2021,SWHPNLUSB,WPVUWLZRT,12332MVTBHXLZIISW,,BSLOQ,LH,23831
13-06-1970,YBWVWERMZ,ZDYBKIFED,26751QYLDTAKVZNXG,,BZXNA,CK,98500
29-06-1955,WQXWVKXNP,DOETZVSAG,67513BILBQHQIKVZR,,LCMPM,DY,90590
22-09-1971,DYMJTIGPO,NMCHWQZPA,26949REINZMVNXKLM,,PINIA,HB,66397
18-02-1950,PPHUIMCON,JLJZQWJHA,67642IYPLBJXBJAGK,,FMGXQ,HY,11990
19-10-1952,CHTCWUKRT,ECSKKLKFY,69690DOWCLFBWGWOR,,VJGGF,DY,59416
12-02-1970,ITGCIMELB,CFAJADVBI,19654GYBQDYUYJNVE,,QGZNJ,SU,77447
24-09-1985,ZKPVTZUJI,KQNLWXGKQ,43393JKIGPEEFVVMX,,JMBSC,WV,73275
12-01-2014,OGRXKPMYR,ZORQRXODN,15550GFSUNNHCELHW,,KPFXJ,WH,22429
15-09-1976,MXFDPABAH,PHJKCXYGS,97243NCXIAOCNBBRY,,TEPXM,DI,23299
14-03-1953,DLHDSAQMP,SUDTERVAB,23236WBZZIKLLBBSR,,PWXHU,ZB,13966
10-09-2020,AKWWOUOXE,EGVLSBVVT,23367CKHLYBGPJAGP,,MXQKI,LK,87947
10-02-1964,GOSYTWIPI,RWZHKMKLA,30087GDTAXTBDRNAU,,UZYLD,JI,85566
05-03-1964,MSFOMQYNG,YRTSGAEGY,75356PGYSWGIHWHGG,,SQZTZ,BV,95056
06-11-1955,XRWZQURNX,KGHDGVXCH,92791TVHHCXVFMYYS,,OXHEB,JL,08758
29-03-1983,TJEMLKPZU,KCIYINYDY,05915HSXXEDFNFVNG,,DJRGB,QJ,30916
10-05-1959,UGFVJXNDG,VJARRYPPQ,98253ZMCMVYSXGZME,,YGDIO,CZ,11238
01-11-2001,OYZXYEXCU,QJGIUDMJB,05153HSGSDFKHVBYN,,LQKUM,GT,19019
22-02-1996,EGKZIWLRO,GIRUQPFYZ,69543LYXVNIPPJYLF,,WLKMB,XN,17037
03-07-2001,STIMTZRDP,XNSKUAGJA,23575SCSYICVKSHZZ,,LWDUJ,JN,48369
19-02-1963,IGWORDYSV,IVQOHRUNO,97199RISVZIEUMAUU,,ZTMFU,VJ,08254
23-08-1985,NKEAXYRDK,JQRCDUZUC,43037OXNRGICICBPK,,IMBLR,HE,09356
27-07-1953,GFALHHLEC,BLXBTIKIR,85610RATQOVWAAMOT,,VIYUL,QS,74009
13-08-2008,VVDPDPKRP,OCXZPVJIX,93458FTRNUHHZFTYJ,,OGETD,DX,61128
24-08-2003,MWGDBANNF,EONSGDZRI,24225IDJHAZADNJGF,,IGSGB,HI,93298
27-08-1975,UTXUAFRXU,HXTONNRBN,28262LRMJSRHAWWOI,,OAYXF,BM,36770
05-05-2020,CAJNNPEPO,IEISLWKIK,63324UWEWXZEOWPYH,,HHRLB,FF,53877
11-12-2013,JINNYWDQO,JITKXUXHX,71728PXTNGJZDFEYK,,GQQZW,LA,32520
15-10-2018,VIPEMYBYV,MSSARFYOB,75897QPQFJGWYISVV,,RUWGU,QS,42230
10-04-1988,NOYEYPVFO,SQQQPAHUU,37002ITIBEUSSMMRB,,VCFRE,TF,87965
27-12-1982,YTSAYUGEK,HLNUGVJTW,80273BRLRSWQHOUWL,,OAQAZ,GP,04567
24-09-1968,NJBILCHOI,RSCBZMHJU,62718ECBVWKYXOKKA,,XZSFR,NL,58838
02-11-1979,RAQPYPBVV,SYUXBIHWN,94703SQROADTSYYAK,,UCKGZ,MJ,42739
01-06-1969,EONXTZCIW,STRDMPYMS,60738BYNMWFDRFXAV,,LLQSW,OG,75019
18-03-2006,MNXTYKURA,QHCSREAXX,51212DJMOSPPGADYO,,MFOKC,JI,72802
06-02-2000,HPDAOYFZT,HNVXHVRRS,64378MWVRMQEXFTHF,,UYLWR,IW,52836
12-10-2004,QLTOYVZXV,VTUOZKCDZ,29592UGXOCNMPOFVM,,SEPFY,BL,56440
31-03-1983,SQNXYRXEL,ZHUIAAGQB,10165BHPNWDUHTOEL,,KULSS,LW,18630
26-07-1980,ZZQXRPGWM,WZSDFJMWM,56860PNURDRABXDMV,,QRJAC,SI,06230
30-03-1978,ZECDZZYQP,XOVPWFEUD,31243UTRQWLTFQTIJ,,XGTYU,FK,63146
04-03-1987,DKSVXOCAD,ZCPONOCHD,19849TNEJHPNIFEGW,,NTMUQ,CS,85854
01-08-2008,UOVQXAFPI,PFZIBKZWJ,02267QSGUJXKGRYHO,,SSGCY,GB,80549
03-06-1950,JMCVPJXZA,JSLIMFROI,59729WYLKJJBIERPD,,HBCSF,TI,04293
19-08-1983,SDHUMNHFJ,PPWIKYRKQ,57774YOBGIDHPRTYP,,XOZRT,TX,10715
02-11-1993,IJPFWTUSZ,SAWLKDVGJ,80820UESVMVZVUZLK,,RRPVR,DJ,53603
19-01-1979,CFURHEXRS,SWARGSXDE,32365FIUPUGVRJQFQ,,WEUKD,PL,37697
26-12-1993,KBMEXTPEF,XXZEAHGKI,67294YIXFHXWXYBZB,,EFZTV,JR,12451
25-11-2012,RJWFDQMOO,UTIZKHKTD,10616LCSKZFBVEHWK,,XEBDA,YV,81214
16-09-2020,RDIPUFEJF,ZAAQKTRCY,62766MGPXKJPNTDRC,,TPYYQ,FA,68807
13-04-1988,OBPELFOVT,DHFWLGVMN,46372IYJSJTDSQJUS,,BMGWJ,YS,41048
13-02-2012,RUMTMLBFK,MFSRTPYPP,23421VTJXGRVOYIXW,,MVJKT,GC,94325
26-07-2004,JZTTZUKLW,XMMCOWSBB,45360UOAVICUPJJQV,,FNIYN,SV,03054
01-02-2010,MBOOOFLDF,VZNROPFMG,62578UISFZKQXBZXB,,XALHC,OT,56622
25-11-2003,UFVOIGMKM,VMLBXWNKC,48511QRGCZNUQCVYB,,JHCYO,GM,09323
03-12-2012,RXDLRXSHA,GYEHBMZHZ,55750NYJIIURMQPOF,,HGZJT,TO,75228
05-04-1998,EIHZFQJGB,ZROXGQYTT,39872PQQDQRLKDMDK,,TDWXF,XF,85609
17-06-1969,ZJKEXTHMX,QODLSLAPF,42593OURNNQWJILTA,,YLJNS,DZ,82580
06-11-2004,FULAVQBFI,PGKQONNQQ,01039ATSGSCQISNUZ,,YQZGU,RQ,82220
28-07-2008,APTVOGZZW,GLYABJNWD,25743RICQCDKTXLXF,,TXIYZ,CD,56244
28-07-2000,JESVVKKNK,CCTQZTXXC,00777LPPMBYYAUPGS,,KIFGC,FY,11444
12-02-1963,QDRJNROHS,OBOCEFQEL,27144RQXIYZTEALUQ,,MJOGJ,GO,11336
04-07-1980,HVBAJLHDB,XAKHLFRLF,59455XPNBXBFFFYGD,,GGOFR,JZ,30319
19-06-1970,GEXFQAVDM,NDFPHGFHS,54185WNCXOBXSAUWT,,FIWLO,US,62418
29-07-1951,LGQXHOXKW,IALSTPHYM,41955CACAEHLYYZEK,,RVLCE,WU,32648
18-04-1994,OHCTMJNYZ,PDDVNLCLK,84631GJFLGVEKVPPM,,EZWTA,PI,77550
13-05-1983,KNSXNNLKP,CRYBPEAUE,76568GQSILLWIFGHB,,QHNGJ,NV,58855
07-05-1985,NXYUBEYOC,QNMFBUWMY,70781VAJGVGXNOPEV,,NSCVZ,SZ,17284
26-06-1952,QJHIHEDLJ,WWRIOOOOY,98155BUSMOFNSXTMU,,ERIKO,DN,08917
25-08-2007,WXAMLZDUL,LTTNXLBEE,20975QFZEFZVJUKSL,,SPGMV,RW,62392
08-09-1976,WRHTJSODR,ODWBKZYCJ,22792JNFJQUMICCFK,,XRLRI,CC,60762
22-08-1994,ARXTBEBVL,VKZIWVVNJ,96698ERJFFWRMVNOR,,XQYGR,ZX,95818
05-09-1987,GMTYGQSEM,UPETBMLEU,61956KMKQXMECKMGE,,WRCMJ,ON,22664
01-04-2016,WTSGZMJJN,GFDTQXCER,29278JVYKVYGLYNAL,,PHLSP,IA,77509
31-07-2007,BCUSWSKSU,XMFLGTPIW,65957OMRSDUZYBLEK,,SXGVZ,YD,34596
28-08-2013,LZBJJFBLQ,MNBUTVGNA,92772YKXLJISYJWRD,,GLINE,ND,23544
12-02-1975,HNIXFFXZF,ZSSZTGDGS,45051UAOLZARLYPKO,,FIYQU,KX,82021
21-04-1993,KWAGIJHUG,EFDQNDEZE,44127HXLJALMAPCLC,,BMEUI,GC,94448
13-06-1953,BTFIRWHJV,XDRNLDASH,52720IDFGDYNDSRYQ,,KWMXR,OK,53160
02-04-2016,VPVRWLPFM,XHEZHBNPH,03589OIVNAPXZJACD,,QPPSD,GQ,16078
18-08-1952,CVXTITQZT,OLJLKFIRJ,22833BCAAWRBKSRRW,,PLDUA,XP,60987
10-04-1998,MKAXWAASX,SIUQOJVGN,85788EEYQFRPQMLAX,,TNJLQ,XP,82767
29-04-2005,XJGBUGVWJ,WYMGHSADM,45148NEOOGLSYFJLJ,,QKQBV,OQ,18287
30-07-2008,SZRGMMOWJ,ELTWZVHEW,16757NGLKDIQIHYHF,,GLXUK,VE,39217
27-09-1991,RJCPSTRUD,ZTSJQVXTX,22236OIUYRXCMNRCI,,QLEFS,GQ,83812
18-06-1975,NSSKQQJGQ,YFTSSBLEF,46530LJPPRBLDLGTD,,QVOEG,FF,38613
20-08-1984,GVBGKUNHF,ANNKPRTDS,55361RHMSCMWTISTD,,NWZZB,RP,66523
29-08-1976,DRBFAUPXD,ZUPJILEKR,71983QGUTQXMAFBHI,,LHSZC,DL,49552
25-03-1994,NILQQLWIU,IAWGDETEQ,86856UAPOIYWDJOFV,,XLXGY,KW,30819
22-09-1957,EOVFNIWEI,SWIBVMVDU,30182BLTMYZAYKMYD,,LDCPX,WA,30068
27-07-2003,SCFUMUHTU,FIIXMTCPH,13723ALQWVMHTLQZP,,XWRLL,RY,70540
09-02-1972,GAWANSDPU,PKNPDILRM,70566XNJXGHVYOJQU,,BDHRP,OQ,72197
13-01-2002,HHURSOBOT,FNTBVWTZW,73195KOITCMEGVPOC,,ZJNWA,EH,50002
28-12-1981,IZRVXBOSH,UIMDZSCLH,72359YWERRPDAXBZV,,WHAZX,HO,74166
09-02-1981,WWXABOIPA,PPMURTKXR,37727NKJRYUAAAVVS,,JTTYF,BB,57442
30-09-1992,MVFIMAJOM,RQZVJVERT,81205CWVCSGNZIPBL,,IBJTJ,SQ,36579
29-06-1953,ROSZURQNB,AOSFAGJHR,29807RYNTYLFLXKPA,,PQBDS,NT,42249
17-02-1970,KOMDHKHLR,YOTRQREUP,48597MXKLGDIFICMN,,HJPSQ,RE,95421
13-03-1964,TGCIREJHJ,VSLXFBDLV,82663NVZEPDVVSIMN,,CZBNX,RA,64608
07-05-1966,TTJWUKFKD,WEMBCLUQU,12046CRLBHOJYAECG,,LXLNJ,XS,00710
02-08-2013,DZOSTODSA,JUHRPQKIS,04564PZAATNRIEUIO,,TZELA,BS,54261
26-08-1997,XEBCSNBJH,POCGCHLCS,16176FQPXDIDHFQXA,,PRBEX,HN,31791
14-07-1994,DWSVFSPPM,PBPAAPNCX,16351LKSUNPBZOAVK,,SBBHQ,BN,97757
24-08-1951,ROGBHYXEP,QTFPJSUAA,97101JWQHCQWABJDF,,CVWUY,GY,03122
03-09-2016,SCWXLVMWJ,QLOLXGEHK,58194XERTXXOFRKKP,,LNXBE,VK,46755
13-11-1958,OZTOVMTOC,KUTPFZNII,23481CFDNSLQRXRSD,,ENIWD,IB,74648
26-08-1972,LLNXRKSTL,ZBJSXRLMB,93488OWRRPEDVCDYW,,PYORT,PC,28946
27-07-1988,PLLDSSZYG,FKAHQZFIE,61281SIYWVZCYHMEC,,AQMFT,FI,65812
17-04-1997,MOTLWHPUV,RJRYJKKUF,96557TLHJWHHEVOGF,,DLHFZ,MO,56381
01-01-1977,TEXETVAJS,PTZFQJOXO,27558IVFFSULJKRHS,,CUZYY,ND,44607
15-08-1977,WAECCCCZP,ZZZZWUMEL,04675PJNEEKLFOEPE,,VYJCK,WW,04853
05-04-2007,JHWJYWRAV,MVRXYMJPP,45018GOSUWAABHNKQ,,WGALB,YM,61786
25-08-2018,RXVJSBEZK,TNHUJHMEE,37049ARSXJWWRRATB,,XFBFY,WS,04992
19-12-2020,NIKNSYTYJ,FNTRHATRX,74597DYPWIEUBFFCN,,AZQRQ,NX,13641
06-11-1991,NQPSQHHPG,LZSOSZSCF,29496DDVUKJZDXVDB,,GCPKH,IA,89162
22-10-1972,GBBCHEEAV,KIEZNAXGJ,62881XDHEANXASJZZ,,ISXXQ,GG,19504
21-05-1996,PEBMJHAUC,KBIPLLWSD,22586PQBDKFQJWGQK,,MLGRD,LA,12777
06-04-1993,NREAMZDTZ,ZAFYJPCBQ,50836WCIXEKERRSTV,,MFZKJ,SH,37885
22-03-1967,ZBZAZKKYG,FKRZWDFJW,49110BZPGXDQLBCKR,,MGXJD,VF,62864
07-12-1997,KJLMSNCIN,UZUMYFNBY,91311JPRYTINGAOSC,,MSCEY,LW,89558
12-10-1997,NYBICKDYJ,NUPJKOUGE,26754ZHZFVUHZLBGT,,NUGGN,QH,46937
22-09-2011,ZLHETBRSC,MJTFASAPC,39050EPRFPTCTHASB,,TTPWO,PE,23997
29-03-2003,EKCBSNJSU,PDFUXUYJP,01602PVZKJHZJIOEL,,FDYGB,CX,07648
31-08-2003,PGTVBERZZ,XHLBNBFMU,40194NKEDRWYXUOZE,,TLUTA,WI,92084
09-01-1964,DGTUHNDDR,KGNGSNSWO,72879BYPGPZRHROPY,,ZLOIC,KK,35909
29-09-1961,YPBTDQGJZ,YGUMAUIEE,04518MAOEJWZHYJVB,,OPOND,DA,66328
29-03-1977,OTNXINEGP,SVDXZHQQM,40496HJKWZAXKBQDR,,TSGHV,BE,30559
29-07-1984,LPSOOWZSV,PEDZQHQZM,09767OZBWLYAKABHZ,,OQDXM,AD,78639
02-09-1984,RVKJOVSZN,DYEIKRNUD,64612ECXQBQCFASPZ,,SMKRA,DV,81159
18-10-1951,MAJSVNMLU,TWPLQUAEE,16170CYOYTMEDVHHI,,YZJZX,SJ,77615
15-09-1995,MXEFAWMSJ,QLHXJSPKR,95126OLNKDTFZNCPN,,PXLHK,UQ,46198
01-06-1955,UKAHNOXVP,WBRLTNMMU,44771NQPSKDTMOOUQ,,VWFRJ,KO,59517
10-08-2019,OEFMDFGHQ,FDOWLPYRD,79563NPSNAUPKQJKF,,BJUWM,NF,95918
21-12-1996,HPCHGWCJV,EQZVLZNIA,39623JWUCPGEDRFVG,,YQDAH,PE,41180
26-10-1955,VRAHKGAEP,GHDADBYSN,49581VGEOCURKPPHO,,BLPZW,TU,35892
10-10-1976,TLACHQOLY,VBZCRFLJX,26014TGOEOHYGUFNL,,ZARNC,VV,92403
10-11-1975,CYAVDDYFH,WBPIXLEQX,79426RBFMOCUZFYOY,,KPHLA,ZN,32273
26-08-2013,EFYRVKOJX,AHATVITCR,25783ILIBXVADUFQY,,KXPQD,OG,74613
14-02-1955,CZZOOBWZS,VFCBDBRYR,75955ASDZJJWPLSNE,,UJOPB,GV,64211
26-02-1966,ZAAUOXSGR,ZIBBDLUGV,29277JECIJPKGPQSC,,QGLNX,XA,90120
27-12-2017,FSRHOVWQF,CMRKIDDKK,19096IDXTAVVBXHTY,,GLLTD,SQ,82027
06-02-2015,AIVRDZCLQ,OZQBKVGWJ,50780CKIVTJNAOCUH,,TJUNY,CO,22699
04-12-2015,ZLIDUFZWV,SAIGOJLHK,87821BVELWSYGTHQI,,VECIV,HC,41730
27-04-1955,UTXOIAEYC,RBKQSNHRR,47101NCDBXWDQEEVB,,HAYRA,KH,34685
12-09-1968,PYDKDYSNA,MWOIWXASF,33011HSJKMWSRDIEM,,GUTNE,XL,25512
21-06-1993,UDMCXQRWH,EROJHYLXT,17341XQIDUFNZRBLM,,VXEKB,VV,19771
30-01-1973,ERRFYBHZH,WKMIRRHWA,83255VYGPJUTKFLAE,,QXDSS,CY,82976
23-12-2013,HOZGQBEOM,VKRRLHWGD,62903ODFTCJHZPPCB,,RBRII,EZ,83482
25-10-2015,BHWTQSCMV,MLHLHPCNY,94578TJURZDLCQMHA,,IYERD,JF,13920
19-05-1988,AHNJZJBBG,JDOZMLOQF,21320BPEGYLHGBXLF,,QLULP,UP,04939
20-10-2002,PYSVHIONI,FAEBCWKBV,23171EECUGRLYOGMX,,IAJOJ,RB,54891
16-10-1986,QRGDDSUBC,TDALUFWJY,46444CQKOPTHHGFOT,,JNYNA,SO,64246
17-02-2016,RIIEPZYAP,IESEYNDPY,40307JCAYQIUJZMQS,,KDKIP,UJ,78886
20-12-1957,GYOFZSCWX,EHWTJCSPJ,28781DTLRKSVRSPYH,,SMARI,UU,24103
13-10-1978,ALMPSLIAN,QLKYPUCWV,12154CITTGGHSCFCY,,GULFM,CK,97676
09-11-1996,JCELPDAGS,JTGZKPPVH,97254QDXGZBNZGQNP,,SDFFG,DA,21241
06-02-2012,EYFILWJSQ,TZHDNXMYX,85465NUZARUMWGFWO,,SJSTV,SC,41768
31-01-1977,TQJAOYTDN,GECOVRAJO,29785WPESJBTHQNFZ,,EMBID,LP,91819
16-02-1991,WIXMUWZJB,ZYSTTWAFJ,66206YFUGTIDVPIUE,,YPTBC,KI,14601
09-08-2016,XSGNRJMCY,ZKPWQYQKJ,23083TNJCOPXUEIXF,,XGGXP,EW,77318
17-06-2006,RQSTWEVVJ,DTHLKQFKZ,47261QRYHFYIHOORM,,QOOBT,WB,74093
20-07-1987,GFFBBTHNJ,NOMBHYMHK,66512YTDQXAIBDMZT,,VPOIC,AG,84608
16-09-1991,OIYKQKNNJ,QWIWDNEOK,62978SRKIENZZFLJR,,IWGSU,ZQ,99530
08-06-1951,UGZSZBJZE,VPOWOBZGD,32068PAFWVFFLXEAP,,JPKBT,DZ,69298
04-03-2016,KQZLYOCDU,AITFGLXVY,24836YPDPSGRIVXDF,,JVRJD,QB,39065
29-07-1957,OVVTQLVPH,YIHRHVWYY,67512HPYMBEJHWISQ,,OUBMA,YW,58853
02-09-2015,RLMSLAAQS,QVUWAFAEQ,93361DNFQMSLBJNPH,,UVYPC,SS,31451
21-08-1959,YKMMJRMHK,IHNRNHIQA,62117YPOXZRWEVVPH,,GKDKI,JB,92158
03-08-2011,XJGGUUPJR,BUSQGKSUT,91845WFSUEPMCHSZX,,RCDOE,WY,40234
14-10-2016,AXSAHJYXX,OIXREDIJE,59069EQBGZSGDQPWR,,VHMZN,VZ,40287
28-10-1968,WPIRFGUMB,TPIQHGXYR,74055BNTKDZTJOQJX,,LVOHZ,DU,96485
22-11-1975,SRXUHWWDL,AQAJVKFQH,79010AHJDOEYZNEAN,,MYPMF,HP,55601
12-10-1979,SSYMWQYLV,RYSLEPVGI,05232NVMGCCQPZXIT,,TALMH,LC,50269
30-10-2016,JCGNCTYTT,TGOCHEIEQ,22375NFORMHRJFTOE,,YHWWN,SV,98177
04-06-1954,WKYRZLRTS,TNYLJGQQU,37644MUWUDHGLOGLB,,ATRIQ,PA,00355
28-01-2002,QYGTGQBYX,RSADVMPNB,77643JLFAEWPGCGRF,,RHHLT,BN,25295
08-11-1996,CRVPSLLVJ,IMFOLBZUM,01533ZDTYPQDAPCOX,,UYQKW,DM,07810
15-09-1950,NVYMJGJHC,YECETMOUN,28112AJRHXPNXRFUD,,BCDQH,TI,91741
25-02-2021,TQNKPKHUG,NIMJBSRDQ,54130PIKWICXMUCJV,,LBSEA,OZ,00150
28-05-1986,FSVLUBGTV,KCWWTRDJC,66945WBPIHJQFFQFX,,QLDKR,FS,41717
22-11-1967,FXMJNHJMR,FLZMTJSFU,79867OMYZIEVTNLUN,,PXWZI,WY,96230
04-01-1981,COHZTAUHS,XQJNQSWFY,18956IQHYMTAJAEZZ,,BHJYO,GQ,16247
17-09-1968,YMIYFLUOW,NPZICZWLK,23868WWJMUEGPRVIG,,OJWWS,LR,40095
07-12-1958,ELKMEOGYK,AORFLSBDO,72282QGSZLTHKCMYL,,CQHDR,ZE,32651
05-03-2010,CVWUGUMWG,AJEDVHGJY,79124TMUPCMBCVSFO,,HSKTZ,EQ,46537
17-07-2014,SOIAUHMLJ,EOWCKVCTY,49875INZKEMNCOJTS,,IPQUW,PX,29813
08-01-1969,TQYCIHQMB,FCNCUAJFC,11591KTYDWPNAYTZX,,QCITK,QC,28140
09-07-1982,MZFPCCHKS,QMTKMCDDG,93888VVSVBDTXZLSV,,GKXSU,PV,60257
10-01-2021,OVWKLGTFO,FGVLJBAPJ,45069OTEUBWMRRINI,,ELXIJ,UK,82708
04-07-1970,LOXKPGDTX,NTZMVIRJT,56241YTTDXJRQAGOB,,OLLPY,XG,07667
29-04-2000,RTRXBGMZQ,ZXBECCZFJ,24893BNWGEBQFRGIF,,DTZUE,YM,85773
11-11-1962,HACLTGYNV,OIGBADVMT,73011KMSAHWHPHNCD,,RNGYA,OX,85899
10-02-1974,ZTUSBTDDP,BTAPVPFIW,27200ZAUODJXAURMO,,GWJVM,SY,43369
18-05-1989,XBBZGFXAY,OXTWNZHVD,89106ZUGBJDUHNYGZ,,ZDCQP,DG,31584
16-07-2001,RZVQKBTTI,VRZIBMGUH,95854BOMFLDESSZCW,,OHIXY,MU,46119
15-05-2019,XNWXZVKVY,QVLOVHFDG,59328YFQIYPMLIIGS,,THIJQ,RI,25900
29-08-2019,OXAPERQKF,XUYKULSGD,11230HWVQFDYQVDOY,,OVBBX,YJ,70364
11-06-1997,ONFVXYBNE,GDVQDNXAV,55969ACXZNLARRSSF,,QNAFW,LF,64659
28-05-2013,YYVOXBGNI,YTHZXSSEA,13405HFOWHCAXPLTP,,FUUMP,FI,13762
07-12-1966,QEIVJRBGQ,XZQRRUFSR,39989QFIHFNBJHVEN,,DCCZE,QL,62285
17-04-2002,CLIISPRGP,AUSQLITOU,47133TWMHFCWGQEYX,,MIDQX,DB,61123
05-12-1952,JZLXRPESD,BVNBBOCXE,37215QHLEJXPOVLBI,,FWJND,FE,22165
27-10-1964,JUTMQQESZ,UNOLAGPNY,12909DESHFYNAUJUZ,,BFSDN,OE,01569
28-10-1964,UVHZTYVKG,HBNQWKWLM,79212KGOATNXCPRLS,,YATSJ,KC,37245
11-04-1959,WXUSUUNCA,YTURHFXBZ,02731RYUYBAOAIULX,,CGBNK,QH,93277
23-08-1983,EWIUBMPSF,BGFZTDWGW,48555ECUKHLJQQXQJ,,JGAGW,DY,13931
09-10-1986,IYFNYPFLX,QYZAGGTMZ,62215KIFNATYYTOFJ,,VJBZL,FZ,04230
04-04-1990,ZVCUZIXSF,DKJDNFBMX,45764XJXRXOTJKXZD,,XKQDV,DQ,15916
27-08-1977,ZKRTPJQFC,MDMZQQZYH,36305XYLYXLKXAMYW,,WBTRV,RA,06299
02-05-1995,VNIYPRWFH,LWICJOEKV,02715HQWKRQIWGJLA,,KFNQF,BS,33678
01-12-1990,TYULBNJTU,MFZOJVHKD,13048ZCINKTJGHCUG,,ADKPN,LU,78585
20-03-1976,SWTNJNTYF,IHRWXJUXA,22390IRYBWGOLHJST,,FHQDY,KE,87716
19-01-1961,AOMHPXFLI,DQBDUQEDU,29151JKUXAVBHCTDU,,JLQXX,HV,33658
30-10-1964,FBRPBANIO,AZQEEVQGG,84546IVEPKQINSKCJ,,RMRAE,JQ,02231
19-02-1952,OCWDTPKIH,DFOYUDBZH,44300BZRETRKSDNNG,,ZTMQV,LA,43684
03-10-1998,AKBQQIKGM,OIWAYVRTD,38470SDPCUPNXQQUC,,RRPPZ,AE,27029
22-05-2014,VVPNQPJKN,XBQXJVALM,69693ZXXBTCJLCEXP,,RLXFK,FC,63391
16-07-2003,QGYRRGEWC,PJYYSLUTE,70112YVYHTRELFBSW,,ARWPU,LO,94047
14-07-1968,MIXQEBWDZ,JQLOXEESX,16680RMMSDNDVWUIE,,OWKTD,WG,27343
09-07-1983,WWDMFOZXO,XIVWNHQNE,95219POIYDMDZEXIH,,ZUKXF,PU,79750
06-09-1952,YISEVFCTO,MUCQAWNAG,73283KOGUUQWSNYPS,,MAAQB,SE,29937
17-09-1996,WZVCCACHK,WMILUCGCI,21718WCDQAWKJQMWZ,,VBODO,HJ,07675
15-10-1984,DBWEGGYYH,ILWOJMXOD,81823IEKQLMIEOWOY,,CLFJE,CB,65886
07-12-2019,ZTGHTPWIG,YTSBTKDPF,83637PHZTUGLLSJRD,,ZPKQQ,UR,33180
14-11-1960,PCJWUHGJD,KLJJDPVAY,90811OIAZEATODTTS,,IVUQO,XQ,20841
04-07-1985,EJJRMUGZY,ZXGQIHEYY,09522YKDULXNINSYY,,PQXXL,CZ,34508
24-08-1995,TQGZOHTYP,RECFHUDPL,66210WIHLEODZMUZI,,VLLUY,AA,31357
24-01-1961,OHNTLAVPS,OQTHDOQON,65782BNYQMKBAUKLP,,LAEDM,BR,26308
12-07-2016,MDWMJSMVZ,VJQTNLIYL,81281IBWCFRRXXCIO,,RZNWX,HR,72630
06-02-2017,AVVCNMEZN,CLGJYHNKF,51318KCEWHPFGQWFK,,TUQIH,UB,50948
04-09-1985,ZWBZUZSAB,SDQJWDUZV,03570KVLFPDXQRFIM,,OSRAL,KR,78008
12-02-2010,PENDNCPST,NPRGRJGNF,44565YCPYSUNJKFSV,,HIGRB,GJ,12404
09-05-1957,WATWAWHWO,PMGNPPBNZ,90882HFNECVQRDUPK,,MJQKJ,HO,11278
19-06-1986,NXYQHJJCR,QTXMAMNHP,47940OIYVWCMLROUG,,NXSKS,YK,78013
18-07-1985,ZWHGOVBAJ,VZZTJXXCC,06374PBAFAGGATNRQ,,JBFKM,MM,64062
29-03-1990,FYHKOSUXE,YVSFFBXTH,03040ZPEWKAKEVMWR,,BVHHK,OL,20899
18-04-1955,ATGYKREOX,NRUUHDHNE,86574UUJABZNBZNKF,,OBNPR,GL,32825
18-01-2013,QKMTZNDNB,SLVBSBUKR,53158JWZQUTVWTHAW,,BZVLK,LJ,64593
26-12-1988,VMTJRZHSM,UVFETVHWM,47104IUPEINDZNAXF,,UPCAV,WJ,29761
23-09-2003,AISDQKAZI,VRWRHSIOM,99337ZJLKPTKPQYMD,,OMJUN,DN,70055
28-11-1988,CDBBECSWT,KTUAIFDNP,99498QOZYWAKGMCQZ,,PCMUT,TE,79738
04-01-1977,QGTVDKGYI,MSZWXVBZE,48897AVFBTOYRLFOD,,HRPVY,ID,00142
05-04-1961,UACMYLYRW,JZFQMRAQP,09176EAJFOMJNMAWJ,,ACMBB,MM,47674
20-03-2019,CGLELSCOC,AEQMPCYVP,56800WLCIDAFQDDEO,,WCBLJ,LB,17683
14-07-2015,HXLYRORQG,JLFZTXFRM,23502ROGNAGZDKIEU,,KEINW,NW,14546
29-12-1960,AOZXSUREZ,DWDYAKUMF,63923RFKNTCHUVDWU,,IBJIR,OP,22782
22-11-1991,VHAYCECZK,NNKEEKILC,06705MSNUABITFHXK,,MNNBO,MN,27883
23-08-1950,GTUFTPWZS,EKWLADRIA,45395MMVNVAPLKEPR,,JQRBI,NB,61092
24-04-1986,DSVCCBLFU,IIVHXJCPR,11685ZJNPJDQNGUUS,,SNRNK,NY,01733
20-09-1956,ENRKLBOZY,FKWCOLQZB,32675CHVLKMHMMJQD,,KVMFV,RO,26727
19-08-1990,FDOQNXBAX,BCFBHUXML,07882NEDKRKYCLFMQ,,JAFOD,QH,10863
14-04-2015,NKDXPGRYB,UWVGTOJPE,41881LALCOZHLUFYS,,JCNAT,QM,28655
04-09-2006,DBYCWLJMB,TROTRDODH,60139XNWYMIMVAUAE,,ENBDZ,JR,07897
14-08-1987,NADXWRTXF,FWBCZFWFJ,12172TCBJLEVVCYIY,,YQIWR,OG,17722
26-09-1967,WMBGOXMYA,QMTQRAHYR,85425ZRDAZXMVCYFK,,TAMEU,CH,06054
17-09-2019,MZEVAJGAK,HVTNBFFOV,71276UNSZKEXPAEHT,,RLBTY,XV,85773
09-05-1989,CQQZKVQQY,XQOHJKYLT,64661JJRMQXPRWTHN,,JNAWK,MB,32516
29-08-1952,GDMLMRYBF,XWGCAGEOM,87496XQVSERRELWXA,,RVZTN,RU,12263
28-03-2000,STLMFPGSR,VTQDLGOEL,73713ISGWGGNZIYKW,,RKFWN,PC,19018
24-09-1955,XLUTUWLYZ,HQIVYHNQZ,17373CDVTKTGILJFD,,JUSST,SE,43983
22-01-1987,OJEWMYCOS,RAKROUVOD,35804ANLEEINJUFWD,,HSJDZ,CQ,26696
31-01-1988,LFMEODFTV,ASZMXAEJK,46509KTXENBHEAHOT,,NJMEW,ZM,09817
30-10-1976,LHYZHYJKB,HXHGCJSWG,94848YAKLMCHPHYBF,,UPGBV,KK,37675
25-04-1960,MXSQXNWJJ,FERFUXJKC,39296JJJDRMZINHDG,,DVOBW,ON,16768
17-07-1998,RKENZPCEU,UOYLPTVHH,71538LWREODVZGJUR,,QFCJE,UG,47332
08-10-1971,YSNWJIUVU,RVPXYAIGR,40287SRKAEXZAGDBT,,IIAKS,YF,96218
17-01-1979,QLFKVDBHB,QNQBYDBBZ,28565UYOOOHNGUBOB,,LICZT,UJ,89922
30-09-1994,HWQUNZUKM,CWVEIDTQC,94621QGYZYXNCIWVM,,SDRGA,UT,12934
17-01-2004,QKKIUFGMT,KWHKVFQWP,20995DUGIIQLAIWXR,,YSMVY,OD,28692
15-03-1974,AYZYGGVJE,WTESEWTIZ,76341RYUFOMLDJXSO,,MQHNH,YZ,97549
25-08-2008,UAJTWTQDN,JAYXSPZKU,55658KMYEYQKCAYJS,,ZJODY,XZ,97712
30-07-1951,RXYWVGXUK,JBGXGHILZ,61261RDPIAEYLBVKY,,XZFMD,KE,54565
17-01-1982,HGPWMSIEO,DDRINXCNX,49329DSRIXEZWJHAF,,AOHUF,AT,38375
19-07-2016,ZWSPCNQHB,SOJPDFUHN,41249DKSTEHEFLSIC,,YHFZI,MS,09083
03-02-2016,IJJKAALNT,ATPIGSJZL,06585QXDKWBYHPXNE,,GOJRG,SG,39412
07-10-1956,OPRTFEWZW,MKDHXNRAR,50659UCXKKHQAGMXR,,UNUCV,KT,31620
07-06-1956,AKBJDHWJI,YAMHGZDOE,97411GCFBTYATAAII,,GNPLC,JE,23162
02-08-1960,XBCGKMZMX,AZOHDJING,09349MDZFIWYPOQNT,,RHMLU,QC,27617
22-04-1962,LTFOMFUJS,HQMYOKFSI,55104GSZLGQVVESZG,,IQZIZ,FE,52979
28-09-1995,NGHLKKNCG,ETQUMLKJN,57952OOMQXEUYPQWW,,KMEUP,WA,79660
07-03-2009,YZUDLLVPS,GVLOCDBGE,00640YFWXTNADXJWW,,UINXE,AH,96950
23-03-1968,BRBRANGIM,CRDFKSEKW,05510MJRTROFLBDIA,,KAGGF,NK,53672
16-02-1960,FHDOLYGYU,RXTAAGFEV,56922JVFGHNNCBXQC,,VBQPW,FY,11099
24-05-2014,NEJQYMJPS,OLVINMXKW,27832EPEDIZEZWAIE,,IIGHG,WP,95111
17-02-1971,HMXJDOGSY,IVUYMNOWT,53349VNZFGQUQGKVC,,BFKDO,HK,10764
10-06-1974,TKSRCMBZR,TTPQAMZOR,05173OEHVFDMXRYOU,,VDCOC,MK,04937
26-04-2000,UWXUBYLMF,KNYFLQWHY,13201RUSGFRWBHIZT,,FRSAL,QG,80008
10-08-2007,VYOWFROMO,TPYRQOQFK,91788KILLWWMIFAQZ,,EXPTB,BJ,40847
15-11-2004,VDSTJSWUV,ZNXIPFZOF,74115CNKGVWXBPFMM,,JDXPB,MG,46776
29-07-1986,DAHFCOIPP,LTWIYJTTU,91287KFEXITBRQXUV,,YIXFC,RW,28336
03-02-1974,ZTFWJSEHB,HTVXEJTPJ,03801UMROUSDKYPEZ,,JBPYJ,VV,30513
23-09-2020,BTDMZSEAP,AGLNRTCOF,45499XGKNONQWACLT,,WZKWZ,BS,00498
04-12-1954,XEOYGBMNE,RFOPVICAI,65739VZFHPQMPNWYU,,PTCPL,MV,05537
05-10-2013,BMPWQXUQK,DMIVANCAO,55615RCDMTMCDLXKP,,GNWDD,QK,16613
16-09-1975,SRSFCGUPY,ROLHALHSC,55232MHWSFDUPRMJK,,BRLKK,TY,89490
19-12-1972,EUPLBMUEB,CRHIZQWSW,81022HKAIKRYZCELS,,XFZBW,DR,98736
01-03-1972,LPFUDTZJP,MMVCXEFJJ,31989QVYEXRETZAFZ,,MZNKV,YC,91475
18-01-1994,VYZLJWJGH,TXHROXKVU,81235IBXVBHDDTDBQ,,GMUZL,NT,93284
12-06-1988,PEPAIQSDL,RJWGVGXGR,12231CTLSDAVTNEMW,,JDDEL,RK,16099
24-01-1986,ZYSCWPUNP,ITRWJPTTT,54835VYQVNNHTECFV,,JGRFV,UP,40195
22-06-1970,BAIBSFKWF,FEZXDAAWD,69330JPMJIJOFHASZ,,GZQNY,NQ,69650
23-11-1958,SRHLFVHQN,JWMFOKMKX,92991PUSDTMHNGURT,,PFXLC,NS,65996
10-01-1983,WSVVJXBUW,FAYLFCWKJ,49872QJDKQZUFRNIC,,UIERH,EP,90549
10-09-1998,BRLUKVVJB,TLCRSUGVS,59374BOMWJOSVTRAS,,GIVFZ,DJ,87959
30-06-1975,CGLTYTUCK,CSUQYFRFA,77329RMPXYKMZXDFG,,CWYOE,BZ,29128
28-11-1994,AQESJGOOK,HIFUXUVUD,05379ONRKOXBQCZQO,,XIBQQ,MY,64540
19-08-1990,NFHSLGUOW,ZDBYCZLXL,19215ZGJRBNPYROOP,,XJRWG,RQ,87332
27-12-1974,SAARCROSZ,HYXXVRGSC,50791XMTIATNGXTUZ,,PUSKN,YS,36835
14-01-1996,VMFRKSDMY,SDFTDRSQW,71343YYHXMXFYLOWC,,WULFF,HG,17999
26-02-1994,GAPOUDRIV,OPFPEQXHI,02645TVLEBHRPFANF,,CQCGW,NA,25546
07-07-1959,KYDQAQZXK,XHBLFKDIL,86220HMTWRFNQSOPH,,HJFYT,UV,38483
27-12-1967,OXCQCOFKK,MCKXZNPPA,33096QBBVYGGBZLYG,,OHEQB,QI,79636
14-02-1953,DWLIOLNHW,YGKYUEOMU,48742TLBKSIMQOLFT,,JFHWP,HG,69483
22-09-2009,XGLFQZMRJ,VJXLERZGG,16256YOORWCNYDLMV,,RILAN,AM,75560
28-06-1955,AVFFSLLTU,HEPSSWKKJ,64939MEYSXLZQEOYL,,HICWU,MY,80364
19-08-1987,CMCVUQIUB,GHFNWYVDE,64867ZCGNUDZZKHQV,,KCASY,OR,62357
10-04-2014,JBOTVENSA,AMUXNXTAO,93102EEQOTTSPFQIY,,VUKGS,TW,61411
28-01-1988,DZHWTJJUF,WPROZHRDM,17796PQDGTUWRBIDA,,QZTSI,AS,63027
28-10-1960,WHEEWYQGC,YHWAGJTRC,20566TBXZANCJUNRH,,VYIWK,OR,24996
22-08-1970,HQHXERHSZ,MGQNXZWNP,31733FXSEJXXKBLLE,,VIFWN,XR,31565
29-12-2002,COWWTZSIY,COPUCQBUV,03867OPQULXEURUGU,,FJAWL,WX,37745
23-10-1965,AIZYXQYTO,VWKEFVFOW,66589GZGGIXTVXRRP,,MYRXC,WM,85563
17-09-1997,GOXPBIZLB,VZSCWUPQY,98750SZOEEPSIWAQE,,LIXPR,HY,88356
09-11-1997,BDTGDYUBE,ANEKOMJSS,48714THAPMJDZQSLT,,YDLGQ,PX,14271
11-06-2002,BIVVAFDTV,YSGGWGOOZ,32044ULJDBQSGQSZL,,HNWSB,TU,92849
03-04-1952,BLQWSIHIU,BJJTCJBPZ,10543PPBFNKJDHFHZ,,DYWOV,NE,41799
11-11-1965,JWKSVHMFM,SPEXDGQWG,32334RDQWZSWLIZOH,,QIIVR,VR,98249
21-02-1986,GPJSOSEZI,ZRBXSHIPP,71103ABIAOVBJVRJX,,UTEAI,WC,04108
24-08-2003,GHARRWDRK,KMLUYKGAB,19140IRHELCRSEXBD,,ACVQI,RO,35765
16-06-1997,HCRIZWGQX,DPLEFKREA,48960WMKTPJVAKSMJ,,CSUOT,MN,07096
22-04-1961,COWSIKILE,QOMAINWVI,24722QZYQAFHULYFA,,MKCYL,OS,85618
16-11-1987,JDQKUJZMR,CUYGNYXBA,20964CWAXABWHCTCR,,RHLZP,UZ,98282
16-11-2017,AXTEXGUEF,SSCAMGXPK,00120NNJEWIODKYSL,,YVFLM,LM,56252
18-02-1976,KKTBDSBJB,MPGLJLIXA,63929FVGDYPVBFNHP,,LUJZM,ZB,32688
21-05-2014,ERGQWXTFB,DOVGXPSHE,21802DJJBGGYHRQWC,,FDCOH,ZX,44918
29-12-1969,RBZLZXXAL,UGPGFCEXC,61953RREXOHXKTICW,,JKHWB,OU,95198
08-05-1979,KZCFPLWNA,IOSDDPAEL,65573AHUXLJKSIIUJ,,ZVAZG,TV,54093
12-02-2002,LZYKQRLAZ,UKMOQXJAE,06757CJYFLBLZRQTH,,ACBDB,HU,43807
07-11-1996,CBJKHEJUL,WECPPOXQJ,06055ZDSXJXXXNQNI,,DDHOR,MK,96948
03-09-1988,XAMBQEICP,OQXFMDKRO,88036JCBIOMEMMOZR,,SLIBO,AX,08932
21-05-1978,DDOHPKDMP,JFYQZDPOC,06710KSIVCBRZIHQF,,DWXRP,NV,99332
25-04-1987,JIXCKANQO,BHNFLIRQU,41395JCXFYYVEINPE,,VDBOS,CS,88857
20-03-1977,XVHOSMQEL,BQUXENEFL,68876OKZENOPASZHQ,,CMAFH,FY,75493
28-11-2018,AFSUXDKFR,UNRMNEUTW,96405AHCQTCWMOQXB,,GCNVF,KO,00833
21-01-1980,JOXCQULPL,YDWHAPADV,90116XEENNJJHGRQN,,CWZYI,MA,16019
26-07-1978,QQZWMWFGQ,MOBEPHEFG,98803EXXIDIPAAZPY,,WPVPR,IY,94212
18-02-1955,MOZWGFKEQ,PHIACGOQA,50285PKHZYWUMXJYO,,IOSJZ,SE,64393
13-06-1979,XYQPUFSTP,TPWBIGMVK,21980MNNPNGTSNVMJ,,OUBXH,TE,17939
11-11-1951,IDDDEOSXS,DWQTLOUOI,86044EAFOGBCKOBND,,WPJAG,MZ,69081
10-07-2009,DLMKIAKJZ,HNNTJFZYM,62862ABXYIEZMMYKS,,CHRYH,OS,00481
07-03-2017,BMHWEPXRU,KNXHGNEJX,35911MTGKEMNCVGZS,,GPTWS,UF,55721
09-08-1994,QNUKYIRTE,BXKUOYSMM,57971DXXQPNCLSRBU,,FCOQE,IT,30161
28-08-1993,AXKOKXBNY,KPMYFLNWM,67993OVAREFGYUENF,,ALXFV,BC,76622
18-12-1964,VZQFJECWO,KXYOTKARI,54334BPCBGWARZKUC,,YAYZR,NE,49048
14-01-1966,AUTCQBFXJ,RTLUXQGRT,91725ISUTVHMBPCWH,,KROPO,RT,31783
05-07-1977,VVEPKBOPP,VERSXEVYN,34813XTSPSFGIZOUU,,YWEPB,EE,29081
15-11-2000,PNWOLLWFX,ODFSGDVIK,56856LQKJDPOXSZFX,,BCRHQ,XB,07510
06-10-1953,DWTNRONOQ,VHOYTUJBS,61344ILNMVOGODHIR,,OGHJX,ZV,57790
13-07-1980,ANRAVHADX,GAADCGPSM,37314XKXVGUGJZBQY,,GEKRX,DW,52141
03-08-1992,REWNPVCAI,GRMIZFDTX,78117EFDUEEMNEAXO,,DKLSP,MI,60433
24-07-2010,ENWMFOPSW,WLYURTXKC,02515JENPJXELVOBR,,KSVXR,IY,65970
25-02-1968,AYVPHFBXE,IBDCMGDWT,62526ZBXISDLEEMJU,,FEEKH,KC,85123
16-10-2009,QXVKJJKEF,APXYDGMYJ,60608CFBLVGEARYDR,,VHZDF,HK,06566
27-08-2005,ZCDZIPAQN,MIYUUDTJX,30827MPDFVMDYZNGD,,BAETX,MX,08430
03-08-2017,JCIYRELDR,JREKMKJNR,52708VHQPIEDWHQDF,,LKVCN,JN,90963
25-06-1980,OJISDUTUM,QWQHWNPRK,45584NGTLTXUVAQIB,,GXZMS,PQ,51885
08-08-1979,AACSYDVLU,YAYHEWMBC,64915ONXUBEEXNUKT,,XWATK,WE,02171
30-11-1973,MKZQMQZSK,ARIFDQRJZ,49287PGAPEIJODUHF,,HVTDV,TV,51327
27-05-2006,TWFUJEHPW,ZTRPEZVQX,17568BSQLLWGRHBWN,,GHFYB,PB,44643
04-02-1983,NUNRATYTJ,GUNKFPVRA,83065GQPINDAATUMO,,NJUGK,HL,60950
24-06-1957,DNDYXPFOH,VYCZWWCXB,59047UPKUQJTHILSS,,JVWLH,ZO,90570
22-08-1984,NGPGLNXDK,JKUSUKFLH,74694CVMVLUCMUIUZ,,DFAUT,UF,78652
08-04-2004,AJBHYMSIX,ERMQUJESE,95628TNNNEHBMRSVK,,YARMF,RG,88675
08-05-1958,PQNSXETEC,HXIXAITUW,93126QVITGPXHQTGH,,VYPRD,WH,32703
06-01-1983,OJZSQGNPO,BETOJBGNA,39290YXOYLPWFQMVU,,VSOLJ,RJ,38100
02-09-1996,GKDLCEDXL,VLGCFQZYG,76485KTITVRVHHJIK,,BFYOL,FK,79353
03-09-2014,PUWMHMEHF,RNBTINBVI,48166ZADWLDCVEXJL,,MMSLX,RV,82724
23-11-1978,GZZNQVDKX,FHVTWDXAE,18980KFHUVXTQIWBX,,YUUWY,PN,34234
14-09-1992,IATWBVSUX,SVVBAZMNG,07814MEAEFXFXVLIN,,WHWQM,UH,19742
13-08-1953,ZLSMWUNLY,JWNCLXNHV,38322BHWOGXJSCSCT,,FSENN,UN,15565
13-10-1956,STUSNVRES,OPHEPLUDN,49297MMETHWFANZYA,,ELVKQ,GB,89594
04-09-1951,RHZLCANWJ,IUFSRGFOB,29628APPHKJCCPUFV,,GRZAA,YF,14924
05-05-1965,QJYMHKMJW,TQWMCNCHA,54588XDAFTTXLIDKK,,RHFNW,FS,52347
14-02-1987,JXHRWQSRD,LPZMQQBZK,34276TSORPXLDMUMT,,UOHWX,FL,25090
01-04-2002,LPYLQJEHE,YXHPZANSR,00993GLBJSWTAKYNC,,IHGWE,UY,71866
12-12-2013,HKCVWPNDK,AIEQNNMNM,29582KNKREJFZDYPC,,IAZVA,PV,73775
17-03-2019,HHXKRAJBV,EZIILMMFA,90995QZJZVVGAZGYU,,PEMDU,SK,85663
01-12-1979,VUEEHGUZC,POEMVHVRY,84459WDFXJJUDDJJV,,YKVZV,QN,08167
29-08-1977,KYPNOCGMC,FYQCZJPCY,98174TQFDDNBDRDQU,,ELXVN,SI,30318
06-10-1971,VWRLBNCHU,VIRNXAKQY,57872ITVOJVKDOBFI,,QLYTZ,JK,08145
15-07-2015,LMNICKYWJ,EGCLLFHSW,30400CITZDMDWETBM,,RLJHS,LE,25906
11-07-1960,GROJPUQSJ,MCFSIKCPU,70508CWIMJLFUGEEU,,PBNDE,ZI,69527
15-10-1986,PQOZZOMVF,NNVQTLQAW,01334DMVSRMGCHDNS,,IIWVA,SW,26593
09-11-1962,GZJKFXQCG,HUFINNITZ,62361DIIRRHHEUBOE,,MNFPC,PQ,13338
14-04-1984,PJWLBDBPH,XRJSVPEDB,39023NIWYVPNTSEBU,,CGNVP,CD,52317
03-07-1981,MLWWBPRTA,UCLLOFLHQ,16346AXFNENXSLPLX,,PBYKS,XV,05190
30-04-1996,GZPJVBCXF,OQZTUYMZD,16554SKQAUOLGTYBQ,,CAKUX,FW,50583
10-04-1993,WBFPZKQQB,ZUKZNEBJK,79854ITFQCKJEFORE,,GBXGF,YU,59623
06-11-2005,THWCLIYZG,NLURCHHAU,55785JFZSOYXCEDWU,,ECKUR,SM,82005
27-03-1964,IERXMQIZJ,AZFTDXXMO,37082BFFMRQINBFZP,,HRSEI,IL,92652
25-02-2010,TYGNNIGCY,AWWHIMZTU,13143RQPJMUIMAQEG,,FADDR,HL,65987
13-05-1984,MZIXWNKPW,BLMPMWEIB,05892WHULXNLGJFDL,,JGPMZ,LH,83776
21-09-2020,RTZQWKNLJ,MDAYESETQ,23425TYAGKPCNJLDL,,SLPTF,GG,37903
14-10-1972,CBBANAICP,NJLRVSSLI,86670COZDPGBMUAMT,,FUCCD,HN,16371
05-08-1968,FZQRGEULZ,HJLSCPKCH,11038LKBGXZNCBMJQ,,KAKLN,LU,81964
18-02-1984,GOICOWIFF,XVFEQFEFB,11082USVSZBVSXSOV,,AUGHO,TX,51740
27-11-2014,BAKLSTFXX,GZEJHDXOO,09247UPZBLKJMWVGO,,ZSWKK,RG,31570
09-03-1990,TBCJKUJIZ,SPRNKYISI,62947SNVNFXNDGXNI,,BOBZP,BU,69762
02-10-2000,NRLKQPMHV,QXXJWEHLI,96601UNDUWDUFMRQQ,,CZNXO,WH,27665
12-07-2014,VYJLNURTS,ZDXZWIEAP,72661GTKWOKNCRTKX,,ELXMQ,RK,60554
03-03-1957,WGPTCLQSZ,CMYSIVAIB,41471XUVCDYQXVYOF,,QVXKA,HP,06610
25-10-1969,TQCVDEGCN,RTQRXNVWW,95608PLOEHRRQOXKM,,QRKAA,QJ,46121
04-01-1975,MLPSUAJSU,ADPSTPZFX,71702ISLDHCEWXBNT,,OSGVF,AO,48238
28-04-2006,NSGTFYCYE,QMAJJDTUV,17462JCWDSEBNGZJS,,KHGQY,HY,34786
03-10-1955,XVJUGFAYE,GVOWHGORY,12119NNHWXRROIXYK,,LZDDU,RB,26792
24-04-1985,ZWFSZDOWZ,TOHJTKAZV,79515USIICZJNPVOX,,GXFBU,GK,99787
10-01-1981,RRVURSMUQ,WFTHOFJUA,98752XFRRAVKPVWCS,,QZALS,FZ,36567
23-04-1961,IQWZGDSER,BMWWIGMJX,53978TVWATXLMHYTU,,OGPEZ,TF,28338
06-10-1960,YVGHJNINU,VAMVHLEOI,88091SIJJRQBQMXLB,,KMYXP,UD,29461
24-11-1972,ILMPQLOCF,CPYUTBNKJ,87930SBUPZBZPERFW,,GYRIH,VL,96675
03-11-2012,FVPASNINA,AXNSBVLSY,83282JXNVDKFVFBBT,,MQBMO,WR,75077
11-09-1959,GFWZYXINX,BPADKAQWG,44007PCXYXWFEPBUR,,VIHOI,EM,08883
04-07-2002,JENVRTMIR,NONSEZGPX,64058PTAGJFQFJXNX,,GLVFO,XE,13285
28-03-1958,PIEKLZAXH,HYYREFVNR,25112TZGMSTKCSYIO,,DIXPK,JT,99871
18-02-1977,UFTWXYFWP,DKSIKGDLA,82415QAWBATELLZYX,,CILZR,JP,39654
02-01-1997,CARFJMDRJ,SFJIAHOBX,41465QUDQVFSDZNGM,,HOXDE,QA,99909
26-06-1954,KWIYUFOVX,YBJJGWAFO,88481RAXMAXJMKPCY,,QUQUR,RE,06803
26-08-1982,DLICBHGZR,KBBCPPZZY,79229EAUCQVIPIYLK,,XAEDV,PV,04066
10-06-1986,HYQSNNIJM,LKLJDDQUT,86028MAXEBJKHRWPR,,PFGHU,VY,06339
17-10-2000,XGOJRQGLK,NUSZKMKIY,29696XKGOXOMWBVRD,,QTTZX,RJ,79457
22-06-1987,HJWQHZDQR,JUNWKOFRA,27243PMWFAVAZIGUC,,NOBNF,KQ,08018
20-08-2002,NBORMWSZT,WEFTKTPTF,59219HHBPBWXCXHOW,,HARCF,SM,69670
06-11-1968,KXQGDMOYC,RQACAAZNA,26322WUOBLPIWKVCN,,USDPA,GF,59089
29-09-1951,XAAEUMLTX,RKNDOKPIL,64905EXLWKCUINSGJ,,UTGIK,YF,21017
23-12-2010,FOPAPMQBY,ZHCMTMDTT,89237FWBVMMIWEALT,,TQEDA,OX,47936
06-06-2012,DBDFQNHQK,MBUDSFXXB,23616JYVKNTDEFRJS,,IXUHC,UP,00348
08-06-1982,ZBFQBTFNN,ZSEOAPFRA,39759NVPRFREQVVWX,,ZWFBU,XC,48707
07-08-1951,AIOKCPVFQ,HBFRQJCDF,93451GTTQTJGXDPRW,,UGANJ,AM,51440
15-01-2012,UWZVSBVSE,KVZKJSRHK,38178PUQKZATJMSYY,,UMZHI,JH,23408
11-10-1992,ACPOEMVYI,RIIKEYIRF,81364XHXGCPOUMBDA,,KYDRO,HL,77864
19-08-1963,QMPFGLZBC,OLCYLSXIU,66136OOHKSZWFCDOW,,HUJML,AX,04274
10-12-1989,ZYGFOIHES,GBYTSGFRP,08206JMWNPALIVVIB,,BEERS,IL,35554
25-03-1998,JGIFPDPSY,BYEGLIZBX,40892SCFUWAGXYSWJ,,GRNRQ,ZM,08520
19-05-1999,UDBLCYZQH,XTWDOMWCY,47316WGHTQWLODXIJ,,NANWH,RB,12497
06-05-1968,TMVULXUYX,LEEHBXMAA,69788DFJJKKNBPPHE,,EBYFD,QL,29125
31-07-2006,DWINZFOLM,UGOZCZVGM,32186ZEVTYOTRNYMW,,IMCGS,XO,64344
17-01-2012,KDYMKEFSB,OFZFCIPDF,36627SWWEADCYJULI,,ITUJI,EZ,35658
20-06-1963,TCJAMBLQA,WXWTOFDKK,61073UBZVBLJSNFTH,,MJNBO,NX,65956
23-06-1950,IKTNSLXWN,PBTITDRIN,89257DKFFOPAHWYXV,,CKNNI,LT,81018
12-02-1955,CIDCKLVCY,EMKEOMOJV,72762AAMBPAODDZXF,,LQUDH,NU,43383
04-04-1961,QCUJACAID,RGJEWBSRH,46490DWNINYHXJRLW,,TFNYA,LD,19828
14-01-2014,PWLRYRMES,VIXLUJKCW,01439YABOOJAZXFDS,,FSUXQ,SL,56345
24-01-1983,LIZHURODT,XAKDIXWGE,30539MJUIUGJKJDWS,,UKEYL,WR,44699
16-06-2008,UMNEGMQAH,GRGYYSFBO,21834IGIDJZPDGVCB,,EPTLY,QG,78941
09-09-1985,JRPNBENDR,XFXDMWVYQ,63655AUPLIYGTJTWW,,ELOQQ,UN,71741
12-03-1975,LHKGFMHTA,MJJGVDUYZ,49591OMBGTECYYTAV,,EBNAT,IS,80399
25-03-1963,QXXHXZHWL,ONDNLVETN,90589RDCBYRHRUHFW,,XYLYT,SR,04586
09-03-1957,QTOMSKTBO,FOCYUFGUY,01249VDDOKHKONCTD,,YFDXH,XH,13558
19-05-1959,CGMDXIAVI,MQDDLCTZW,95064ELNWLEWSKUTB,,HHCSW,BZ,43691
03-08-1989,ZWAZEJJIA,HXZUVBTFZ,52115BSNNBMQHBUYR,,GTBPD,YY,29766
05-10-2010,YKDBBDXYH,XHDAWCKXI,92235DVBYFCQEJBOT,,TMIYW,LU,54120
01-12-1958,LQKYCPDYU,XMGTBOVCP,25587EGXKMRRXPHQM,,BBUHV,DM,28487
29-04-1960,ZMBTEGYFY,LWWDIAVOF,63496HICHUVTKHHEB,,MXHOB,EI,27712
26-12-2005,KULCAZEZH,AICVQQEKI,78377QHXGVEYFKUQU,,BSCHC,WZ,96915
06-08-1987,KBCRCPBTC,LUGIRLUKT,62864KNTVTYSJQRYG,,OBLVG,HI,68886
28-08-2002,ULIFZYLQR,KVXJNSPNY,22310OKJXGTFYPBCM,,WEVVD,SG,61667
15-03-2013,NDLGFKSNQ,MUBTBLMZA,74078FNKZQYMGUBQN,,BZUXY,XY,81413
13-06-2006,UAPTCOHNL,DZHRSUDUB,10120KVOPKVMMCCRT,,HEQNA,XR,27275
02-03-1954,DWBQDEAUM,DZLAKMKGX,04333OKNIDXSWMCNL,,IHQJK,QJ,43065
14-02-1978,KYRGHNVGH,WOOUEZIXN,50437BGZWNJOXEQFG,,MNHLP,XD,72257
20-08-1967,HPGRUEBOV,DOFPYTMPD,68489VBTKXSXFVIXH,,KOKIZ,QQ,76874
09-07-2005,ATLGGUVMK,TCYZDQSEW,45228GZUVMNRNIUEM,,AQRVM,TH,74520
10-09-2018,ULNKXROPW,ULWXRKUEM,11425NPRYWBFFFOFW,,LIUPZ,WR,91034
16-03-1986,IFSAWRNIW,HOVMZVKWY,94826YQDONXQDOZKO,,BTFXD,HP,41475
02-06-2000,EZZADNOHB,LGJJMOLFW,15408JIMUPAGFFXEW,,BIQWM,NN,76252
13-04-1972,ZMTSNPAWR,TVMQCQFRZ,61951YELLFKNBGZGQ,,IMPCK,AQ,63598
13-05-2013,QDNVQWNSZ,RDJCOCBVP,63490MOCOZQCJBULM,,YZHPU,LH,33765
08-11-2001,ORXNVVOOC,WJVWBEKHH,31671RQMCOUVXTDMO,,KCLFN,XA,73930
15-06-1956,JBSQLRBSI,WJLDWDPDM,52328CQATMYKFKXYE,,AARSL,SD,52369
29-10-1994,HWOTDBWTP,GNLJCQDFH,77884FYLYNPGBTCMF,,FOSXF,EB,43918
10-05-1965,ZHRDNLFAW,SPTIVYOZG,86165IPMXXOZIVLPX,,SLECM,TF,24869
03-12-1962,YNYFZLVCU,JTQKLSAOB,18354DZRXAIVFTEDK,,HYYQC,CX,08399
20-10-1957,ATICNSHKF,JEFHVGKDQ,00221AJOZWWGSBUPO,,IALSQ,RP,60808
27-01-1987,NURNMTILW,WHGWUBDZR,72418WENGZSSFHZPX,,UYVAN,ZB,37560
28-02-2010,ZJCNCQAZP,HTMQFFAJV,90722WXKQXEHYEUXO,,DRZZZ,OC,88230
18-07-1996,IXRTXZKMS,PWYEZERPD,61315GDQNKAEJJQJK,,EMHOI,RY,84657
02-07-1967,UXHFPAINB,YBICZIAMS,75473XALEETJLPTNI,,BFNMA,EZ,83476
08-07-1950,TSCUBVYWZ,CTKRFQAUI,11243WLVKFWVBNYKL,,VOMOB,JM,39041
09-08-1958,HRTRDGLSZ,QFKRGUIFN,89314JIPLAVRBRUZZ,,VEUCI,IE,60301
18-06-1963,BAOTYLGBH,BEETUVCZH,07954NGUXAWMBZYLX,,ZMTNT,AE,45486
30-03-1965,UTUSLEWOR,FYBHGHBBE,32825FGAIQZOEQQEO,,TYPSL,PV,37593
01-05-2009,NAXDQHFFM,KPSOULAEJ,51922BAPYWPSSBUJR,,OHHBY,QF,77050
21-09-1954,BXUNIXSPX,OVDLFPCSK,62936UUMOBZBSVSLL,,VBHDA,LI,93857
29-10-1968,LINPNXTNI,VPVZJXKKO,59440GKOXCRQUKUSL,,LQLHL,BL,18796
05-09-1964,HRMCHBLLA,DGPEIAYGT,08795LOGWDDYUVQUS,,ZROHM,KN,27067
13-11-1977,PORGMPJVX,JGNALPERT,34025XLORDAEYJWUE,,IMGQA,WR,91524
10-11-1992,JMMKHMZIL,MAMOBQUVM,91456IQLBZVDMRQLC,,EISOO,SA,50745
17-09-1986,WDNBXQHPF,MWSFULXHW,20092WWWKNUMEBZZQ,,PTIKC,UY,08080
06-05-2007,NUQFLIUFL,RHWVPFBSX,79208WQHHNAUJVFYY,,ZEIKL,PZ,51392
28-07-1954,ZYQYULPIL,QVUYGPIVX,14673WGMJWTGNVAFD,,GYWTS,QS,52312
13-07-1964,MFHJHWYIT,OMJDRSNIQ,37109USYODBAMPTTD,,KBHYW,IW,13558
24-11-1954,WXFWVXUQU,OVBHGEYSV,71964TFEROMIAAEFE,,KQLFM,KO,10931
12-09-2004,ASBPZODTR,FTEEQFTKT,69610GXAARQRKVXHO,,KMNNT,OB,84628
25-05-1997,JDIMTLAZY,UPJYADHZO,69607XVPWTGLUAEOD,,AMDKR,VY,08544
13-05-2013,MMFVGBJRA,JVPQJWEVP,14223EGBLMLZJPLWM,,NVYWO,DA,11411
08-09-1970,GJHVYYIRX,FGSAUMHMS,32207RMNLAGBANOQO,,ZTWFS,MC,06322
09-02-2000,ATFBUVOIJ,QHNQEDOHS,69382HXZEGNPAQWKM,,FHBIN,LN,89820
25-01-2009,TBFXXVYPJ,IYMRONXRQ,29535TZADPJPFDTLI,,IIVCZ,SJ,74937
26-04-2003,VNJANLVZK,GXFGHBMPE,34474BNSEKHTBSWCY,,EJUPL,HC,10613
01-10-1974,SEEZIFLXW,POPYUONYW,50281NJMCBCDNDUVQ,,MXOHL,BT,48989
24-08-1971,MIDFPWQZZ,GVMXJKRKM,14097IYNZANNAGDUT,,OCGZK,YF,29159
31-12-2003,MVMLJIKCO,HEGIULUPR,75887XMGKMSUUSQXK,,XMCLV,AM,05495
18-03-1958,EFTBOVYES,EAAZUSKQO,90520VXEOVRWEKKKM,,JKXQK,MB,41791
03-05-2008,FMPHHJNRC,OXLMUHEYD,97379CTKQRILWZCLR,,WFGCL,SM,63627
08-02-1953,GFOMNGIUW,ZCCKBTFXS,57448WCGRYXVYFSVT,,RXBVQ,SX,85443
29-10-1961,QEHMWSDPX,DXZWFHDOB,43553OLGDVXCQWSBX,,DFANP,RU,41907
19-03-1999,OKHIJGDRF,YVRVZZGVZ,69049OPBNQFAVSJJO,,FPHUA,DD,03102
27-01-2014,PVWARPLDU,TWEUMRTBR,92833WZWLJGKNKRKI,,TLJJW,IY,52348
16-01-2003,KIWWYBYHS,COIDIEEYV,19065UVZCUDDTHGCV,,EEQXW,JN,83756
05-11-2015,PTCOZRPLI,ZLNCDFFRP,52643BNHZXFGRZDYV,,CTEWS,LY,19468
31-05-1993,GFCRAYSNL,PRLHCQBPP,47221ZYAFRRUUJGRD,,FBLXD,FJ,65788
18-09-2014,HMXAOUURU,QXOQEYYNL,49950BNFJLRCDNZHG,,LJUPC,WA,19236
01-07-2007,DYTEWGGME,ZXXMQOLBA,82097XTDKKDJUAQCR,,LTBSB,ME,28947
31-03-1953,DRJQJPWDU,OMBZILZST,90506WADYAZNCYROI,,ZDENA,WD,76455
19-09-1982,XAAVGRGLB,LHJZGNRRS,24362EBWOPJQEGFZC,,EBPDJ,BS,55010
09-08-2010,PUCFEXFSL,OUAJAWABO,05599VLGUPDDRIYYW,,MEJJP,QA,16457
25-02-1998,GCUYBHUHC,WIDMLSDNW,80418GEUZPAPHVIGZ,,BXNTK,EV,80912
30-10-2006,YADZBGWLJ,PAEEWZUGH,23224ZJYTCOGTLDYO,,GDSEK,YJ,67486
10-04-1960,OIRVGOJQA,NTETJNLMG,02149LFUDDWTBBYQP,,QZKOC,UN,88071
24-09-1980,BOFQSWKJQ,VEAGZRFBH,75923FJZRFHMGLYYD,,WTJMB,YG,56815
22-02-1966,YQCJRNFFT,UJXKOGBNN,46094XSYSXDIFVQZR,,GUZXP,ZQ,09428
24-10-2000,ELRHHSQEN,VZNLPMCWV,69940SKIUEEVEVMST,,MBMDX,VK,54907
10-08-2007,NDUWYVBBS,EPZFNDSSY,56064CNMABSRASGWK,,HCAQF,CY,75319
19-10-1983,LOJXWXBNA,VNKOGKJDL,64380MYEWVJMNBAKC,,FEUOQ,EH,00204
14-01-2004,HXPJIPTZI,POXSJVQWU,59000YWGTJMBWSKHR,,YARQR,GF,17986
02-06-1988,ZRXOAKGOI,BHUUUPNJM,52597RCKFPPLDRHLW,,GAFVG,OD,50937
10-09-1999,CKTBQCFBD,IPPFPKCTC,04883YULZTDEYCDKI,,CISOE,HC,65883
20-01-1971,ZPXJDAYXV,BOLKBIMUE,34394DLVFAKRWIWMD,,YYHIE,DS,84894
09-08-1950,GMHUFFSKF,TOZDSLNPZ,42619JGVXUQCDHEZS,,MZGCB,HA,59576
19-04-1971,LIPYQQBQI,HXBAKKSFZ,39815LHJGDPOWCICV,,GMKCO,RO,67466
17-04-1971,INNMVGCKO,GAUGJGQBT,25508TPJFKUVGXRQT,,WXJWH,OC,16009
15-02-1991,JMTOUUJZC,GDGPHZICL,35950FQROBTNVKCSO,,AKHGZ,CY,52345
16-02-1952,AFPRVZRYN,VQCDVHKYK,75685TRFFRETGFZKS,,LZNWF,YH,09284
20-02-2011,BJNJSDOAW,JZVCZCKYG,30381OGMDGEGANZIJ,,ITSGY,VT,40093
14-02-1990,EVPEYOBWN,MXYYHCQOD,76865GFAONMPERVGY,,WMPHB,CA,49308
27-05-1997,DEBSKQAAI,GIBULEHHO,17714DENHPTURGLRR,,OLQZQ,MH,92804
23-11-2013,SJFFDWUBX,HMLXCUALO,66623VLOZRZJQFWBS,,XNLVQ,FE,14259
10-08-1998,DEWLALRIG,ONBGGUCWL,05115NJVNYYRJXOCD,,BUPEA,CJ,70434
16-12-1981,HTRYWEQKF,FNVJDSECY,38291XLBEWCFRXPTN,,PAAVG,OW,04078
01-07-1962,QLNWHUKZN,LOBXJNNPE,59867TUCMTNRSYUXR,,BIYSV,CF,06545
12-02-1990,GTDWLUAGB,RWOKGGAWX,18631OYPTXQXBMWTD,,KHLLK,KA,00738
19-02-2004,STJDVFFLV,YSVMPPZPH,26712DTGIHDJXEJIW,,NJQPP,UL,05628
08-09-1993,XMVNBLWKR,SIFVVVYQY,74525VEHGSCOYMSTR,,SNBLM,ND,86863
24-04-1963,VESSCAIPT,FRCZBAOOY,74007KVEYVYSKJPHC,,YLYPK,YO,53760
19-04-2000,ZUSHFXYBQ,SXQNEYVOT,70068PULMRDWZLCMW,,QFMIR,FM,06935
02-06-2004,HMNATYTEO,BOQNIUWNW,55528IULCHLLTHTTG,,RRKZO,UP,40754
10-06-2004,TUOFWAKLY,ZOGYCFKQF,24421FCXAWCVYEITG,,UHNNY,EJ,26847
21-11-2000,SPWXBEIMI,RDDANWFOE,46171DLBZVGHIPCVU,,FLYML,CO,35364
04-07-2001,OWAGNELOC,NARSQEZLC,03110PHMWLPJHXOFP,,QHGGC,NZ,38356
03-10-1978,GAVKPZFMY,VLUGCGGQI,92205TTNSKFCDCIHU,,VTALM,LU,37612
28-05-1957,DSEZAKTPQ,TIXZBIXJX,67578KURHVHWDBRZL,,YYNYU,PG,68271
05-04-1999,BPOIXTQYQ,IHPDWLBNG,06427RGGZSPMECKZW,,QBYQM,MJ,81699
26-11-1961,FOVKCQMLL,XJZLXLIYP,25137OJOKKGTGYLIJ,,WUMKP,UA,07760
24-06-1977,MFNENACZV,YZRVRPCWM,10614VCTORQQJWUCJ,,ZYDNB,CW,23622
08-12-2008,ZUZQCNHEV,KWVKCADYY,51559ZDCLIKYXMZAG,,FQPMM,TE,47829
09-05-2009,KZLEGUNCA,VENFKAZQE,44026KVYIOXTZIQJD,,ZKYLG,JO,33467
28-05-2004,MOCOUCLIK,RPETQGRJZ,97850YPZVDBMGRZUD,,YNEDJ,DW,70331
06-08-1974,ITPWRTPVG,CKMOBIGSC,84362RJCAJDFBXXEO,,UKTSI,XO,66224
04-06-2003,CHDNIBUTO,USKZUYZQG,02173FVAIPCAJJCEV,,CUXPB,IQ,07006
30-12-1966,PSZGDVCJX,MVSECUSUR,69984VFKMSXDUSCDO,,SVIDG,KQ,59119
09-02-2008,TUJDVXZVF,UVZTECLTP,03334KPDTHVAAOKKH,,PCIER,PA,65943
27-03-1950,XZUMOVWDE,ZLKTRLLNC,15124GBQSPWCKTMGZ,,UXISR,QR,52448
03-05-1980,NYKTNDTEG,YSBFFRELK,32199DFCDXUENPSFX,,KZVHI,NM,82817
04-01-1965,XCICEHISX,CXLNSEQCM,08467AJVHWTEQJMMS,,QPEUL,CW,51932
19-06-2015,QIFTHFBTR,KCKLTYZRQ,17537JDAMTXCEUDEM,,DJLDM,UE,68104
29-10-2019,QFZXFREAN,EPHAGFBPO,90436EXERPZPVMVXB,,PRUZZ,NY,13212
17-07-1975,UDXNOPQKQ,IEPRBTHKX,24595REWFGKQWYXJF,,UVPJO,BY,54370
25-04-2010,NGGDZQOUV,GFXLUWOOK,98868INKJEZPSFIPW,,SFBYS,DW,88630
16-04-1971,VNYWAMKFS,XWJZJTZBH,30259AQWSTIUIXMSY,,IZJTB,WE,38720
11-03-1970,WYBBONWPY,HEWVEWZBB,48184YSJTJREHBURC,,GDWEV,YF,69968
02-03-1972,VMRKPAVWF,EPGQQWGCS,90756TWHGCAXHCCXG,,BDOAT,RZ,07341
11-02-1967,OTKQEXRND,UXZRBVGIP,09644QETFQMDTETOR,,HUQAL,DU,31050
10-03-1976,AYXXKHJPI,IRGAHKJWZ,59473YKBUJQZLKJLW,,VSSHI,CB,69399
19-08-2019,MSDJQNOXI,UIQAGJKTX,33869XTEJKKFGTJVT,,IOHCY,XI,00049
09-04-1972,HGNPXZTZI,PCXRSVPZI,85563LKGEIVINDCMM,,LIDTF,MS,31078
12-07-2013,OIKGZZQRG,HWFKJMFWT,80199MFFXPOSNJNIG,,HDQOP,RS,86731
01-06-1976,WCCLGSMRH,CFAODNAGY,74310XTAELIZJLWGW,,TBTIA,YH,47402
02-12-1981,UCIWJVNES,XEWFJAQLJ,79651KGUCIDQHFJCJ,,NPXBA,CT,80076
28-01-1963,NCOVWNOYA,MDVPIIZNP,33226JZNCQWOWGPYW,,IKNXS,LO,23245
12-12-2000,XODDTRLMP,HYVUHVGWS,08455VQXHNPTIZEQI,,ITQDF,TH,79479
12-01-1964,EDAFJCLZI,RAHAZWNQS,91122FRDNCPIQTTMM,,XRJKU,MW,01177
26-07-1976,XZPXAXJXS,QKIVYHKRB,13535RKLDGXPJQAJZ,,VCWNX,CW,92137
01-12-1952,JBSUJXDHY,FUFPOMDFG,19857CHKSHWSUPJYF,,WAGVK,HC,12723
22-07-1993,UNXOJPGUM,THWEXNQGU,04658NOSJDSOJXCYE,,GTXHQ,VO,61131
28-01-1977,QAMUMKBGU,VKTNSWRNC,79469AXLIWQADAXEN,,XUBAP,MX,51102
06-05-1953,LXEGTEARZ,XVKHYWNZE,97898JWCICFWHCMQQ,,XAXMB,JI,62517
14-02-1965,QXTIDHUSF,QDVKLWOVC,87033XGBVZNIWYTIV,,QPOWG,RD,96793
08-04-1955,YMCOCOXXU,MMFYCNHOM,33726ABTVRWEXNLCL,,LFEGN,YO,94667
13-06-2019,XFZEYFUGR,UNYNUOFRF,08021SECDNDNEURHH,,FVLNX,ZM,24597
01-12-1979,XZNPCJRIM,DXNYMWMTY,44268CMPXGORKGESI,,ESWVQ,AW,44572
21-02-1965,VFUTOZEKC,AEMYGUFYX,21075MRVSDPWUTOSS,,RDXLE,BJ,42416
06-02-2021,MSUAEVODW,TBZLZHHGZ,25456APOPIENBMSER,,WUSSL,WC,82965
09-02-1981,NHAYUDMRR,DCOKGQGST,49679LCKGFKYMOFUK,,SREHR,SQ,49200
04-11-1959,CBQZRTZLV,YVYWADNLF,12242QDQSGGQHRPHU,,KESID,JL,06769
03-01-1997,JDMEWLWAY,HMEMTMMCH,08309YONSRIKFCOQT,,AIMXT,EE,42089
01-08-1966,XJEXLDPEV,AYNECRBWU,02829DWKDBLQKHFBY,,LXKXV,FW,28327
05-10-2008,FZGLIUPYV,YCNIDYBFT,11907UBWGRMDFWSWZ,,CVQWQ,GJ,35803
12-04-1985,DUCXMPKHH,NDFAFZNTR,83269AUQQSHBEUGWK,,TYKJD,XB,82641
14-03-2008,SEXGOOBVU,JWSZTFGIN,73203BLNOXPDIEDHG,,CGAHI,MW,03542
09-09-2018,TBIKCZBAV,HERIMRIGO,59017CZTFPRBETASA,,HMWAB,EV,74999
29-05-1974,ZBAJAAOGS,CMCCIZBZE,03761RUDRVDZPJPTW,,UJOBK,NA,72297
02-10-2020,XTOMGRSWL,MMFHMXQCN,64425XMXTBLLIHEBL,,QSGRB,DH,56489
28-03-1986,IZEUGWOSE,OIABKQUGZ,57627UHBSYIJCSXMU,,FKOGA,ZF,90540
20-09-1982,DKXHXNDAT,ONCGPBJWT,90452TSGJUQPRCYKA,,XIQKA,WT,38940
20-11-1985,HZFICRXDW,DUCIABIGU,93402PZSGJBSZWLFN,,HEWXP,MN,24072
10-06-1964,UYNZXKWOU,IFFSXEFDX,65545SLMOQUSWQCMV,,IDOVK,YF,08533
28-03-1993,NVXVSFXHP,QBBEQCYPT,43050XXEMBULMZIQL,,FGPOT,JI,41173
19-12-1967,MJOHAAQNF,RIQZRKPXK,99652CSSGIGXHDKPT,,ZNKWQ,HP,11145
23-04-1991,AIRKNRTIA,PJQOPRWPE,69651KAYFGAVLTMPH,,IXQQL,KD,70430
29-12-2009,PRXNSTXLG,WHHGDQPSH,95522UDZALFZMIMEU,,DIJWZ,NG,25775
16-06-2004,WFVJGCOEC,OLCEBRGUG,94225WUBSYAUQWOKR,,HRAMU,OD,28730
19-02-1981,HDTABHJTO,MRFNYHAIP,50343PGNMJBRABIBU,,LQGWW,LF,12095
16-01-1961,LDVCOCQYK,LCINFXVLR,40284DZKTICBATQVV,,KEGRR,BL,57762
02-12-2017,VDDWHUSAW,XZOZFMXII,27560CXEEQNVDGQUK,,ZLLMI,EZ,28203
24-11-1964,XXBFBJUPY,HJZMVNFOX,16652AYXXZRAHVXOG,,UCUVS,ER,26611
03-05-2011,ZYOGMIZNY,VLLMSUKNF,98716GLHXXJDGLDKC,,ZAJTK,DS,51477
26-02-1982,CUEQKYEZW,XZYWRVIOK,98356SGMVBYXZBTTI,,YDCGZ,OW,24674
27-05-2003,IOVNRXOIM,CRTRRSNIF,39376VWCWLPXIBCKS,,KUWGW,GW,58786
09-07-1977,ZVPRNIBKD,WGIVCQCUU,94429TRLKWTZPPXOK,,FIKIP,NP,99986
08-03-1999,GHLIATGMP,ETRTWGZXV,61567DUUKXOCXEFLN,,LXTYV,PE,15599
01-01-1992,RVJNZMPCA,ATFWJPRBK,63095JKRYRLLBCQLW,,VHIXO,IY,27361
27-06-1981,HGITDFTOW,ZGSEPBYJN,26944NIONXQEPMXWG,,MBXZP,OL,70898
21-11-1992,DDFNIKRAD,EHVARMSYW,97679KYVYYIVGGSGE,,WDGYW,SS,48590
04-01-1997,EQHVGTAYK,IZKFQJAOU,71034GAMIYQMWPBDB,,GKBOP,NI,58680
31-07-1996,ENGTRAJVR,AJBSWCPHW,83313UMOIBEKJYETS,,BRBMA,AA,71722
18-08-1997,YFHAGWJMQ,CBFORAHQP,37988HAOGHONKBIFK,,OEQYN,WE,85486
14-05-1992,GOGKGPNQT,WNRPFKAQP,67163KAXHITLPRFJP,,BGPRM,JM,68784
23-01-1990,KTWPCEQPY,VZLWICVTA,80558DYOODZINOSER,,MKXQX,NL,44753
28-04-1973,HAMFCCGMC,SIUEEDFYP,37157DNOORNHAQDUK,,WINBB,TP,34079
31-07-1994,WRCSMBNRM,GVHPRTXPB,01433HDCZMWTZGVEE,,GPCDH,TT,72042
03-02-1999,MKBZJFHXA,RMJUQFAHH,26479GQOHPGEMZDME,,YCOKH,LO,90785
07-08-1983,XYAZLYLBQ,NZCJSAGTJ,01651USKVSRSYRQGG,,LETUW,LP,23975
23-05-2001,FUSFDFOPI,ETXOMJYVD,58687MKFLWOMEWDTE,,DOATU,WJ,29242
23-04-1952,OIKGIBZLP,XKJGITHPS,03918SCXEREXGYGJP,,XJZXR,FA,03171
17-12-1990,DREKBEGGF,RRXQVUUVR,55224KQLJKUZNHBVM,,SETUQ,KZ,88891
18-12-2015,ZNSZCSEOD,WPQUSYLFR,50329BSKKOBHWQIJJ,,NFEML,VM,37433
20-10-2009,ICXFEGMUH,XMVGIOFVN,78107TXZMKGVXMHTK,,VDMXI,XC,31507
05-04-2014,VADZAVMCG,ZBDDXJCTL,26393HIYJMIOPKXDC,,YPLEG,XY,57256
28-06-1978,XHRNKSLUG,BSDSGWSHY,90098VNLJRTIHGMPY,,NVUJQ,WL,65224
08-04-2012,MLJCJJXOX,SRVITCSZP,12650TPGDIWICNSVP,,VJHVI,MV,86069
31-12-2013,GDHGIWYPT,XSRHGHWWA,03320VAIBFYCQYYGV,,QYOAO,YF,34262
26-12-1993,BKGEWZPWR,XTMUASIKW,32422ZAYKQDDBXCKP,,PJSZA,QF,47165
06-05-1986,ZQSTQKQYR,IQOSWBUGA,85599ELWQHGILBLCJ,,KCXRH,SO,43571
05-05-1975,VLZVHOCRP,KAKEAPAUM,69908OKVVYHWNUROF,,ILEET,HN,56676
21-04-2002,DHENWDNQE,HIOTLAZDQ,84227SAZGQBIVSFPN,,YWGPS,DN,88782
06-12-1976,DRAEQDQKW,LJMVXPOWJ,03072VCJXUXXPYNKR,,BRZYD,BV,30589
21-11-1952,DINSCWSZQ,EIIVMDVPZ,09923QVUBNHQRQIZR,,HBSGE,JI,08056
20-08-2016,QISIQWKUU,JCPMGPYXJ,33363IDAOAAPFZBNX,,ZQIWG,GC,55964
24-04-1956,FDBJVSYIO,BDHHTOQWN,48267UBHABZQXSYRC,,DVMWC,WA,69889
27-12-2003,EYKFOWBFF,OLWNWQAKZ,29044IERJLKMTMCJX,,OTCTL,NL,53714
07-07-1988,COCVFSLDM,AVKNWYJHV,95763QNRTOIMCMZOE,,ZQDPO,OI,33865
19-09-1979,GFEMCOPWW,RJUIODXLK,00415UPQQKRTSXERQ,,GLJOD,EA,10314
23-06-1953,FENEVNYEJ,OSRWBMFCU,08925ZMBTFAVWEYSA,,WUUCH,OJ,54017
12-01-1982,RQQSOVNWO,CLQKVMLKT,83888RMYAVTWMAZBL,,NDQYE,CO,14566
25-08-1971,DZYFQWCOY,PENDZHYEA,96788UNPMOPYCFUZM,,SQFJJ,BU,58171
07-08-2007,QRJJHQGHU,ENCVMCMUK,62189FFHZTHGBPMPQ,,HQSKD,QI,94306
20-08-1968,UBBDUTPBK,GMEAXMNYN,63725NTFQDFVYZHYX,,NZVEV,XH,76009
18-12-2015,LWQNITVSA,UOEIZGMKN,96185QITRACUSHZGW,,ORGLJ,RM,87156
04-02-1955,YGHOQUSLX,LYDOPRVKC,94368QEMUJVUXLUZY,,IBNKA,OD,62968
28-07-2007,UUNNZRXNI,EMFVYCZZX,74102VOARWTMPABBZ,,LVYPJ,GI,58073
20-11-1956,WATOTWYJX,TADWMBBXX,88619DKPDKEQHSDZZ,,KCYQO,EM,48566
17-02-1974,AWXGIEIJL,OQBDKCSID,23457TSQYNPTOIOZY,,IKSNY,ZK,91826
03-03-1963,HQCAZLITC,HKMFEROWZ,97682YVWBRAYXTYYB,,SOCTP,LE,43448
28-09-1996,TYFJNZYJU,OIFLCNMCI,86633UGWGLYKBSJGM,,FQCRE,SD,08491
01-01-1995,WCWMFUNJF,OYIFVWDGS,97951XWEXOQVLNSBV,,LJFPL,IZ,34339
13-03-1980,IFIULHXRP,FBLEWAFUD,23655YBJCYLLCYDDH,,TFSIK,JU,16640
23-03-1969,NDZYUYGYY,VPTGXJWRK,51068YUFIKFNJADBQ,,GDZGY,CW,92060
04-12-1956,HHOVBTQTD,UYERLEPPZ,41789ZTUNIRJOZWAP,,QEFRQ,SS,81446
22-06-1996,TSDQWWZCR,RBHVFDXMK,11902GHTDMQOJJEJO,,MDWHK,MO,33329
04-08-2000,DOMJQYJJZ,SDIGUIRKE,91745HGBIBNPUCKVV,,QPQTN,DN,16678
01-07-2010,TDZILELOI,DQMOVWXUM,10072XMCFXEEGTXIB,,QJQNM,RR,71704
14-01-1956,TAZBXXZDZ,TSWXRXSJQ,49829CUPSXXZYWEKF,,DLQJQ,AH,29526
01-09-2017,YAXPITBFW,ZZNXRYOWH,67399LTGOAJXGDMCW,,LKOBA,UW,76726
21-01-2000,EJIHLVYYN,FNBOYQSRV,15570MBUGNKLVAIPK,,BOYXA,NC,79332
19-10-1969,DAOTGLXWF,EOKENIKAJ,24671WAHPEODCLHQH,,NVDBP,HG,17176
22-08-1975,XVQHZHMNC,BPEDMZCKN,46555FMISCOGISRUZ,,XQOHT,DD,93613
13-12-2016,PCENPPKMY,VJDVSNZOR,88574MOOGMFSIVRGM,,TSGON,PH,62358
03-12-1981,BVQXYNRLM,DFYWRRNXB,59178RUGHVUDTNTPF,,EVUHR,JI,35162
15-04-1992,CNAKHXIAJ,VAFHMYOYX,08166QMYNRNZAFIEA,,OXKHC,FF,06414
02-07-1957,PAFHQLPDH,TBIAWXMRU,13264ZVGYHGYVONVB,,YROXB,RL,29372
11-08-2016,GVOWJHZSK,AHTGRZOKE,28829VKVGSTXBXEDG,,IWWLF,FP,49315
07-04-1952,CVSDOAVGG,UWUUZSBSN,64768VBDHCUDXJJOT,,RXEUK,SL,17390
28-02-1973,ZXVVRLMHE,GNOOGMHVF,67074UBPCMLLKWVTC,,UJFJA,NX,02707
29-01-1954,TSXAQYHDS,JVSVPDLEP,84092MMLDRWOTXYTQ,,NDOLY,OK,04113
04-01-1977,JBUMXWYEM,CKBIYXWCW,56163HNLBQRCKCWZV,,VDSFX,WC,71229
26-12-1979,CRNKKLTCD,FGNTMHLOL,21709HTYOWJCVDGJF,,ZAKSN,RC,86943
23-03-1959,TCESMUXDF,KOPWSCCUV,53099SXRSVTYUFMQT,,WFGAJ,CZ,00193
03-11-1984,YONFXUXOR,LVRPEVVBL,14061DCNAJHVDPWMN,,YVZKO,CX,04084
05-10-2008,SVXBETSLI,SYVJIYGKC,59748RPZJNCUXMNQZ,,FLIVD,RB,57118
28-08-2019,YNBSGHAGW,DHIUFQRAY,87877PYQIFCGJRKXN,,WCTGD,EC,93629
16-07-1988,VHBYGKMBU,HZXSPBDBV,77032JEZAPKZFSPKV,,AIHJD,XW,13764
24-02-2002,WZGRAIDYU,TBNLDEEJF,22149LDDGZEHRQCOI,,IDAHY,AN,43596
27-04-1965,JDDEZSKKZ,TLEPERZBG,00891CNHEHLYBAYPO,,PWVYE,HT,58899
03-11-1999,GHNLQAMKI,BYHOVTADX,16275KCGRKWKBFVPT,,GOFHB,SX,89046
29-02-1968,NBMDGXGHO,BQVRPFHLY,45558HVNXNKXEHMLI,,SBTBX,LM,18610
10-01-1975,RLZJGAALO,OISZAEQFN,51906CNMUCGZSGTMH,,ETEZZ,IA,70706
18-11-2003,FIYFLKDPT,NNQOVDTJV,31760QWOCTOHKRCED,,DBYNX,QT,72707
10-07-1957,CBRYDZPYB,HOVDQIMWT,22486PKZGYQZSEJZZ,,KPDQH,LF,74805
19-08-1952,TTXTCHJNI,BYVACPYTT,73363YOTLCQHQRKEM,,ZTMVE,IJ,80768
13-07-1961,VPBSEYTWM,CWLJRJZOA,63623JVBAHCECBHOT,,VOTXZ,FT,35378
26-03-1994,OPFAQAXAY,DAABWNRMB,21726CCKWSSRAIPCU,,RIEGW,ZY,16028
31-12-2019,WDDOHLBVM,NJZWKJGAI,23398JIXOXEJZVHWL,,SXZQS,GY,09287
06-02-1957,TSXAEBXXN,MYFBXULOU,17014QERKDXUXMTQM,,CXMWN,EB,62342
10-10-2017,IFMBKGJRS,WAUEFMGFI,95447AFHBCVXDIWXL,,XLDSE,YW,30844
13-08-2011,KZRKHVJCH,PLSODPAPI,95917PBKFSJCTNGUV,,GRKQP,IG,51685
17-06-1969,RRBZXYTFO,RXLMBPVMV,73905TFMSWVYNTJDT,,ONHGG,RJ,90526
15-05-1978,NTEHXFHDC,RWXVRQXKD,89666GVBFURSHFQZK,,HHWSQ,KF,96435
08-03-1958,HHCPKROBM,RIBZIFHYS,29473TWQDTXPWHGJU,,GPITE,OE,55703
29-08-2004,VWYBDZFOO,UCXIBDQHQ,70063MUEYKZAAHSUK,,MQUUF,GT,09756
21-11-1990,VTNNQYQXY,PWOUIJLCQ,42062HMLCLFLYXJKM,,BWPOG,ZW,14935
30-07-2010,SGOXBZEQP,HJZEYGCMW,97694LDYUFKEQUMQS,,DNMET,TG,67142
29-09-1964,KTTINCWCX,UKGIHSHLN,32197CFKQNIJRVIEZ,,TXJDA,ZA,80267
11-10-2014,HIAXDUMCA,LGFBWPHUL,14907BXQZWQKCITXS,,RDSCQ,LQ,71954
09-07-2005,UWTUPINWW,AYRDAVSKR,42731DLKMTCIAUKXY,,KUBDA,PY,04669
31-12-1959,IGMEAEYPV,CHJFUBKIV,29099UPWYDJPTIFLJ,,ZKJIL,OW,06171
08-06-2002,QZUVSWEUE,MRDAVAONU,53284OBHNABGGFYGB,,XXWOC,CZ,62183
13-11-1978,FGAEOGGHI,NCFAPRRMT,46221GYUDXFARNXUG,,WDOOE,ZM,18943
15-11-1966,HMNNDHONY,CBOTSTZIA,42257IPYXMFDDKKSR,,UIDUG,UG,67564
21-07-1996,PNYYGGOPI,XTCKCNODM,55416QITDBBTAWNLR,,WOEPN,MD,44687
10-07-1979,FXKLDGXIV,JJDDTCPIN,33057KECPYGZJPYIB,,FSANJ,MG,39920
31-12-1986,MMVRFFQZH,YWHWSOUEE,19051FYXARFODHFVU,,WQPLS,HP,43128
24-12-1959,UROJXAMFJ,BZLXUKQOQ,82568GQXFETKCPQQD,,JIPIK,IK,79835
13-06-2008,HPUFMIWZY,TDDKBPLAW,47772ZGYCEBIQOOJS,,DQQMZ,BZ,50928
16-01-1969,CSMHPDKEE,DJIJHRLID,98775URWMBRGGOHTA,,JQRKW,QG,21675
26-10-1996,XZHWROGEL,ENBTDDAXH,97534VHJWMCBYEQEF,,YVJPL,VK,67635
23-01-1971,POMXBVOAJ,NUYUGTAUL,05470MCPLZDDCTGFB,,NLXLQ,LC,42941
17-02-1959,NKDUMGPVX,YMXBVAKMJ,62128OTWARMRZAHVH,,NHMKU,ZX,82429
16-09-1956,SQNCTUTGB,NCPOJIXUP,86844GZDLOMJFFNED,,LVMJZ,XN,75982
29-10-2018,NTPHBRRPI,GMPFPCBEZ,43470OVDSOKPKDVDS,,ASSDT,AD,24654
16-09-1964,PFLMJSITN,FQXLVZMVK,95008PKURFHNAYYLQ,,IWSBD,WZ,93714
19-11-1989,FKEDBVJYP,WUISFMLDO,35099GWSLFNHEHFVR,,HJTTL,JO,09955
11-11-1962,VQHXMTRTA,QDGYGVFVV,75279OTGEZQPRYIAJ,,GUVTT,QO,52689
10-08-1994,PNNXRCCSI,NUYAOPOYI,94926CBKPPAIYPDHT,,ULYIU,OE,42403
26-08-1961,RHFZTEEWU,NSPGJDYYG,52452HRGVNQNCRXYO,,LWLIJ,IF,90664
05-09-2007,WDUKHSAFD,QXPTRLDZJ,86378CZSLFYERUDBV,,CNUZI,RG,08870
10-07-1996,TGJMIBKQE,SXSZLPRQN,62635FPISQWGMAFTN,,LTLEF,KH,45638
09-02-1993,OQKRJBSID,UYSPGNAJC,10149CVOOAIJVUFAV,,PTWDE,PE,52915
09-02-1995,KMICILFLC,UYUYMCHTZ,93954KDHEXSNHGRFB,,SQDLA,TJ,82559
13-05-2012,CNELXULVO,MDKOGSANY,82890FWLXCCFUDDKJ,,FZTWW,HJ,96981
28-07-1991,NAJDSYCMJ,FZASXWUPJ,22257EGVFDILBQFAY,,YKGHT,GV,63316
27-02-1980,ZTGHVMQSS,YTAMBCIYM,26066SLVESSDISVVK,,RFSIM,CF,12020
16-12-2018,NYRHLYGPB,KZTGBVAIR,47366WXWLLYQUPWNY,,PMGVL,BD,46845
02-05-1995,OPKZXZXWB,VXBZDPDLR,85888FWVZAATGSOHX,,FJDBJ,EV,51759
29-11-1973,UIKGHWEBF,DOXLMPIEB,52563UWYGMXMJTASN,,LHNIO,VS,85215
27-10-1998,YIFWNDWKW,GGJPHXJIL,35978XCFQJZCYSATF,,LFMBC,NZ,28927
28-04-2016,YWWOITDQM,LYJFRBNZM,81785BATUYSVZWLIN,,XCPRZ,JZ,68572
11-07-1968,XIVRSLDRI,YQDHCABIR,22841WVCHODUBCWPI,,DUJDY,JC,75241
12-05-1997,TPXVAISFP,SXXRJPLFQ,38989ZXZPZNLBCFHG,,VVKPO,GW,37662
24-09-1976,CZOTRSXBU,WSDNXPVMD,88319RCCSVAOLCCUJ,,QQUSZ,GA,04420
28-05-2005,IJGGAUJNY,YWRZKQHLP,26362JAGKBNAVWJRH,,URTCK,ST,62907
30-04-1990,YBTZSMTLN,HQKEVMCRO,71087VPTHAKAANUZV,,HKGTL,AT,73925
09-11-1966,KVUVSWBTI,PQOPWJCPU,96571HUCLEQOWAULX,,ZPSAK,GN,11526
10-11-1995,DNNDNPMHD,BNXXXBVWW,54053EODFXAMVSCEH,,RYTYZ,IZ,29514
06-08-1953,OECFXWKLL,RAEOGOJXT,91809CSPIMMBDYIHA,,ELRYH,YW,29239
26-04-1975,MXIMAZZUD,XVQSYPSSQ,51022CDGCCAXFKPJX,,ERRFU,HM,77047
12-09-1960,UKCBZSCTO,NYZKVHOOW,93458TOCRNFCNTSCI,,AADBT,WK,99714
28-06-2003,IJGBPTGAS,TVIXCGPAE,96205CPJSMYQGMEWX,,PGFCN,WX,92834
12-12-2020,JMAMSBUIP,ZWPFZKGDS,07052WTKCUONKFIMQ,,YRTWS,HQ,42437
17-07-1993,LHEALOOEP,IPJOOQKWI,32902VSKHMSDXCSOX,,LQVPN,YW,08670
24-05-1983,KHRYVULOO,CKOEMCAKN,04666ARJOVJSRHNLY,,BFFSG,EO,83979
12-04-1951,SITVFEWZH,CGXSDBART,45850LGNEUVVNJVYQ,,XLUKI,EF,99244
26-06-1958,BSVWMAAGN,KJAZABFLT,68067ZFTKKKIJMRLE,,WQGHR,WF,55441
18-12-1984,FYMXEHTIJ,MCKOVOJBZ,30468FZVLWREVOCRC,,YIJUP,ZN,96638
24-05-1980,BWZSZKVAE,ECUMMMNNY,57254HTGDBCZNJWWW,,XAFNH,MS,45248
22-08-1952,JXILRIFOS,XQNAYGSIA,24419UUXMSXTMMBGW,,PLNKF,JB,42221
06-11-1988,GQUIIIQWI,TQICCSREU,85954MGNXDPAAVNIP,,XTJDO,IQ,70272
15-10-1996,ZUNFLOTON,RJLZYDIBN,63035YKIKGWJIGIIN,,VDRMO,FQ,95811
12-05-1978,ZJVEPBQFI,CXYMXBDTP,91190ZTIHGWCLUFJD,,BVOFN,IO,67148
09-12-2003,MRBTNJRKT,ZAAGCXSCT,00476HGPNJXGWZLGY,,GRWUP,WG,96542
28-01-1964,XNLXJMWFW,VTNWXGFBB,47781WZOFNNPZDEHC,,AZQFB,LP,87687
18-07-1981,NMSWKGWKJ,UDBLQCLTN,36893NMSWEKFNVRUB,,ZZILB,AP,01162
19-04-2021,MHCEYAHSP,GFGIQKOMF,91184CWIBLOHUXIPK,,DXPNN,EX,49052
01-07-1966,MBGKPDBQM,DMVSUGCSR,97322RSHPNLPSTKCJ,,MIBAZ,QP,26835
19-02-1989,KYHXLZQSJ,UWCZKMUNP,77073ZCDGBPGAGPQQ,,NIDAT,DR,06256
28-05-2008,NSERPTCCY,LTGMMOPMX,19244NDGWTSLXXCPI,,MFMUX,IW,70861
24-10-2000,LVCYIBHJS,GMWXCGRCL,00666ROSCRDUFCYCQ,,PUXNI,RF,33824
05-03-1964,KNQPRIUJG,PTTNKJAHC,72220LJCZPXQVSJRR,,HYVTW,VI,84278
06-06-1977,WIIXJJBZJ,RUAVVWFIW,78130CGZGZWXXTJBI,,TLORL,JF,47969
06-05-1974,QERCLTRHX,IVRMYJAFN,30971MJMSQVXMTBDQ,,TAECK,ER,28246
01-03-2008,LBCBLDTEX,MABNRCAAK,91277MROPRQCGKIUT,,XLSDR,PS,52918
16-04-1950,ZSDEEIOHI,OAMUFFEPA,95482HCOVJRTWIZEQ,,EGUEF,MP,78066
01-12-1999,UWBYHVXPY,QVIGOFEHT,26191XYYKHKOFIOCA,,EOIXC,HC,40922
12-12-1964,NGLLXZGYG,OKGPMTVAE,37778OANBTOGWARKV,,NHHVI,CT,69143
25-02-1954,KTNDZMZCX,AIBGKBLQA,42207LXBHEVWHIFZT,,VLABR,UP,07433
13-11-1967,XSLBDYYWF,TFVXPFETQ,03701JQFDYBGQULKU,,ASZEE,QF,00140
28-08-1983,CKEXOSMYI,EDGXQSEYC,69104EAZUFFAAONUB,,RUHJW,ID,96918
16-10-2020,TWAGJGYAI,XILZLDIDK,97059KIAAXJEUPMQS,,GCSMV,OM,58064
06-02-1967,PHQYHLZPF,XDNVJUWOH,90996CLTMJIRJRMES,,IQKBJ,LC,84745
01-03-1953,VZURXCDSG,UPZYJDEYB,11154IMGONMYQSJUN,,AMESX,AK,92868
05-03-2014,AHPNALZHC,GNLZNIDST,97036LGHQKMSGQAFM,,QNNLZ,CP,87036
26-07-1953,DGDWXLOIC,IXBMHZEYB,19048GMPYWCHWGWOQ,,ORGNP,FL,22424
06-12-1965,APMWMWRCX,BUDSAGPIG,91415ZQECJMOIUWXR,,XKWHK,VV,39943
19-07-1954,EXSOEBAUZ,CNHYGRAVF,59746LAXZGHGDNKNE,,USHSO,UA,87558
04-01-1994,DQMXUYLJG,GJESWLAJL,55289BJHHLMZQEPBW,,TIOYN,NN,08282
28-02-1990,GZYFQKWZP,ILOYILNCX,38917SCFGXADMDZAE,,WFPEW,AD,31809
03-11-1973,UHOCSAQHL,BHXFKZLVK,55349JJXJPMRDGWAX,,YIQYE,JQ,50601
28-02-2009,JEYNIOHYO,FZPVCQJKG,00985ZTFBJPKCVEQV,,YEABS,CI,96497
03-07-1992,FYTRZVVOS,RHQZFBCJP,16849IVHJROPSHHIZ,,PYWFV,SW,75143
13-08-2008,NVQUTNMEA,KAALLMSUZ,40831EBYSBSULFFVM,,IYVAF,OH,31779
15-10-1958,JHCKTJSEB,FLFITKMOE,42031SXMSBAUADTWU,,UTGBV,QJ,00327
09-11-2017,KZYYELZJB,CBQUYLDEM,46167YSSGDHNWNDPB,,PLNWA,UX,11513
17-05-1952,ICMOGMFNJ,AOWVAWEKE,34926PWDTOGGKOBAY,,KLMTD,DO,17188
01-09-2004,IHBCVVSBZ,MSJTXSUMI,53423YPJUZRZIHWRU,,WKICZ,XE,88529
26-09-2018,WMFAWXLSM,OJCOAPGCO,57831ULFZGBIFBXNN,,IHMVJ,FA,75099
10-08-1979,HQHALOTZH,QNVINEPTI,70628ZSPQNRZINUCE,,QYRYK,KF,94547
15-03-1983,LCYUUBANF,PZODDIPSO,46748SISSAJYYHWQC,,JFGJN,PX,09794
14-09-2014,JYEWWBPXH,JFJXZMDSG,13611YKANPRWJMZKS,,PTSLQ,QL,66743
25-06-1955,XOYQKROWC,INAPHWIKY,48510IJHNXMXCTZGY,,HTKXD,YK,50608
13-05-1973,GTAVHFTGF,YPDXJRXLL,67406OUOWYMVRSVVP,,RNREC,RS,80797
24-08-1988,YRNUSWVON,RLTBBABPA,61651BRITPKHGLVQR,,YBHYZ,QO,48711
22-09-1991,WISDYDJBZ,YMGYSCQBP,36098CSDLUSNEEBAK,,ANRJJ,TA,32119
26-09-2003,UJRJGSBFK,KLIRDEZZU,48832QUJHAVRLDNSL,,JPIJG,EW,62441
08-05-1974,EHQIDECCF,ZCBVZHWJJ,17598RMLHDHSBMDUH,,HZMMU,IE,33782
07-03-1954,MGSOMRQCR,NOIOYKBZB,59314SXCKZJRTXFUH,,IMKOB,VX,73900
27-08-1993,LSWJTJLKL,PGCTUOPQV,16890AWMYVQFQNROM,,VYYTG,TW,95114
17-03-1964,MEFJPTVFM,GAMWDEDUZ,48479GGDNGIZGFLBB,,EJGTF,GL,86671
10-11-1958,XYIDZONJQ,GNDPETZIF,30281LQPQAJCRPDEK,,QIUNW,ES,99341
26-11-1958,VSJSSYDXF,DLNVCDYVY,62551IDHYCHVQAAYT,,SCOKD,RT,50018
25-06-1984,OWGLRGGLK,SHUPITFMF,74584CBLKKMKFENTA,,AXZKA,GI,41453
01-06-1976,JCKIKLRLL,VUNHGDHEB,39217QLMKLUWBLTSP,,NFYDU,PI,07870
11-06-2006,UQMOMDRDY,BQBWACNZR,94739UQOIUUVISCNE,,DAZPA,TK,27977
17-10-1971,QGQPQPAFY,SMVWXWXSO,22716TDTRBBLYYCFV,,SLXNZ,JW,53528
10-04-1988,ZOAUTVGSM,QLVGSMYXQ,86910AOYOGQZEAPSK,,KXMNA,UI,93000
31-07-2005,UHWFRICZY,TDHBOCIFN,35986OMSYBBASMJIG,,XIWAJ,TO,06409
19-02-2005,SPGHEDLOC,WLKCXVPLC,64788NFQHYCTRUHAJ,,PDTIH,IZ,90244
14-09-1998,IDRUSSJST,SUCWNWJTN,57417RETEISVDMKGJ,,QUNGL,OJ,07969
11-06-1993,LYCPXEYCU,WUHIVCJPS,60614IULPPDGEYNNI,,TGRIU,FO,77309
25-12-1985,RBEIFWYLI,VUHTTPOPZ,32480JOLHSAARASBF,,KGTWF,GX,15026
10-03-2009,LIPVLJQPQ,MIBGXUVGH,68326KSRTDIRPONWR,,VTNAC,JE,59295
31-07-1980,KMUTMRKPY,SQCBZCTRI,73285UOJQTMJBVCIZ,,HSSLG,PK,02870
08-05-1991,YJRRJBUYA,QDIEYBPLZ,20394ZIZSFMFRZTJI,,ELLHG,PI,77942
23-10-1963,MYGXWGOYW,ZEIMGFXGX,34967XVJKUAFCIZVQ,,QPFEL,AM,41838
08-04-1953,KGOOCRYMM,HRWWVJVJI,94923YWYVLXXIHVUM,,MEBZQ,CD,73736
12-09-1993,KZPBVXECV,QDPMCNEWY,29976QCWWTKXIOMBH,,EKSNO,FN,35708
20-03-1989,PKLQHYVIZ,SPDGWMEPX,86879WJNIITHATHHA,,KIKTW,FR,72867
09-11-2015,UWTFQLVJN,CVMWZYINB,11526UTLPUHQRWMPO,,WHMFE,VB,67331
02-07-1999,CINFJHFCZ,UXDZHQQDD,05171GRQNOVSCFHZX,,HUYPG,BD,90188
03-07-1955,ICTODRZOY,QXRGFFMZS,16501XYGXFMKEOORC,,TUWUP,IR,79236
12-06-2017,QUCZXLKRF,RIEWYVLPE,88337RPXSQSPTLSHD,,KFPNU,XK,76814
06-05-1982,LDMYINGZA,KSGQWJSUK,79275KXYQYRJHJBHQ,,ECMRM,QH,60799
24-10-1950,COKULBBES,PKBOUGPSI,74785UTTHJNJYVKYP,,ITYZL,JF,96320
15-05-2016,NFWTOXZSU,BBNCNDFZL,70901DIAOPHCBZJNY,,YTQKC,VV,47868
16-03-1961,GUJBBKROQ,ZDBCHIDYL,57221XDSJPTSLQNES,,EOSMP,OE,99218
26-08-1958,UUDQXAMDH,QTUQMGSAB,01260KQAAFMRBDNRV,,SNHIU,CB,77626
05-09-2004,SGSFCHLCJ,KPPYUZBHI,71885IBXRQRDASMIO,,JYQCV,BM,02583
08-02-1966,BOFSGHVKQ,VDVIWEZOX,12486ZPCWFCWGIYVH,,ZPWXC,BT,87288
17-10-1989,BGOSYIFAQ,FZQLYNSLB,81137GUSPCXHAUNTV,,SOXGJ,RP,22290
28-01-1954,NGKAEWFZN,MUOSYPIML,77206RNIQLRPXURXS,,VSJIE,ZM,29796
28-06-1960,CXOSUSMZH,QVUGMPTDQ,92826ZQNUIDXBLJDW,,BLZLK,KR,82454
06-11-1984,HPYXNWTYL,JQJVGSFCY,68806HLCGOUHJIFZL,,QWDSM,WM,10091
30-07-1997,GWSHZBSCP,CJGWGWUTX,44613FCSDQQKFPJRQ,,RLYQS,XF,85695
23-06-1966,KYLMASFLI,JWLEOFZUU,45555WCIFYWUMFVTZ,,ABYKO,NF,88222
12-09-1994,FRJAXZOSJ,SLYRROUKN,62139IYAPGKZMPOIG,,ISRCN,KZ,71939
01-06-1980,RGKGWBRWB,UTWYLVFRW,36120IWIDEODILYOB,,DFTIK,JL,30957
25-11-1962,WQFQGFONB,BJGUFHWXL,28347DGPSKETPISVL,,PJSLT,GS,07751
16-02-1953,AMFOTGKLZ,DEOFOEOPA,48023VZAZYWNZUESQ,,XEUOT,XQ,22512
16-03-2015,OIOMHXAOQ,FESEQIPTI,57804TWXWQPPDHOBP,,SCRVG,MP,28249
02-07-2010,IBQWYGYUS,FXOUKARJA,51525BGHVSBHMNYPD,,BIGCW,SN,80525
16-02-2000,CYKNKGKPQ,GCNKQEJIS,71533DIXBBSPQWYBP,,LXVLM,LT,76667
30-03-2007,JBBWEESRY,ODKPUDXPK,61027ZMDLEVNMIMWX,,UVPUR,JF,21770
11-03-2000,WTPZCOMJH,CWDLMXWMU,29715LKCFNHMPXCTE,,QCGFV,OY,87541
22-11-1969,QULZFDCBU,DAMJFEOHN,82996LTHOPDYNZRVO,,ZKHTC,PA,40781
03-12-1951,OXFZMSATM,RPYMABIBD,55550RKIWGQFIKAMP,,HNCDZ,YN,35641
15-05-1952,IRJWTOOMK,ZEQLWDMFV,64905CDZHDAHIBTKL,,LSQVS,YO,17098
12-04-1957,KVNOPGCHQ,GZRXTHRJD,03531WRFQZPKMAWBB,,EDEIJ,KR,57753
06-08-1976,BGMIUMAVT,SJUHUEJNM,11019ADSKRVKPZKYU,,EXQCH,UK,59299
02-09-1994,NOTTWMTVN,RPKOLDPFZ,17425FQWQILIGQCRP,,CIWIK,QF,82144
21-06-1986,RAFJVILME,YUQWMJMXD,12815QDWTSVDTGTBP,,RYWAM,YV,11798
20-09-1953,LHJYIKDAR,HMSECGNLB,37862NLBYOSXEMORH,,BMUOL,XJ,37817
04-03-1981,VDCRCWEDI,CJFPHOTCW,42948CVXMZFICWSYG,,XBRVJ,ID,24901
14-04-1951,RODDCDKTK,NUECUNLTB,62773OGLBFABCJEBA,,KOZJA,LD,02212
14-09-2000,YILLAIPSR,IQMGPVNEY,14587EZGCNGHSCZPI,,IQOPR,MZ,07325
02-11-2015,DTSDLSCTQ,NARFGOQLQ,99131TSOLYJCVWSTZ,,HPRNS,LY,72170
23-12-1996,BWEWSAQTP,XVLBRRNEQ,74332ILJBCXJMRCZN,,GMAIN,IZ,41631
22-12-1950,PWCYKJUMD,NFUAFPCMC,78486PPFETOLDZMVI,,GXGBA,ZW,52035
12-03-1961,ADHWMUDUQ,TGHPLNHZT,33539RMNSFKAHYEHW,,SIYQH,LB,87948
26-04-2015,KZSYVKZIX,OQGTPLGVV,58678HETECDECHTMW,,VYBPR,TE,22905
16-05-1961,RJJYTIUDQ,FZMRWJMFO,79492CJGZKNQFGNRQ,,BRMIT,RF,18143
11-03-2019,RVQLFWYKZ,XMUDFVSQY,64016ACQCWSXSKYFM,,HUPTY,DY,41306
15-04-2007,DGCQVSLVL,ARZXOCIYF,85517HDRPOLUVNYRW,,VQLGE,YG,22685
10-06-1977,VYOIHCFMV,NYNCCYGAN,28767JWUNPHDLAHLC,,RLARX,IN,08967
28-03-2016,ASPZFOQLI,SWZFONDFN,86347OPTLUFPVGEZT,,AXVAA,LE,35026
02-08-1986,FUFNOQCEH,ADDOFQVYQ,09668XGGZJANFSSJA,,QFZNM,TZ,16768
11-03-2009,HMVZMDOJC,APMKTXGXA,25092PJOXZUJVDRPF,,BTLTQ,FE,07885
12-02-1974,ZFDDHRKVD,ILTBBQBMY,62841KNICZLZCYPON,,GSZVN,MN,06924
01-11-1958,LISWWYYTL,GAZHPNNLH,51914AZBQQYLWFKQP,,DVBRG,CM,51237
13-05-1997,YCNORJXOM,BEQFEYGHJ,18489GBHYYJNPQPJB,,DLPRT,AN,19332
15-01-1968,NVZGJZCVI,COCQAECGL,65595WHUOTBGQXKJN,,YUVIL,SL,45457
06-09-1982,XWWXHLYWD,PGRPYLSUP,70645XNNLJYQLAACK,,NNLJV,OF,12957
09-01-1952,EXUKHCLFQ,ZONJDWBZD,65684LFNZUNSYGJSA,,FLOCP,GP,39434
01-10-1984,CUPUNMXVD,HLUUPUGPJ,34120HVOORLZSHVYK,,CNGAC,ZD,32548
08-11-1954,ZMDQJGOII,OELLPCHVH,59791MQHOQZERPFZG,,FOVFD,MP,04628
11-04-2017,NQMGHXAEZ,ZICEIOXMQ,93843BCWOLZWKAJJH,,WYGRF,EZ,35489
26-04-2012,WSBVIWAGB,BAEPLIVPY,09847SWSCNDKPHNGL,,EZOXC,WL,43598
21-08-2013,MJVCKIZJG,EAWEBBVQD,02465NSMVFMHMSECH,,LIRRK,TC,64213
19-02-1957,ZBGXVKLKQ,RDTNNFNFM,88139KBTRWNZADWSR,,OUOJU,QF,84328
05-05-1986,LDGUJDXHZ,DYMITWXGK,50285CKLPRGHDWNCS,,KYRAJ,HM,27246
28-04-1963,AQHZHTLSD,XMGTIZAED,89425PMOUEBEMQIYF,,AOOUX,PW,03506
07-10-1966,ZNRSRSIMJ,TCIRNFKSV,26616ICRXUTXCDTPZ,,ITCAH,KM,72216
24-07-1980,MJKJUQIPN,XCNCQTFSZ,96508XNFXDCYLEUDF,,KCLUT,NU,82440
17-01-2020,JHIQZEBHX,LQNPAFPIF,76609UHDFGIOXVRJF,,PVXYF,HH,31205
01-07-1960,CIKEWGHUN,SZZPZDMGA,95018GFKRREMNFGJR,,KRKFY,TM,28553
17-09-1993,ZBMPKNIEO,CZOBYFCZF,47424QHYRRJSBUWYG,,OKPUN,IW,83741
18-12-2010,HSGBLCVFZ,VLYFIAYPQ,68482RFKOQDSYBMIU,,BYEGU,GL,45182
15-09-1953,TYVHZRXDN,CKULOCMIT,60676IWHCDBSOZVYS,,MFMVY,EL,77507
02-03-1983,QVRHTQZYI,VGVXPZKJT,45899GHKAUSJBRDAW,,MKPMJ,GH,15481
27-04-1963,XBABXBQDS,FMYRDVPRD,35583DAKBNTHAOGED,,JRVMP,NK,50159
26-08-2017,NGZDJOIKY,RFXYHGJKH,77270ZVFMLBLOLGPU,,YWECW,JT,33535
08-12-1980,FOPLWCPIV,ECFZRZDYB,69109EBIPNUADJKQM,,WQHCS,SQ,97156
27-10-1975,TZZRDKSCO,RAJFDTORH,19536NGBBONANPEOR,,PBLCP,XK,50741
04-02-1981,HISMPABFQ,QCQJNKBLB,54548KUSMEIMKLLBY,,ZVXJG,CO,72462
26-08-2009,PPELHNDXE,MAULVEDLO,07866QEKYQNMTHUFQ,,DTLUP,OQ,52887
29-06-2013,FNKUJWILC,JHHPTMLJS,80917PKRFJIRKCFAB,,DAYMH,CF,50466
21-01-1994,CHABVRIWL,AQPCLPMMT,81455NOIBXQKKJYVX,,OZNHL,DZ,09886
18-12-2008,XBYQDLKWG,KZTHJYIYK,33972YDAIGJVKCGSE,,OVLRI,PP,25516
30-12-2006,ZFBAGQRLG,IAAMCICPA,14867BHUFKTEGZYEO,,VVBYO,LZ,51126
20-09-2015,WRYJIYLKZ,RQGVNOHUI,82552DCAJHYSJYSAZ,,GHRWM,DF,66370
05-12-1965,ZJJBCOYTW,VAUKXZPXR,39450JQSCPXEBGZQV,,ZVWHX,GE,16421
28-07-1994,PZKCYCIVG,ETDPIPUTS,11190MKOYCAKQPIFN,,ZWJRK,HW,97463
29-12-1995,HTSCDNDXV,YZZRATIXR,14073VQOVOOVNFBTA,,DARJI,AQ,98763
30-01-2008,WIQQROIIS,EOWWFQNHI,87470HLSBOSQRMQHP,,OXCWU,JV,68311
12-05-1955,BIAEDFTQO,LWPUELCLS,70219OBILTGKBPELV,,AJLCX,WE,31339
30-04-1965,CCIGZJQGJ,WIYCFAZLX,42750RAUOODVBUBLD,,NOPNP,VB,39315
09-03-1951,YUXPBAAQW,PPYGIIFLS,92254OWUJWZMYFNIY,,PRNJQ,PX,40714
20-12-1992,NHTZUTZQR,EECDHZJTM,23117YOGAZWYXHXIV,,WZNHK,RZ,64948
13-04-2012,VHCOCXUCG,IWLNVVFCT,21085EFYXSTAGAKKS,,VDEYF,UB,85640
16-09-2012,KABBOLQHU,RUVIWTHAU,74520IJXPCSZVMPPL,,OXNMG,IE,81389
30-03-1954,GVTJHVSVR,RCDXUVVCL,39237XVHJXWHWKEDR,,QFPWA,BV,22687
27-11-2012,HLVHDPRID,JIIMCKZLX,81354YKRRWQSALCCP,,SDNSW,BK,51982
20-03-1963,EQDNFMDFE,UGVXVKDPW,76696XRLXBHRDTCON,,CKZBK,LL,39526
26-03-1957,XWAJLVBIP,IFQDXJVCE,87424WLVAQBSXDRHV,,YHROV,TF,39650
04-07-1996,OQMOGXKJC,XBWNWLHYB,54454ZBQKHYWFIPXU,,BBLNK,PP,45326
29-01-2016,BUACMNXGH,TIXLWWJPQ,87236VMLKUJSPCUFP,,CCLRZ,OL,60165
07-10-2018,NWAFWLYQA,DKZZYVGEK,52058NKLBWXEOZTHQ,,QDPYW,FA,82170
03-09-1958,WMYBMBFZH,ENTQZKNQJ,39294CFDCCWARAQTG,,LNSVF,TI,79437
19-08-2013,WWVVOMEJD,HEPKXFBQN,21470GGESPNXYAVLR,,GCOAA,HQ,06457
18-12-1961,FVYFLGION,UNZYEGTEK,89338OWVWDJPWMKJW,,YNGFD,WH,68371
14-03-1964,DXCZBQPHF,ROLTPHSHX,08186CVKDPXMTRPQJ,,WRSVP,HN,10169
17-06-1997,TPCSGZJMH,NKGUVECDW,62186JIEEKYLLBSKF,,OKFRX,DL,85368
07-05-1951,OFJEAPGEO,HBHAMFRPO,11190JEIBHBXMCGQF,,FTYOA,MO,27726
27-12-1994,MGGOETYPV,EESDTVLQI,10773VMFMUNZDIEZG,,LQTLJ,EG,81997
01-11-1976,SKBINBENF,CCPGHVSGL,51466ZNFUSOSAEIMW,,UUSGL,HR,37509
19-11-2010,OCXDIJOCY,KASQXZIDR,68265JKGZUGGLMFEM,,RZHME,OI,85869
18-06-2011,LEQHXOLSJ,WULQKVBYI,82813FJTXQSZDFHRB,,LYCMK,WP,99093
24-12-1953,LRPIGLJEY,KXGFMICIT,05005ZVAEFWVRUEAL,,FVULP,TO,91612
28-11-2005,EVMRMECUF,XVMXWBZKG,39125DSSKEWADNUJL,,WMLBG,KM,38502
09-01-1968,VFPYKCIYI,WDMDMFKVI,31819KOLZEAAQHSWZ,,OHGIE,VY,80291
21-06-1952,NDLGBSXGJ,UYZSRRBZS,09009HWQVDQVCYCFP,,CCHFJ,QQ,72230
06-06-1992,BLZTBKMZD,FAHCGPZWR,49424IRUFTYOZTBPC,,JPLLC,NA,56678
27-04-2004,UKHTHEBUB,EMCYUQWUD,40899WGWZHRARLJFA,,QCSCG,XZ,16666
12-12-2013,KBDIIFBDG,QSFCGTMIC,41092OKPWKATPVZJD,,BYCVX,SH,47314
21-09-2013,RJHDIBENT,JCLZLIMNH,83437OTEVEFEIQLVK,,VCSDU,GN,21873
31-05-1970,ZYHWZIEXT,OEILBYEWF,97460OSVGIDMVMZPN,,CFOIG,BK,11780
10-10-2020,ELZUSJJFW,WVAJJNIHI,67765NAUXQKPKKNXK,,QVMPY,FN,50993
08-07-1979,WHOWBFLYT,DPEEDQIHN,37521VDUGNEYQNCNY,,AKJHX,FR,97264
23-05-2019,MLWRASVMU,EOXTMPCFR,14659BYYSWNZDAQKW,,GIMSL,NS,77462
28-01-2021,GPVQBUKBJ,VENAVNBRP,83206WKEMIXUFLBAU,,USYMC,UY,52433
19-04-1968,BAVPHSGDG,HHGNWOZQZ,71170JUIGNJZDHMAN,,JFULS,UP,78286
15-02-2017,BOOCUFCAX,RNAHRPZCS,14328GPFQPUCVWOYH,,CUCVR,ZL,39245
09-06-2017,HBYPITIBR,UDLXOAOVZ,66051RLRWKNKCULCQ,,FZIFP,FT,69101
04-05-1998,UHUVSPHYA,BFGOARBPY,35551XHGMCZVJSDKW,,NHYJX,CU,24601
20-06-2018,GAEWQDWFI,GOMQEICLJ,98686FAKEJPTOTOWB,,SLVNL,UR,22136
15-03-2010,KVPGKEQTO,ULDQQDZKY,08932VOWAJJVGLZXA,,BUSRR,VN,53600
26-02-1960,VATMMYHOL,SHPAJPNYQ,01615THHZJYMLMKGB,,NGLVE,JH,90742
29-12-1995,QBCTYHPEW,LWCGRUYRU,08775EUUOSIITUJSE,,NIFDZ,MS,79045
14-10-2005,NGCKLAJRR,MUPAMYOBJ,98318EMGAATQMCLPR,,PWACI,IB,95134
29-12-2003,BKWUCGHNO,URFGHFZHE,17778OPEDFEOPDSXZ,,OZQUY,VI,32197
03-07-1974,IKXFGSKAI,BMSAZYSKK,34059YEUPRUDMPXGD,,NUJAU,DT,87402
16-12-2008,NUFDWHBRQ,QLQTKUTNP,71797EUHOBSUHRCRW,,MPWTW,CL,71512
12-09-2013,ZNKISVHHY,VWKDMKSVJ,14118YVICUYUMKAHQ,,FUWVV,OL,00939
04-06-1950,YKXTPEYQV,UVMNQGWKZ,00679GAQFWEMSVSOE,,RFNNB,FQ,07913
20-11-2004,UHHQBNYVP,VPGEDMCCM,42553OXBRUOQOYSAT,,QOHSB,LH,89541
02-07-1972,PLACMMOXN,MTPIFUOTL,10907OEMFKPEURTMU,,BBRJS,RZ,06395
30-07-1989,IDXWCGADU,PPWXZUEGQ,93184GNYTTLGKXMVT,,CWHHW,DA,88382
07-01-1964,TXPJFYQSO,FOBXGPTGC,06251QTOBQLOEAGJD,,WLQBR,EP,54576
09-05-2015,HATOBQNNG,KNOJQXOIN,62531TIUFVTRHBBQT,,AUXBM,BG,77192
13-08-2000,IHRKBLMFZ,HKWWQDLQW,10805LCBHGTZJVBLW,,LDRUF,VC,63689
03-03-2014,BNOUHGNJE,EUSIEDCKJ,22228UUBQBAJZVWSX,,EMOYA,LI,45305
24-03-1978,FTZXCVLIV,FCANZKHOG,43448XUJHBONSEQOC,,MABII,YL,90681
07-07-1968,PMDIXEBKX,RCPEFDGAQ,72860WGQHRTDSBCIP,,HLLQK,LA,91045
18-06-1998,KRTMYJQMU,AMJUFEZBP,49420MXFCUXIKFEYW,,FJUFG,BD,29971
17-02-2003,EGVRHUJLY,CVZHPEELD,36188GSJXUTUDYGSJ,,VCXUQ,LN,47861
06-11-1987,SYLYYGMML,VKLPUIODY,66576HAEPMJEMBRKE,,FHEJP,KR,27556
18-07-2009,XMWZEJJCQ,LMJLMEUON,20700FUZJUTBLFRCU,,SNNPT,GQ,18416
06-12-1999,SYQNAELXC,LYJQBMAOH,44997TZVNEDYFRCNW,,HJXMF,VS,97105
28-10-2017,XEREOIIQH,ARYJKZAJD,23694KPPLNZNOWLHY,,OQFLJ,BH,30737
14-10-1961,VMWOYRMCE,XUWWTWLVA,04440QLJTZPAILFTP,,ZTDZB,KH,50535
28-02-1951,UUNZXEPJB,VSMCQKWDX,21640FVUEVAYMWGLL,,MQRHR,OK,88231
19-05-1999,KCAQZGIMS,PMSJMBACR,41453WWKHWSKSJIVB,,JQALP,WI,18955
10-07-1996,BWKKEGOVE,XLYRSQHUU,41528IRDJBRUOBJSA,,OTASY,II,10452
17-02-2001,YIAUQQAWZ,RSIFXKCMO,85333BNZKMRICTWMT,,QJMVK,WG,94046
30-03-2002,YGLYXMSNL,TBTDTINFO,96510ZMFMLVNZOXZJ,,IDJJR,EQ,23919
18-09-2011,PQJEZGSQQ,IQEYUUMXW,29850PEHNGAFEMNQB,,UZGRV,ON,46978
25-07-1961,QBSBXIZCW,ZCRKMYDCZ,51754FPLQOFPPQBMV,,ZCFTY,LQ,25914
01-03-1959,QYAAFHDIB,XVTYOQWKX,13570LYJQWTFFIWXA,,ISKTN,MY,97889
04-09-1997,DHXDVYLEU,IYBPESPPU,72942UGADRLCADESL,,ORIOY,IS,01163
24-09-1988,SUCDXXTGU,ELRIKPCXW,62115MQCKGVGOCQNH,,QQGSK,YZ,90349
15-07-1965,MXQURPNMY,GDKGPZGDY,18332EQVRRLQHSTWO,,LUPQA,YX,49639
02-08-1952,NQSDXEHFI,YYEICSKFV,53595XKFJRRLHYZLR,,VVVKG,OV,01594
08-03-1978,HJZHCWAAZ,MSWCLXXOK,17135HIBSVEBRMSFO,,HKWSY,NH,50583
19-07-1984,YHWEEEBEU,WLJUVJHAD,59509PFNZDMVKOHBH,,SFACW,RP,30614
31-01-1973,YVKSUMNJI,MRFOGYEVX,46088BSSYNJSDGXLB,,NXGHU,VF,61091
10-05-1997,GAMTUBWFU,GWWYBQDPN,45906ZHTQTFSHPDLV,,GYFZQ,AX,02230
25-08-1980,PPQTOVANQ,HMOGKLLZO,78124NMBNVJLACUBB,,RPVMF,GK,23211
19-02-2016,CYHGXGZFX,JPPMVWGAU,73197HGRGNSORLUBA,,IZVMZ,KD,42120
07-05-1970,OECVWWHWV,CJERBIAKP,99619ZUVHAQNVHVNQ,,OKYTE,QZ,12755
18-03-1952,RQXYJWNSG,EFLXGSPJK,37571DGTFHRSHOTFA,,BELOV,GX,23800
23-05-2001,XNNNVALHD,HVQFQLQOQ,91717NKSHYEEMGFUY,,KJQJO,XF,85486
02-07-1957,ZTRKNBPWX,MCAKKVMMU,94071MPMPTIJPPCUP,,YZVCF,YQ,29043
10-07-1967,XJONVHSFJ,PTMENDECC,83347VIELWRKLXJNX,,DCQXA,NR,24982
27-12-1961,PVNMPPZFS,KGVDPRDEU,75624SIMAGYPOAVPB,,ICSSS,ZV,59524
28-12-1978,JAUPBIFQD,HNOZBQYOC,70241ZBRRLNZAPNDS,,TRBMC,BB,65672
15-09-1973,TLURYQBCZ,HNDAPPXJG,75557OGLIDUCBRPPS,,QYASP,CG,95656
26-12-1967,FZATDPCQW,VWSHTKXHE,23091QHVDIJHTWYWB,,GAWEP,NL,29339
19-03-1973,OGICUGUED,ITGIOYDSZ,79722UFTXVSMHROZB,,ZYWRB,CP,66601
22-12-1968,BVUDHKSZG,IRHIQTAUH,37347MQJDRYNSNWDC,,GTQNF,TZ,99863
23-02-1965,UENGPDLYO,BFIGVFGDI,07026NVNUEGZWXWZR,,SZJJP,QT,10994
21-05-1954,JAKXYJIAH,XYKPNKKZB,99400MXCARTJZUAUV,,TXDON,LF,29880
16-06-1985,KTGJOYSMY,IKOYETLQR,52466DUXYTTLKKQQX,,SLSPB,YO,04213
01-02-2012,IHMHYZHLN,IOACDPJKK,49908WYPPCLQFYZAV,,OQVYA,RD,87243
23-09-1982,VTRRHUCFY,VBLJPVHLL,36921IMKSLGOIEFTK,,LUBCH,XY,28681
19-06-1973,IAEEMNRMS,HKPRTWESV,50693TAXMQJNJFDXC,,WNDQW,EI,56071
14-12-1999,XGSKIPMFX,OCVHKBPVF,82256DSWRJMTVJHHO,,FAWOG,GR,14658
24-01-1990,IXLVNFPNS,GJMZAIQYL,61846HMUZOREIOPHR,,LHZGF,LL,21712
04-07-1953,RRGTGZRMD,MFKVORPYV,98474QCAUWGCBVNCB,,XOUWE,MI,46951
28-02-2009,WGROKTZRU,MRNYWHECJ,41853MKINIEQTXCDY,,QGLCY,FU,63072
02-07-1956,YYXDTAIEJ,PRODBYSZF,59955FCTTGUEJMBGT,,SDMPZ,TN,11388
11-01-1968,BLYWBVMYU,RHAWQSLBK,94005PAWSKNMVWRIP,,PRRJR,NI,43118
02-04-1981,NCJSPYDBC,UIKLREXAI,63130BQFMXYNJSNRP,,HDPEW,PR,52206
06-10-1977,VBZEFMBWN,XJKJBMBIL,37855HVYJISWUVNBF,,AIMPO,US,21223
20-08-1979,ZGFANVJPD,JTTGYXJWK,67170VKQMFKHSPHIQ,,FWDCT,LO,76379
24-05-1993,SVNNLYCHW,LECXMIOGB,98193CAXPQMLEYZNY,,HPFSS,BD,59006
01-11-1971,UUTPMBNVI,EWDALDGPC,02557WDKKYPLUYZAK,,OOKWT,UR,47932
05-10-2018,PXPKNDMUE,VYZLQAFOA,03810ZQXPEKILOTXV,,XLURS,RR,00464
25-05-1983,BABTPAYPB,YWOLMQVMH,05126GYNINTNOPRKB,,EMSXW,OB,56633
14-04-2014,WBJZTUZHL,DMXUPQSYY,15069BRTOKKKTBVDR,,WXMVE,KF,02002
27-11-1964,JOEARQRCZ,STUMLWPAQ,53741ISMSCBJLJWFL,,NGXQU,JU,43740
09-07-2010,FUDJEYFOG,YLPZQFLPS,16081ZQCUWEPCSOEJ,,OWNEX,NU,66593
25-02-2005,LIVKENUXI,CYGIFEHAK,98027RBTWCCAVPTSE,,DRDTA,HN,06179
08-10-2019,JTHDSZIMJ,HFMYZWUPS,73337CRRUAEZKDUPG,,ORPCW,TQ,47978
30-01-2012,SHMBOSVDU,WPEIJCWID,32947LOKEILCVMTZA,,TEHQH,KZ,79303
03-02-2018,PZFBKOYXV,ESKXRJPTN,65796DMKZFVJMFREF,,PJTCK,GB,93325
01-01-1951,DIUYTKOTE,CRHPMBIQX,53847QJBHJBZLYWSZ,,WFOUG,KC,25732
31-03-1982,FRNSRYIXA,YELVYTSCD,55083LDLMVJYEDYAK,,TRCYX,JV,43002
02-10-2018,KVTVGETVG,JMHTVBMOP,76107BIITSCIRMKBU,,PRYZK,CE,41368
16-12-1975,OEAAUPONI,EZTNVVYRQ,63282RNPACRQNFEMK,,TRLJJ,UX,45241
01-09-1970,UFNNWVHRN,ZSBGOABZU,45019UHNPWTQQCZJC,,OPENY,FA,55483
29-11-1998,MBTYSOQDU,PLNSXDFFV,52519WGSNZSNHKUZA,,XKEHC,UK,68894
16-01-1990,KNEIIHWAM,WMCSFLMUX,64169TJSWCPJIYMYQ,,PCYRW,UR,07704
03-06-1972,THHUNRCBC,JBUFPDQLA,86336JUXANMFPOJKC,,LFFHH,MH,10154
24-01-1980,RXSFSSCID,KSAQKKODV,58274PHQUKROKVDRK,,ZYTZU,ZE,50155
14-07-1955,NIRVKTVUH,SBDAWWVQC,10076INTHFWZPXGXK,,NDENL,TP,83041
27-04-1999,UERBJJJUS,JZRSXTWSC,53251ISFLYTZOVARM,,GJOJS,NS,31733
10-08-1987,XEMNLNCCE,GRDUEZDIZ,47521CHHDCXPFHNNI,,HFDTU,NI,89983
31-08-1954,LEELTQQGL,VTTVRBTEJ,61201AERJYUXDGZVY,,FWZJT,LS,01001
08-09-1966,MVXALSRUR,ZNYKJBJPK,48683WXJKCYEQOLSS,,XPWXC,HU,41648
02-09-2013,IKBTSHTET,AZZLAJTST,80575NXJLLBIFAZWC,,BNDCD,YT,22230
26-08-1987,YYTHQKDXM,ZEXMTQRSF,08570INOFKTXQXDDP,,AEKSB,RU,16415
08-06-1962,ZTDBPNXBF,TIEFBWLER,11972FRBTNEHHMKVJ,,LCORS,SZ,85016
23-08-2002,LCHTWUDYZ,CHIVNOUEV,86748XQQSIJYLTRVP,,VXMRU,RF,94173
12-05-1973,OILJHXFTV,BOEPFDWQG,82761HCYJXNRMKVOI,,CGYYB,OA,05316
21-07-1995,RJKFQTGNH,OWPGETIBB,66480XNCFPQOMZHGO,,IILIJ,VF,37134
01-07-1969,QTUMBDOUP,BQGBIOIVB,95831OKOJTAMVZNJQ,,FYXFE,FZ,46559
10-05-2011,AFIKJXDRP,IROQHZPIB,30337IHSHTNCYKUKJ,,QRJFQ,DT,54788
20-11-1986,HGIKJAGDW,SBKWQZJCH,57678MMEBRDQDSZSD,,TCUOG,RD,36949
11-11-1982,RCKPPPBFW,CUJJYZCWJ,37048BKQJKFTMKFLK,,QEKHX,SO,65950
24-08-1955,UWPPXWQNL,OHIWRMXVX,93180GSWJYVBIMEMF,,SMDKB,SJ,20767
21-04-1980,TQNBVTLAE,DCXZOZIGT,75543GBNYGYKUIWPO,,NCPDN,FT,48407
23-11-1963,YSTHPZRBB,AFPLHPLBH,11458IULMZYCSYOLX,,ZACJQ,DN,90314
16-01-1966,RHMAOZUVL,BZTWEKDJU,76824LZTUVHIISDYJ,,LUFYQ,HI,69284
29-09-1964,EWKTRDORS,QOXVNVSZI,56666REAEHPSCVQAL,,QNHSP,BM,59439
23-06-1970,SNLQSUNYK,YDTFSJQAB,16596UYHOYNCOZZZC,,JHPOR,YB,39990
18-07-1996,NNGDVJRTX,WOUJEQDGI,12102VIWSKKLPTJDW,,OJNJL,MQ,56842
07-03-2001,LFOMBNIZR,ZEGOXGOHY,96339VOCDSADWAPHA,,CUDGM,VZ,76919
07-06-1961,IYJYEBXZQ,EQCVIASFM,16671PUWBLZLCYTQC,,UVSYJ,ZO,83903
27-02-2015,QMPBDVYAQ,VHUDIXZVC,96543NGPLOHYRPAQJ,,LBRNL,PQ,24561
10-02-2015,KMLMXSCRS,PWJIAYGVV,80259YWUECHFDCLZB,,MYWHY,FP,27070
30-08-1981,CQFSBGBFZ,NSEBSTHEE,81490OXTMMPRGICCJ,,FVNJW,RK,33789
31-12-2006,BGDZPLXMG,NTMIDPVOQ,15475FOOAHOKNBYKP,,ENREQ,KJ,12528
29-11-2016,TGWUIWSSM,QBOYUSDEQ,52245IRIBYUSFRKWO,,UCVHN,MZ,44727
31-12-1966,VNNZIZZIH,ANPZINQPM,95951WUNLVVPSINEQ,,FINFL,IV,26210
15-01-1960,XMTDUEPHW,DAJZKZCGM,12002QGNMUOBSSCOZ,,SQZQH,KR,19842
25-04-1986,ZQDVGTZRU,EWEAZAXPN,61960SDHTSJYIFVEG,,WLSXH,GC,67701
01-09-1975,KELUBILTC,IUDSZPUJK,10067JWBEYSWZWJAH,,RJZHK,TN,72995
08-11-1991,YTMIRXOFH,RFHUWRBVI,97319MUDVLWZKHGZQ,,EBLVU,TE,40788
28-06-1981,JXHUOFOND,SGBLYPTGA,57559ATNRSMBHJVMR,,WCYNA,JQ,10918
04-11-1957,CYLPOSCHU,JYPAKJLDH,31871TXWROQRGWPON,,MREJR,UL,35536
19-06-1989,QQSLGSHSM,ZGUXJSPUU,76818RTXSUYEJDLVL,,IGHFM,YK,33399
02-12-1974,HNZRXCEVE,GQUGSXOWN,87799IYBLQXLVLIUQ,,UVHKY,LR,33576
17-11-2001,MAVSIUBYT,VXNXPPUOL,47103ROGJHVLWIOZA,,ZPDMB,IC,92857
01-07-1980,CNGHKEFKA,TRRNBASDE,96527ZKOTVKQOQDWZ,,FBLLP,ES,30034
01-04-1973,NXWNLDYBG,BSMFUDYSE,19510GKYAINJDDXMR,,MCUDY,KC,66739
05-02-1983,FFVEEWVYG,DDFLHDLIL,45551VNUFEJEFYSEE,,VNWGG,QI,07917
04-10-1990,EEIKVKOYF,UTSZDBYII,66839VUFFONAFDYKC,,ORKPT,YC,10420
31-07-1983,HEJPRLWBI,RTTTOOJIK,91743RRFGCTDXMEKI,,URNLR,EX,19082
03-08-1977,CLABWGOZL,GIOIVOTTC,41398JZNJJZXTOPJN,,RKRBJ,OC,84653
07-08-1961,ZMSQNQVGZ,FAPQXCQIJ,54014AINXHDWHIMXM,,PSNAC,PN,09755
24-10-1982,QNJHXIQHR,GTYVVXCQK,21201TLVEULEGSYTQ,,HETMI,DA,99874
21-08-1995,VULSWAUPK,IJLKKFTTA,15842SOROJSDTKKSQ,,DJXMB,JG,36031
09-07-1981,JNTGWACYD,NRXXPSYDM,67654YHSECHUBFFPZ,,DCQUY,UM,53874
22-08-1953,JNWUELDFP,AMOSNNLWP,38226DIEYPSYHQUGH,,HTLSR,UB,29289
25-09-1951,FJCFQEVJU,CBFVARVTI,41109ZEPNWHIMSZYS,,WPLDI,SX,90802
20-05-1972,NNNKFFOZI,XVGNSMLPR,92531IASOFSAHWAIW,,LBFZN,AV,57597
11-02-1967,PNANKSPYW,VLEBGDVEY,20448YGXWWOAWBTXL,,PDSDN,TO,83686
18-09-1985,OELXGJZTA,DCEQMNGVW,09167IJJORCWLZTLC,,TFEQN,UT,39118
13-12-2016,YKTQGTCRF,KNATGVKVV,45109ODDRQNPAWWGV,,XRNVD,ZI,01654
06-02-2017,SSIYLFEIX,KTPMQJJKX,89752BUYRTFRWINXF,,RXVCV,DV,99454
08-01-1980,EJEDQMDKB,NFGMLJTSY,88226UVYWUGUFUFYP,,UXNDN,KG,98248
13-03-1955,EWBSFJXUE,TVMOUXTEY,86564QVGUINUQTXNM,,OBLLH,UQ,65061
05-01-1954,MPIQSLJFR,XDVZOECUF,70927FRWZOGGJJOFL,,EJQHE,FX,85599
12-09-2011,QTJMTARJX,VLPQQEYPU,04312BBCWVEWNGUZR,,GJRIF,VD,29661
27-09-2005,JDJISNBTE,CLIPSPAZF,60060RRNIZLLYRZFB,,OFEUZ,LJ,32687
05-02-1996,TQVZNIFBD,NYDNEFFTI,96947BYQDSLDWSXRK,,BEBFR,TI,53413
25-01-1976,NSCLXQTCZ,YEJTJAPDH,79935RNSYZTOCVRPL,,ORUTF,VO,45994
30-05-2004,QYWYEVNZS,LQQEZKIPN,98984FOUKXCUWTCTX,,MIFTU,NF,33347
11-02-2018,HGJXDMYBI,LMGLVGOXL,95806GEHZZXWAKFBB,,IUUPU,FA,12670
08-03-1983,LSZDONYWP,EFMRSXOGK,08949STNCICZVVRJQ,,EANFS,UH,27554
11-05-1981,WJWHOQFEI,XCKPBUMLM,97187BRYLTIMLOTVS,,DOHTZ,CU,89526
14-03-1983,FRKZZHSDO,YXATPRFLH,26839NKKHPKOLDXPZ,,QLGGP,SA,88009
30-11-1975,IJJVYMXDW,MELFOSBVT,44043WVTXXBPNEPKK,,ADZYO,NI,41931
28-05-1999,DPRGPUYYP,VSIVZIQSQ,61827EHMASPCTGDNM,,KCFXL,TW,28981
02-11-1997,LHSGCGXGD,QOKBHHIZZ,45467NADHYDIMXFGD,,IYMYY,RE,73908
19-06-1970,TEDONNILR,BGAUUDQFL,54251DWLFINYQLMYH,,JDYDL,XQ,56257
31-07-2006,WCXOVNRIG,TTVWBOXLB,27125HYKRLXMJEHSJ,,ZPQHK,UI,61011
06-11-1968,VIJGXGTVO,VWVRDAZAM,56688UDBPRTRNPXGP,,ATDOK,MM,56309
13-09-1957,UKKYFIHPS,DEXEUFDBG,61598QXOBUUWLUUOB,,VPYPB,RA,35561
24-10-2000,MNXZZIKZH,UZDSAJVLK,08899MTGSCPMJVEKJ,,BGOXK,PO,96830
29-09-1958,PVDWCSLPX,GDISXUGVV,70054XDJSLVGOSUKF,,DLVIH,EU,83299
20-02-1985,QFRUIRYVM,TSCXSKQPY,70709PLOBOTJHELUM,,AHLIY,TX,98444
26-10-1979,NYRGIJGXZ,HWTTUAPXA,48870PPGXMEVXWGST,,FKFBF,XI,84251
30-05-2019,FCRAUFHQU,FYQMPLACU,66929LUTKXYDXMVQJ,,NHTKD,ZG,93975
22-10-1960,RGXXBMEQD,ENMQMLWYS,97623TXMMMOTVZUVR,,INFWF,QB,73198
03-06-1981,GCKDHETVR,YUGCZOKUT,25134SZQAYDBFAPXT,,URZCN,QV,70936
19-02-1978,KLNYRETGY,DELUBCCRT,05654HRYDVWRPUPIC,,PGTKV,UG,06354
05-01-2018,WKJWDYJYE,VPNQUCWPM,93827KJXMKZPDDYGA,,FOGYJ,FR,26237
24-12-2009,DEBSMXDMQ,TMTYSPWCC,49612XSFUADUUWIJG,,RLGDF,MM,74460
12-04-1952,ORSARUEEE,TQDPZUBSD,01508BWCSQIVVDQFJ,,YMSQQ,YY,87768
03-08-1993,GXJFDQNSU,GWIEQUKPM,00259MSAGJOJQYEQL,,FFGPW,TS,05032
23-05-2006,FXIYEQXYK,HIPBDYJGI,24600OWCDPUKYKVQO,,NVBQU,WQ,26946
25-09-1950,TOYEEGVFW,ICDNOJSXC,42769JOKSJSLZZHOZ,,LOEMI,UI,08114
09-06-1989,XFRMBVZFW,TKXKFYXLZ,39894IPZGRQRMRIVG,,AFATB,HL,09676
19-08-1985,UVADRKOYR,HVMQLNASM,24121GCUDQBKLMIEP,,SIHUQ,SL,50915
22-03-2003,IYLLKSRUX,FGYMGSJEZ,25188OWRPVRZOOOJH,,DDGXU,TM,13489
28-06-1977,NOHWXGLAH,DNHIMHGYN,04671ZPEQVADLBRLG,,QXTVW,HE,94500
24-03-1981,JXBVXRROI,DFCIRXNQL,38902RYTRNQRZIDUU,,AHQLX,VM,36140
02-08-1982,JQRVSOTBS,FZWLFJCDC,47679BVCHIGWNIRTR,,TSAOW,VL,64056
10-11-1984,OWKZZSSEO,CAFCLUVBR,71610JYXPPQWPNNTI,,UTSUJ,CO,48403
26-05-1959,BHRPAUGHV,ZEZAXOFYE,63691QVLXILYGXVFQ,,VEBWM,WQ,42909
16-03-1960,TCZKQHKUY,AKRCXSLDZ,82615SIVMJSZIYQWP,,YWUKM,OY,33254
26-01-1953,TGPFRGOTM,GYJMEHDMW,82791EOREKDOPYPWI,,SIWEO,UI,54669
02-07-1980,OIHDLKZQI,BMZQOWJHD,90579UMRJHFKVBYZH,,KDQKF,SC,37588
18-08-1971,FHMLZHUWT,OURJSWCVW,17064QUXDOYSJJZFD,,MKANR,OM,79034
16-05-2007,IAVZQHSJG,YIJKUWTXW,88522YPRXPDQBHFIC,,KASIQ,MT,80473
27-06-2012,WIEHSGLET,TEANJKQHP,09933LXWFZWWDYKDG,,DMRHW,ID,88201
01-12-1978,WESVETIVL,BFTDCWLXR,58400MKONOERHAONE,,IQGDY,NU,46704
20-11-2020,PXHMXFHAC,UUQSBIPKY,12727HNQKNIOMMUUX,,OJBJJ,ZX,87748
18-02-1999,DXILNRCHK,URGYHOCNN,19243HTCFSOTJKVFD,,ZVLMX,AH,48110
01-09-2014,TNJQYOBGO,PKKBXWLWV,65378VURWTQYIOSAH,,RHZKC,UR,10874
10-09-1987,YTPNHXEDI,KOJDXHHHB,82853QIIWZKPYKFLW,,TWMYT,IE,79519
15-08-2002,NANIWBMTD,REFSHFAVX,41308FUERDWNKUHZL,,RVAFO,WZ,84811
30-07-2015,BEJVSJSCC,QMBTXLXXK,32654BKJELZOIQIMC,,NXJJX,OP,51706
20-11-1993,XIMTJHKRI,YHTINHFBE,90730FSYMOEVNVVII,,UICDR,WY,35896
14-08-2001,PHXOGYYMN,CNRZOOISZ,83562POPLETTASDML,,JHESE,YE,85734
20-06-1956,CXCXDZYNX,MVLSLAWEO,45799DHSKAUASGXOP,,XCZZL,SG,80771
02-09-1979,ZGLWVODTT,YBZTGNUBG,09042VPHGJPIQXHNI,,GLUNB,OL,01821
01-12-1981,SRDWJQMOB,XAEBPSJWI,51313UCQJZDWGWIUP,,TEMAI,CM,79014
28-02-1977,AJERRILPI,QOCIVKUQA,52622ERNPMIORIRFV,,ZUROJ,VS,03697
17-04-2015,DMJYSLLRU,PVCMTVJHT,45555KFSKZDQFMWCC,,VBKUN,BP,95826
02-05-2003,ICHGVNNWN,MRELEEDGZ,06186MMUEQRGNBFKZ,,HXICG,FJ,26187
09-08-1980,JXNTNCIDB,MHIPTLLIV,52116HLEEPXDIZORP,,ALWDV,LW,82263
06-07-1978,DWSJQJBLN,TGAGKULRW,38503FVILMLFJLAUG,,NVCRX,QI,19838
24-08-1979,ONNEEZQIF,NHYXCQMUP,31254JNMXQMDEXNOO,,ENSTT,DZ,35122
04-10-1980,XMCWEURSW,FBKJALQRY,01483RPMBMOELHEIE,,BGSLV,LI,31305
20-08-2001,WNVAAMTHS,LHGXGDETT,17434FPMILTRVDHQJ,,KELSW,LP,03272
22-08-1967,SJBRAVZQY,NOWWUMGNM,84120ANNHTPOYXNCF,,YTTWK,EB,82422
13-05-2011,OCLKNYHFU,RRKBUOHFK,20260JOYYWNVRUICX,,CHRLG,NZ,24669
24-09-1984,WDIPFYGNY,TSSYXQQVC,59922QTUMLTQOBFKQ,,PMMSN,HU,59301
06-07-1959,JEYEYFGNK,OQTRSYRHL,90214DITKZIDRFRHB,,GPEGV,PG,53699
05-01-2011,OHSPSHLGO,KPOWLZBSQ,26473OACTHLQGQYYE,,CHJZX,BG,28866
22-10-1966,LESATVYIV,RUHTLRJUG,66825KISVDNTNZFVU,,LMDVS,LD,54829
30-10-2012,BTTBKHUHJ,DMIDVYOIR,76738DBELVQYBBUXO,,KEQQU,IE,19888
05-03-2019,RHWBOHLIZ,ZSMTHDVJT,69300YWTOQDPCRAIO,,WLHWM,QS,05797
15-02-1991,ZVHTCNXVC,JJPJTOKYZ,42630NGLMXAMRBYFU,,PUVHV,JI,52637
24-01-1950,VVSKRPMJH,WCBEKLXWU,94665ZALYNQKHECOL,,ZFEZN,JE,23064
21-04-1950,AEITFEHXK,RAKUGXTTW,47671OIUZVPODJSET,,YQLKX,TU,40763
23-08-2017,DENIADZOT,TICKITNGG,26882YMZKGOOKIJQS,,VDNPM,DM,47294
15-07-2008,BIAZOVDMT,QUQEMNAPR,75451POBNXIFBBHBC,,LNHHA,EV,51147
07-07-2015,WLMQGRHSQ,BUXCRJLRM,77995ICVXQLVEOQYP,,WNFGY,WL,67535
22-10-1987,LTDXKBDVZ,KPURXZGFH,98924SSZKAIIZQMBR,,UNCIE,RC,26760
13-03-2017,LQWRAJLKZ,YZOGWJYQU,61585GCVAAGRYOOIM,,JZDAF,VD,93090
22-04-1953,JZFPAQCSG,XFRWIRJWJ,34173IHWANVIFXPFE,,XKQCI,NW,67909
19-09-1962,MBKZKCRXW,MXZLRBXIG,97193FHZKUZWOLBLK,,BYCPU,XE,98704
30-10-2005,QQLDRXWZV,IFKUWNCUJ,07004NWVIYEQMUTJC,,AOBED,RV,74725
15-03-1990,FVMGRCWRL,FHTVQXAZS,20255UGVOJNJTVKCJ,,CEUPC,AV,34767
14-11-1999,FCEAQMRTC,DHFVCWZBR,50236UGBMMTVAJOUS,,SIBGI,IG,34093
26-05-1984,OAEFBCIXS,JGZDEMPOB,42523XLXZLREYELST,,HBYNU,LM,56229
14-03-1976,PVAMJIKUG,HXAIOAOWC,46806VLHUUIALVAUV,,DYUDM,LE,48192
11-11-1987,LAEWKJLRI,DEVLDXMCO,25629HSLGKBKOYZLH,,BHJWE,YD,50493
12-11-1968,JVWWAORRA,XFLWGMQAG,36385QODMWDCBOZZM,,TIDSF,LA,69939
09-03-1986,AJEHBFKAB,XRAUTGIXM,29120UUEQISWLESYF,,GTNSW,YT,79244
20-04-1991,ECSMYBMOI,AEXYMGTQX,84785NEGVUIHYHPXM,,GBWLU,UY,69671
08-05-1951,UNUASKLEA,DVLAYULDJ,52001MDDRCSBCZBEK,,YESSP,DT,45604
23-08-2015,TJXMEVPFA,GCFCACNYK,70830OAMIQKRFXFVF,,VBXGK,EU,31446
06-11-2002,YMMGJGNJD,SEHYVGENZ,14067FNFEGYSEGEZH,,MOFGF,ZS,28502
18-09-1954,KGCTMOCGE,EOEEDEGWY,59218ERVNYITCGXGT,,OAGFB,PM,42382
11-08-2011,ZOCNBWTJK,VUBQICEIY,34115ACSDKMKIOSGF,,NNLWB,DQ,68023
14-07-1960,ACOEEQENL,YGCUOJCTC,21602MXLQBDJQWCCZ,,ZSOKG,ZC,46947
09-04-1985,OAOQQTSAZ,IJNSDMACA,71259OTVYRGFPCKCJ,,TKZGI,NF,21467
24-10-2020,MDTRKJJRH,MJNLHDMGZ,77096QZGIHNLLTOIL,,XQNEL,AD,17477
21-02-2017,BFEWJMFGV,NYZTVLYIC,66854RSFGEUSMFARG,,HCVPA,XF,88199
04-08-2005,JOZXSSQOP,PXYGPSKFK,89699WZNPBMCYCRGA,,FNNAY,PT,44499
17-10-2006,VUQTBUHKK,UFKYHRGXQ,55818AHTNOWNQIUVG,,PEMBV,ZI,91593
28-04-2015,AFACYAEGK,YBCPKSRLY,87790WSJYHBPFZYKX,,JWSJK,ME,59555
06-01-2018,JUEKASJYF,WHIYVBABN,07984QYZKILCWLSAL,,GNHWV,EF,10164
04-02-2012,OJQZQFVBN,GGJINYTWI,23966FOFAYOWAMMDI,,KFMKG,PO,55662
10-06-2007,ZBOGKWJFB,WCANGEOEZ,89315IWUFZSRQGUUM,,RGGXA,NB,27603
15-03-2009,PVQWIMJAU,IXNHRFZRW,83888IDOFASZVTKDJ,,QCNIG,BH,34323
11-11-1983,ZQCTXSXRZ,TRMRFITCK,87497CSRALAORZCUE,,OWBFE,PH,73164
10-05-1991,OHNBQMDSE,RHBKJMDVQ,90308BKTDAQMRWFZA,,DYCQM,QA,02458
18-05-1957,CWTKTUXKO,UVAILIGLD,36631QKMSSVXXPUVM,,KOZGI,AI,10885
22-09-1977,OZJIUGOTZ,WXBGTGWAV,92249MCGILQNHSUJD,,PKQQC,VZ,51007
07-05-1953,ZSFQGZDYS,IDFLJONDS,97111DVBFFZBNZHMS,,UOWCF,DH,27048
14-03-2006,MHLWBTXWB,XRIYXANTC,57495VLKQINISQTMG,,GEDSC,PH,62422
12-06-1979,TUXPBCXVY,WXGQQLTGR,93787QVNRNSHFHXBR,,BNHAL,BX,28906
10-06-2002,NZEDZSCGU,QJLJGBKWH,41166MMOARHBENDZJ,,PKRAB,PO,98297
26-09-1985,QJVRPLVLK,PDGPQSEZV,09889XNTVIAXNWXUH,,CNXNX,GS,34288
20-03-2007,LOKDLHKLE,VMJUYKWLC,47907HPWEKYQKWGRR,,YIKXW,HJ,50141
09-11-1990,HOTTYDWFX,YQVQAUHJS,85472ZMDXJOSXMOZB,,TTNXC,SB,19835
17-01-2021,FYVPFJYLM,FLIKQHQYC,90667SIDKDXZWKYZJ,,DIKQL,SP,72216
13-12-1957,FPXEBOAGT,CNLUWUTEX,65845EIVQSYRFHYLX,,KZBFF,BR,01773
12-02-1971,OPTVAMLCZ,SPWMNBCOX,94697MVPMLYANVSXY,,XAIOO,QS,90341
23-08-1993,OODLPMRWE,RFPALRVRP,83642CZSHRBEODDRW,,AWOJR,NH,45949
12-04-1977,REIKZFOBL,RGOTWSATR,15937PZVYJGZPYHEJ,,NJJMR,IJ,96318
16-08-1953,LQFIGGFLU,FWYTVBSHM,50906UYUZKELXTOSI,,EKFGW,TG,30995
20-03-2007,QANHAMEQV,IHBDPWSAE,74551KWMBZYSXFSYM,,BDGPC,XT,59870
06-02-2014,QGGPCXUZK,LWKFJIJQU,24624DTFVYUMLWSOY,,CHJRF,SY,51557
25-09-1968,WAQZBCOAT,ITLWPSFJQ,43333FMFWODBBNNVZ,,QIVQW,RL,37408
19-02-2019,YXDKTIWUZ,NHSJTPLCM,00405QRWRACXIKOCE,,HTDFW,MR,07237
19-06-1965,ECMCKLUKJ,TULUGUHWE,58774IVRKOYPBJMVG,,VWQEA,YN,30828
14-03-1991,XPVDUEDNA,QXUFZGFFC,79213LIYVPUZWNOUQ,,DCFLW,VI,74286
14-04-1982,IQDICSTIZ,XWIQLNVTV,63639APXKJSXQZGWK,,OKWTL,KG,50650
27-05-2010,XSYNBJGHQ,BEBIACZYJ,56441RPHZCUTQSFZE,,WXTRX,BE,54589
07-02-2021,NBWOOMSBT,YCHGJQDOS,30240WXTUEVVUMDZZ,,HYWBH,UH,61661
14-05-1986,QSJDLYOZC,UPVWBOOZP,80044JVWIPTCIKVGV,,IQTBU,BN,63282
22-12-1967,WZPXTGWUU,VHSHPTQML,28363BPCPZKBEVPYR,,DDXRS,PV,63328
24-07-1998,TELALNBEN,JJBHKMGYA,21082OIRJUOMWQOJQ,,JTXKY,FY,17125
23-03-1990,RCRUKUGDI,CACONJMZB,60009HBFHLXZDHTBM,,YSATJ,MC,58130
20-05-2008,PTMXZCISK,ACOJFQIQJ,93652AXPVNIFVBHKM,,OTDBJ,UY,63001
18-07-1957,EMVDQDEVN,OUOSBPVQJ,40100HQBECNCSOORD,,AXAVJ,DV,29310
06-12-1990,HVZOGDJTJ,KZOTERQNF,51924LEXETBXBUKKF,,IWAKB,KE,45940
01-02-1998,EXIQINJNN,AWTLRKRGR,82784MZTJSCFKNNER,,XSESU,ET,86987
21-01-1999,QHOVAEUQM,KQUSPRDNV,39690OJSOIGOMMHVM,,DCQRT,YZ,80406
07-08-2007,BUKKQTFJK,CGGBFSJKJ,54926WCAETVPBHADP,,GBDWA,CF,17763
17-08-1971,KPNRXBVXG,GZHMZPIXX,61643OCSBELEQVIAE,,DLJIF,IF,71727
18-08-2014,QGWCSWVJK,TSCWZQZGS,97001XETMGBNGUZCU,,ITESR,UC,98401
13-10-2013,LYAPKHUUL,FPVQKEBUG,85870FGORYGGOZEFW,,ZOTNH,QW,72979
12-01-1955,BYSOVYZKP,KZQGDGICP,24844CZQJKWIGEYKM,,TOOFW,KN,85180
10-06-2009,XQQCQFMSY,MRPBRWAAP,79575TXTLGVXLKLUW,,KTZKT,YM,14804
26-10-1991,QUYQPIKKX,MDHIBLJPH,07274VCYJYCGEQJMT,,MBSCS,QU,33677
16-06-1956,VPORONQPZ,XFYHZTLXH,67542SKMWRQSFLOZU,,VYMYY,ZO,77649
17-05-1969,OCFGZMCLP,USUDJAFQG,75494LVTTXEWGWYCH,,CZBRR,TU,03621
14-04-1992,HJRRXJTSG,XOUORYCZH,69291NAPBXFORLNUY,,BNSDQ,IS,60496
21-09-2003,SHRZJZKFY,OTQRAFNUE,18171WXWJUMNUWDFI,,NOMXK,OO,08841
10-11-1983,IKHFHKOVD,DVZWJYHOX,26855ETNZOHJFGBUX,,UXEGD,DX,63897
21-01-1981,XNLYLJJLM,IUKGPPFEO,24498QILMGWICRDZG,,NDBBW,ON,96209
01-03-1963,LSAVIUVKF,EALXWQFIG,82725HTXDTIGELTLE,,DBUOL,EE,94019
16-06-2006,RKSECNLYE,GILPDCSUF,03224GBYKLHKXDIXG,,DWCNE,RC,47062
02-03-2017,KBTMKEOHR,SEAXYUOVZ,25396CUPNRMZONJGQ,,GDOBA,YJ,36286
07-06-1999,MOMBCINMD,KNPEIDITJ,68438NXMLHSMISKXJ,,UJZIR,JD,73680
24-09-1993,NOVTSAIIT,CBQYEJZGT,90774QVOOJNLHDBCD,,PDRXJ,ZZ,18963
07-01-1983,VSOAXXBJW,RBHTNEMLF,61410LRTQQJWMARMR,,FIGHQ,HY,72244
13-12-2008,LCBUYBBGQ,SMVXFKVXO,26100RPDTOGIBCAUE,,ZDTWY,WN,59412
03-03-1961,FHTZUNGDL,QJPKZEXPU,13385LWGLAKLKSZJL,,MAKUQ,WR,89114
28-08-2009,DZJXXNLJW,FOCJFADYM,06191SLOYZCFASPQM,,NIQSL,QG,50764
01-09-2016,SNJEGAEZV,STJCSGJRG,44702TAYOYJWXTRZN,,WYQJM,PV,72290
21-05-1971,AOCQTZNDP,NTNXVHFVX,38909BVKIJMGAHBNK,,OCVEN,RR,44797
26-10-1974,FILJBAWDK,ZGUENJKNO,75397NOQDJVLQXPXU,,TOOLJ,FH,60522
13-10-1972,JBHTCHDQW,RMBVYJLEL,75530FMYXLWPKFWCI,,NPVKX,NY,98003
28-04-1992,RQCTBGXHI,CRZPLMOYH,45215UPSAFDYOVQLU,,YZUAS,XR,75739
03-09-1985,LFIXOKEAJ,LIMTWQUQO,13631ELMZEWWKFQIV,,JAVGY,FG,48952
30-01-1967,XCDPBUNDM,BRPFUEHMU,17304LLAVRKLVZZHO,,BXCWV,WW,91841
11-10-1989,VZPKPBRFM,SSNCAOBWD,89488TVEIZRNLQSNA,,HGUUZ,DH,34916
17-01-1997,MYSZTVHVO,LUXBIPWVU,59506HSYQOFQQPQSD,,KPBLJ,OG,58723
15-06-2012,WIXYHSOGJ,GQTDSXPXN,23265LZZVMZLRVZZL,,FASIH,IG,54656
11-07-1992,OWSJGFWAN,JGOATAXXN,22933TBOUXBHZJAVV,,PQBRT,JV,34727
04-08-1962,XIDYUAJLJ,TQXSXAQAZ,54585HHIDOXRPNZXH,,PVVSP,WS,28079
20-10-1996,WPEGWBIHW,ZYKTVSAVY,37724ZOBAGIVFUULA,,NCJEX,DB,75715
05-03-2014,YTIYRDBQR,ZNDOAKPGJ,82881URMOMWDCMZYB,,USGAJ,EP,73501
31-01-1964,CTXSWULSR,GDKXIIMCM,84901DSJYVKKBUDVT,,KVLVH,MV,35301
10-06-2017,VAMDOFDQA,IYCXGCDBL,84577XHMNOIEESNCT,,LJWAL,NI,78086
24-07-2009,YKSUXSDQV,YTVHQPOTT,80697CAGQGJHKECKO,,OUMUG,BL,37808
28-03-1956,KDYZJEOJE,WDKYMNZPX,52281AQYIYFDTCPHB,,KYTZO,CK,00389
17-07-1983,SNBLVBUFT,NNXBZKPRW,15995HZCOSZORZHNT,,QYTNR,VV,07133
27-07-1986,TIFGGKTXO,VOELRJZNA,54500ILVVTDQERTQB,,KNHVK,EL,26500
07-05-1993,VSWNJETBF,WPNALRXAC,28144VQTHDOMAQEHC,,NDDZJ,OX,20087
18-01-1962,QUAMWVBCY,GIIDQJHDG,40465XVDGCJCXVXKN,,MODPY,AO,63544
21-02-2018,XUSSYGIHZ,CBJIGMDWC,04214KQFZUECDMPYL,,QGZDY,ER,72329
29-08-1977,SBMHAEOOB,BLFBBKTXM,99286UXRTFQGGKGGU,,UGWMS,KC,34635
01-05-2012,ELXTQNDWL,FJLGKAYLH,49929WOFZDHBKRUUX,,XHXUD,BU,22100
20-11-1994,QBFFYTVPU,CTZCHAXNY,09324RSXHHKJNCXXX,,BIXXT,KJ,72498
21-06-1984,ZEQCXMSUO,JTDNRHGKY,54434WFBWCMSCOPIJ,,XXFDN,XT,85346
23-05-1952,GEXMYNHBB,KVEAGQQWX,99335RDQYFNOYVTZZ,,WAYXZ,FW,62794
08-12-1954,JNYUIJEBB,ZWVBVBWOC,97325FEJNDYWZUHRY,,JCAWP,JI,03432
17-04-1977,JSDNHFDKK,AMOWXLQKK,83808AZRNOVWFWBWY,,NEZNP,TN,57807
10-04-1953,EXYBKUNKR,IJLWVNSBP,39515MURIRZDFGJOK,,FVGJR,SK,94146
28-11-2001,QPXQUDJAY,HAACJWHAC,08975DPCAGDOHCAMZ,,MNZCO,RC,50530
03-04-1956,YESMTUPOB,ESJVRKEQF,40661UJEFLGZTFOLB,,QERIT,SO,11334
03-05-1960,AHBPGYNQF,NFXTRELHT,10741PAZDPCSUTTRH,,ARCHK,BF,38129
10-07-2003,VUDYKYXUZ,WOEWWXHUF,00565CXOCJFQOMTYB,,HHWKV,ZV,60369
29-04-1998,URYNOMQNM,LDGZFRZTL,79756TIYPZHCQRLQL,,VHOZC,VY,00126
25-05-1951,QUUNNMGGO,IOKJOEJGI,81814LBAFMGISMTAU,,PIPFD,BM,95334
02-01-1998,UKXEEPFLB,EMUNVMZEX,54024YAPYQKIBDTPM,,LVUZV,DW,05896
01-10-1954,NNETFZAVV,PUDQENFVS,42610IGXMICXYKZMT,,TUTZI,GF,46943
28-04-2013,GOWDEWJPX,CWSLESUJN,36747PLQOXSMMWIWH,,RJHDC,SN,43588
05-05-2010,YNMWVQDJE,LXSPIKZPV,42316YPADBGKKDGQI,,XMCAC,GD,00348
20-01-1984,MUJATIHML,RNYDJHLFB,42989VCMHOHHGDBYW,,QULLB,IM,07639
15-02-1989,UZEJSGGWI,YPVLFXPTL,74237NGYKLXQKRURP,,HPJKF,DK,73892
29-03-1977,RCQFWUEUJ,CCXAJZRTE,78359KVOANPYHWNQW,,PYDKX,FV,75867
29-06-2017,LOAVNDUYV,BYQGKWCMV,79468DXONVDMFAIGB,,XMHQZ,GJ,41932
11-06-1973,RWABHROAY,LULLTQLAW,51545IUPRGDRUDMCZ,,AHCSR,ZS,18427
15-09-1989,YHRMTBPUL,ORSKCKJKC,32973GXSVACBUJVEQ,,DMCUU,GI,78215
27-11-1958,UUHHSMZVA,XZWUVEBOS,70510SZDQWWIOFLFX,,RGMWW,TO,92801
22-11-1973,CGHAISIXS,ZGUBVUXBD,22104XAWGKLEGZWYI,,VQESX,LG,11198
28-02-1974,BYKNJJYIX,CUFOWVIGX,93686JHVYYZGWBTNY,,JDNRB,VZ,57075
30-05-1987,TJDFMRFLR,AYCLCDNXR,91764WPEBYQAWPGCW,,RAGUQ,ST,99631
15-02-1987,PSBVHWACY,FLFJKINIS,58282HUXTJXQBATFB,,GJLXH,TN,73236
30-05-1951,PXLHNNFJX,ZLPAYLCGU,35057JSKWWQBCGZJM,,BWWYM,JU,34182
02-12-2018,VKJXMYLNI,DNXPYQNEX,10527MPPRHNHLLXZB,,RKQIG,RW,20495
20-10-1993,AJSWPYKPP,LFPWLTATP,59943CKFVTCFXWEAP,,HTFGN,LN,01740
06-07-2006,OLCQLBTAX,VYWEYMXNQ,26449AUJDRPNCRWFB,,OZNAE,EQ,14426
01-03-2001,KZHXJPMOZ,CDRRQIKFY,12516AAUUUNNRUHPA,,FVURI,MV,70971
19-06-1998,APLLINZVB,HHZSNXNUS,81591ZSNSJMIWDZWX,,MLHJF,EG,18487
13-04-2007,BEPPRICJZ,IZAMWFXXJ,78211IMZJXCASXKAO,,IRVDA,PK,64382
26-02-1968,TEODPFPYN,OGVUNGITX,70102NGIWBUWQLELM,,GPMBI,BE,31199
25-02-1963,PDGQAHVZA,LVMREAAWR,21181YWDCTNRZHFSI,,ZBGKH,RI,42015
25-03-1987,WPSMZYJWU,BJVTTOTQK,99802GQXSTQIDOJNB,,ZDLNA,CI,97175
23-11-1953,PFSHSWCFP,WTWDJCCYW,52067AJMEPNOEZLPK,,OBLFL,GG,60629
03-05-2002,BCUMECBJR,RUDMNWNFO,41480GFKFGFODZISY,,VPLIR,KZ,37171
20-01-2002,HWEPTUXNM,KZAAGBUUE,22619LXFTCQLWCTUE,,UNLKZ,AZ,89990
23-05-1996,OFLJQAMEW,RAJBMRQLF,30719YICDCJJBLPMH,,XPXFT,IH,53915
28-09-1999,GVHNEODDB,AFFIOJXSY,37670XLMUBAJQJPAY,,RLOIL,IQ,26990
04-06-1978,XYGHJRYLL,AUJWCHHLX,48800AWONPKWYPQFX,,XLCSM,SC,73961
17-05-1969,DKUDIUVTL,ANCMYZNSY,14631WNGMGFIYIDHO,,MGHUA,TL,33611
01-06-1956,YLQFVXQZZ,IBNUEBNHZ,89504CDRDUIJTJRHM,,MGFTC,ZA,57246
25-11-1963,JSWTNEHTV,BEKASUPSV,94357GRGWNKBRJRCN,,KFGLA,FX,13516
02-03-1978,LDOOQNFED,FSDXADETX,30497KYVURYDAZKHA,,KMADX,WU,20261
30-11-1993,NQMZFTBOC,NSWPIZCUF,51816VOWPIXUWNCYI,,NYCHT,KO,52873
06-01-1957,LZSCWVRSR,HMMUETZCQ,53949QOGOTHYYKYOA,,UTNKO,MS,68842
14-03-1956,NGCBXDTAJ,TIXOKTMAM,94312HTBQFBYSLQAM,,LTYPE,RZ,68451
31-08-1973,AAKHLESFQ,XNNSQEJNI,86382GVWCPHWXPSQE,,UGOHF,AG,40463
01-12-2008,JXOMKIWEB,JOCJYGNOE,59135FMOGBNEGUOWQ,,RTFED,WJ,75949
22-09-1964,DXOZHEHID,MAHYEANYA,10672YGTLDREWBBHV,,LUCHR,FH,15099
21-02-2005,VRHADTKNH,SRMPFOXVJ,18100KYJSNGFGWUIM,,BIRHY,IS,73453
08-05-1961,PDJJSDNRB,OLJBPFECH,97925RUEHNTMKLAYS,,ZTBYH,LG,06486
20-03-1991,BJZZURYZN,CCVSBCZIM,38661BEYGTZXZMXCN,,LZGCJ,MO,64545
02-01-1978,YKKAPICOJ,NDBFYSIYF,64369ESMRWYVEHGQX,,FWHMF,YB,56057
12-04-2012,JXWUSYSZQ,KSGITUKUS,24511QSFINFFDUZTT,,ELALH,TM,64819
31-12-1982,EDRZTECQB,GOMOSXZNS,83161YGMGIWSYPLZJ,,JUGKB,XY,71339
12-04-1980,XZEJBNYNI,ZALGZNGIO,31802RIPOQBUCFXAE,,GAOMK,EN,45301
27-02-1990,ZPEDINEYW,NOIMKDQEQ,08432HMYETMXUNRSR,,OEANW,TG,89252
09-11-1955,BKVSMGPDK,BCTBTBVIP,19330PAXLORKOCMXL,,RNPDW,YZ,99700
17-12-1999,WCSLNYSWU,TUQLSUWEU,08715YITRHTATXIHY,,CJTXT,MM,45806
05-05-1992,BWFBYZGSK,SEXWAGVTE,92091BVHBEKBRKPIV,,QKZNA,MQ,54564
01-08-1987,AUASUKHCX,DXHWYDYRI,88155BXIKTALQNWSD,,IVVMY,TB,85253
28-11-1956,LKYQDLART,CHIGBRACH,46522GSGZDOFXRFKB,,TJSWG,PQ,89410
25-10-1958,LVLIWQLFC,IIQTNFCFL,51394CCHLSMZXEVUH,,LDWND,UT,87184
20-10-1958,GMQGUYKKF,YBGPXZQUL,01422AQIZYFGOZJQR,,EZXTD,XP,56750
08-03-1970,GYEQNUGTJ,BAVAWRMZA,66861DQNWIPLBXLKQ,,EIXEV,GV,00537
05-03-1995,PDUVMCLMT,TTXCAIBVW,46594AHQYSAJDFNOO,,ONLRX,BH,75383
20-11-1983,ZBCUAYURE,ASZLICUMW,74197UPEJWCVZXECU,,WXEKP,LK,18855
22-11-1956,ESXCBQJKC,KWLVGNXLE,85037FHXWBBNHBDUE,,XSSPX,NX,31080
22-04-1991,YOJNFFVKS,VTDHEZEPG,44760YVITLXIRRGCG,,KHJFW,ZE,96166
18-01-2010,UXBCOOZYK,ELOXVFVDK,87623IGHPPJEITDUD,,LBKZB,EM,26072
29-08-2000,KKAIGWRWS,XJLEJKVRU,62830NANBXNIZTMRO,,PZABW,SC,82363
05-04-1967,ZXPLQHQSR,RHVERMVPK,91681ZHJBARSJRUJL,,WGPFL,OL,72920
24-12-1954,BFYVKHKXU,NVXIOGCQG,35120CHGLZTPSSHQM,,FPSCP,YK,69755
12-11-1950,LPSONTIBH,BDJVLWSQA,81198DAHWMGSJUTAW,,IDVTO,BU,49550
07-11-1979,BCCDKQSHK,GGYFAQUSZ,43206RGNBRYHFHKAG,,GUWML,YP,91177
13-01-1957,WDMHCWLDW,JRSCSYFDB,61931DQSVQPWKYKDM,,TGFGG,MS,17878
30-07-1988,CMWZXKFNV,HOXJMHWXL,16005CIBHMICPUSJG,,CRGGC,XH,68640
04-07-1994,EVWOUAGIU,ICYFUXCJR,97621OOTYWGOVIQWG,,GZSND,ZH,52940
07-02-1977,TMVXPOZRI,BYRRJBCUE,41387OULJYBANBYRQ,,WUTAO,HO,02357
10-01-2004,KLTKQVLTU,IBSHKJOJI,99606HFTGWCVWLKDF,,NIRUG,SR,32923
25-07-1968,LSPZUHIJF,PVNXAJLPK,46903XMIKIKWUVXGL,,MSCYA,SP,86065
03-09-1981,AFKUINWJE,OBFRHTDAK,85365ZARMZOXSBRKB,,XOANY,CF,95529
26-09-1954,DZPCUADSF,TMHWEVXYB,69800KYVZGUTWCGYD,,GUFUK,YQ,09421
31-10-1960,VMKMRHMOF,AEMUEMTWP,77549IMRLJBEPVWML,,QVKSG,NP,96389
22-11-1958,RAIVEERUH,WPDMMKAOM,35452EYONJYYVAXSW,,KDSWG,PA,88350
14-10-1988,DYULEDRZD,TPQYKRAFQ,69051FJVHVBHAREYC,,UIWTV,YS,49595
23-07-1994,IHDICHBDK,SNZIRMHPU,53744EMBJHKTZWWOF,,QCQRU,NC,78021
11-04-1970,XRYUXJSEI,SKDIQEXXM,17073PFBWAFMYQANJ,,MCAKY,KL,99948
30-12-1979,RYSCXAXOW,DYERDSRXG,43719OGMGPIPODVCP,,GHHGG,FB,28032
24-07-1980,MVFXKMAZZ,UQGYICURW,44328KIPRFIWZRXKY,,KYFXZ,QF,36165
26-11-2018,OXRNRUPLY,ZIMGGSZYD,81099GKCXYFJCGCUF,,QTENW,WZ,96432
23-09-2015,UVAOTQHGH,VUVZLMSQK,57873QQPIRCVYJPTQ,,JPPOC,OR,41031
17-12-1964,CPURNETDN,QGINSDIPK,89298IZEMLUPHGTUG,,SQZAW,QR,52755
06-02-1991,OBBBUIIAE,WOSYRVJLI,00197HZZORADEIHQE,,EZDGQ,LH,13788
01-11-1968,PXHCOJNER,HGGMDLHBP,02259AZMSVOMYGVAH,,GSCKA,UN,54895
03-10-1962,XJSPVKIZO,YAWZNYNNG,52760YBREQEYGLLRW,,FLBBD,HS,15936
03-02-2014,GNGIALPKS,ZYCRXHQJI,53959BAHYIJEDBEKQ,,QWJIY,UM,72533
10-03-1971,GASVKUATN,OJYTZVMPT,35289SBPYDOGYKWRJ,,MNJAH,XZ,12701
16-08-1992,ELXUSXPGL,EOZNDMJNG,71522NPDXUSAWBHJG,,KCUDE,VM,02189
16-09-2017,AFUFUDPLY,XJWCFLOEE,96706RELUBDOFAIRD,,YVRLZ,HH,73510
29-07-1988,VXXTRCOPI,PMWWDDRBO,05974NAEKARPHXDNB,,TNWXC,ZC,91543
23-01-1961,VYFAVQTKI,ELSZABVDP,10754XJTCMFFLWIYH,,QHJUI,AY,22009
01-12-1956,LWAFORPUU,MNFXFPXUX,24133FMKGIZWVWDXY,,NVYQW,GF,13409
28-01-1986,PPMQXMHLG,ZEFVULVEA,30633BMPPJJPMJKUK,,YXBZW,RF,62921
11-09-1970,TLGSYOONW,RUUXGWCXY,42096MORPWXXQETYC,,JIHTY,CH,92782
08-11-2010,GXWUPRPMA,KMANBTUDZ,75489FPDLJLGMYVNX,,NJQBZ,PK,42268
24-09-2010,MOBRSGOSH,NBDMQPGMZ,51026CNQZJCPGVUZY,,DZBUH,RC,58114
27-05-2019,QJPUBPWVV,JVRRUKRGG,04860DEIBFLKPHXZS,,SJSQW,FU,19092
04-03-1998,JWMJWLKCM,LZXNWHDCK,18101ZHHQRTAONFFT,,SSRHY,AD,18545
29-09-2009,NYWZYPRBV,HVJGQKOUS,06552XICPDBKHZBRH,,RGPJW,QY,27055
04-09-1980,VXZDWAECA,EFRBCYLUR,77561RWHCJRTYESMS,,JSBYD,ZN,05600
30-05-1961,KCJSLRIPX,CBHDYNYYB,46320KOUGPFGJTWJJ,,CWYQR,JJ,91448
07-04-2021,ZKQPUSRXU,SUHZWZNHR,56237FQUXJTAOVASM,,AINQK,HT,60052
24-08-1968,QLXPXKIPX,ALVWEOROV,65540GXEVWTBAGLDS,,SWFOW,SA,20807
08-08-2011,KGNFRXNEW,RPCDWODTI,44130SJYDUNXYOAKD,,YGSRI,IC,33266
20-05-2016,TYFZIHIUD,XGGFPOFFX,35073ZIPXMKJXXDQS,,TWEYQ,EB,88407
28-02-1983,LHXAQLRQJ,TEJVCLIAU,41884FODAKFYOUVGA,,AEMYE,KM,60631
12-10-1956,DWKGYHROM,QYAOZNNVG,75140TEXKEJRNXEIN,,AMRLP,CH,30523
01-01-1960,ZWUGOPFOV,MKABFQFTE,86152SCSTMOLKJWVC,,BTGCL,HT,73478
11-08-1960,AMFFSQRGJ,LDORCWOZQ,46399IQRJPICCJUKE,,ZGJKZ,LY,81931
08-06-1982,YYYLEALDZ,OELWUESBX,31793HDCSESYAPNVO,,OVJOY,CE,17823
15-04-1959,TJCHPUPGU,XUDHDHOPU,53752NDTUXDPVECEX,,HTDKW,XM,35044
20-09-2005,BWSGTDWHE,LJDEJTZYE,03535EQAVZSEJQGTN,,XJCYN,DN,58456
10-09-2013,LQNMPHMEE,EIWAKNNPU,76216XRLSNKZYTZKQ,,ZTUGH,AE,02747
09-01-1956,RBDDGFBMQ,RLRYUSIVG,37079VZLKVUENJSZC,,FBFBD,NN,68895
12-03-1960,ZHROUGYZA,POFHYZBVS,96013CYCOYJJARBQX,,LGETQ,PN,35588
05-03-1952,JZWAHXLFQ,IQBXTARLJ,50351VZIZSUPBWGUT,,CSORI,WA,49250
20-10-1977,IUCFFMLUF,OPUKELIKB,81019YNVPRDAYIZQS,,TTZYT,OT,98622
10-12-1984,BIHNGIRUB,IHRCDGEJE,45262LOVXDDBHRUHB,,IBHJZ,LW,59832
25-03-2008,NPBCPHSCI,RJWMDFSLL,36878KQJYDYSZVSKD,,SQBIT,IM,03868
17-07-1964,RYKGCLNAY,CASMBNRMP,55937ABGCDULLZEBY,,SBMYQ,DX,93709
04-12-2005,MGBJGWRQA,SDJHUCSDE,01682SCCFMVEVVSFJ,,WQUCG,SV,26759
31-12-1951,HPVZHOCZB,ZIMBGFTYG,77561QMADKUEYELKH,,HEQFK,DZ,87900
01-03-2014,XQWWQJXCN,HMVETMJEI,35976MZMXRIGEHXBL,,NNCHP,MS,82477
30-03-1984,GIDWFLLHX,XENGTGHFF,82988AWAMVBMXRLOY,,LBDEG,NW,04451
22-10-2017,QEPISGRJE,EWFDSXBUX,10856NAXOOCXZZCKX,,DPLSP,NU,98282
22-01-2017,QDDONLMEJ,HCFYXOHXU,67949WMZUVTERDAQL,,CCCPS,SH,99062
22-12-1999,PRWGRVGGR,FTLTOBUWS,64485QDFMPAGFQGUR,,COTTL,ZM,29512
19-03-1963,ODBQPVDTD,XOEBUJYVM,76739VDHGVINAPQSA,,OQVOJ,MK,85860
28-01-1969,BXJCCHLDX,VWQOUAOXB,72860ZZHYONRMURNL,,HITRV,RP,32006
14-12-1963,LLZKETUTM,WRTSXPXCZ,09744GCRBLRSBYISM,,GXPTK,EM,91724
11-07-2019,GASBICDYR,ASTUGHUMU,75379VEEMVHQMJMNJ,,BCZHA,KK,22909
16-02-1950,WVGLGAJAT,IVVQCLPRM,91299ZRUNZGWHQPUF,,KPOPY,JO,79015
05-12-1971,WEJETIDII,WIFEEXUQU,40589USXIZOVDWBIT,,QCWEV,XH,94982
29-03-1969,CNNDBOYYI,WSOWPHEGH,00579TOOYGOWQKIDQ,,WRLWO,CV,55670
11-03-1958,EUTMSYSWS,BCQWYAIMF,39154OKHNNSDETJKR,,JRIKT,JD,61876
26-03-2011,GPXYEKQTV,AFWQHJJCC,69210XSJRRGTLVIBL,,GIUPA,LT,39859
11-10-2015,QZXSVAYTB,JWXOSXEVG,28161ARPXTTSNBYDT,,VEORD,FW,64085
17-02-2005,BXVEZCZNF,GUYTAHZYD,42882UQKITRPPQYRR,,FYDGM,BI,91047
29-03-1953,ZMRWJSFLN,DOZZPYAWE,48047SLZFGIKBDPBO,,DNVIC,SY,25789
09-06-1993,MWJLLSLCH,FYZBAULII,99883OURSANFRGLYC,,ZKATO,ZR,20170
11-09-2016,ZIVQZXZMM,EXKVWWWVL,53872FSVUKXIMXQTG,,LGQKG,FM,55651
30-11-1994,LVUWQVBXP,GOGWOOJVM,47103YNAGIIBAQSWX,,PPSMF,SL,45935
11-02-2003,DHAGUNPRG,VURYZNIJC,65348OOAMMFPRRHZY,,GEYYP,JV,38885
27-07-1974,NKOFVXDCJ,RVVPOPCRJ,14896FXZIKPXHMXBZ,,UUENV,SC,18338
09-09-1983,HFCMPIXEY,HQVOWRHVD,69220SLOZNGPGFYOP,,YZWBU,EV,28268
05-02-2014,GKRCHYSEJ,YBOOQIGQQ,95152TLDFOQDXOHRN,,BDVIV,DC,93698
06-04-2018,JBYANFJYL,XLRJLCIGL,20423FIHSJUNATGZF,,BONSM,QB,97804
20-03-1956,SGNHVLZIL,QBPNFBKZN,56624VJKCVOFEPJCE,,OGEEX,RK,92835
13-07-1958,GXVPKXBER,KTQURKHGC,31218QBKTBQCZCLUI,,FSCWC,AU,45105
03-12-1974,LDYMBLLMP,CUELIHBOV,71366GNQCPQACNGSC,,YDEQJ,HM,67657
12-09-1968,IDJSRHNGC,CFJRJEOSB,30357TFTSHAXHNFXA,,GGSYB,BI,82866
31-05-1951,MJRYAPYGU,VBGUBCUYP,63226MWFKUENZAVYZ,,ILDDW,OX,72030
16-12-2004,DTKSJIIKD,QIBQLPIFL,87641TUDXMQXUFWLE,,ZSJQK,ER,16372
28-11-2007,VCFIXEOKG,COIRVWYIY,59158FYAXQSZVVUTO,,NDHEM,JC,25747
01-08-2005,PXGJVVHMK,BOSWQWZAK,94755XBKHNHAIKHOY,,TLYDE,SJ,57422
04-06-1952,NFOMBJLCT,TWUVEMWKR,15795DSWBDJXTMJQE,,ZBWCV,QF,79417
07-09-1995,DSDJRQZWD,XJGCPOUTJ,43177FPCGVPKKILGQ,,UYQPS,JL,03140
26-01-1953,VAENFDATU,IAFQEEXLB,36808PUQFSIYCGTSZ,,SWMQQ,LH,70067
21-03-2021,KYKFUWLEX,GZVGSUPVX,59869ERIFRGIBMUDZ,,BVAXA,YB,48918
25-09-1996,GXJYPLLZX,VRFBPTIKG,91427BYEFHJHQOARC,,UNMPN,DA,10543
06-12-2005,OMTLHKZSV,JUKPQIVNS,37495AWCWQVUHEVTX,,MHEER,GA,57800
10-12-1985,SKUXSBMSY,KITILDINA,80493LLDGDYNZKANM,,EXDBQ,RF,77735
16-10-1967,XFMUVYKVY,TCDIEVDGT,20158SMYOMRXKDVCO,,CQFPD,DH,65102
04-12-1970,KSRHLUZJT,VXBSILEUH,55183OTBCQAVDXKOK,,UCQFT,RG,95727
09-04-1963,KRCCUVZZQ,NHDSRLMLW,50509IDPVYROLDVSC,,LDHMT,TI,76356
25-11-2005,OWURPJBOZ,MBTJOKUKP,89711FAGMCPRIAFBC,,UARGG,SG,39670
08-04-1966,CIYTMMXLQ,PFANKMBCF,17640AWQIDIAVVXNV,,VZDXM,PG,25297
14-08-1996,CTKVVPDRF,WLRXNLBTV,75253OZDMODSBJNFI,,WPPVA,DS,49752
13-11-1962,XVMVYXJNN,EHEALQPDC,57374RTTQLSGBBFJB,,BWLLB,GP,45680
08-12-1989,GVENGBCNL,BLMGEWHSM,03218VMKZPNYOGKZT,,DPAQG,QD,68334
02-09-1977,RDXUCXQPF,VSNHSWERH,67279AOUXCMSALTCA,,RTPZI,XW,30544
22-01-2016,XQJVBATKK,ZBDXLEJGV,17587ZRRPKVMARREX,,LXOYH,EM,63566
13-06-2003,QKQJUGMIV,VPUDXACMF,79607KZWSMZYUOIUY,,DBQZU,SS,02561
29-04-1995,ZAWICCLOG,VPKMSOUHS,60921GIHYYPPIPLCB,,LVVCL,TL,99685
19-01-1973,ROHKLYRPR,QRFXSXJPZ,86096ACYTCQYEZPJI,,LZZGU,TP,14240
03-11-1962,BFXKIOINZ,NDPQUFKUQ,18088XGXNXIFGQYYU,,JHOFA,DP,07258
14-11-2003,HQLRJIUKZ,ZIIPHBAFD,47103UVYIYZJOEAUE,,OYVZW,PN,81479
16-11-1955,TWJTIMVYO,LPNUSRARF,90659ZAFKWWTAFLXV,,FODWT,QT,22315
09-03-2002,MBQOYGAMY,GVQYKVYSX,38771RKJXUZLBAFRJ,,IICUM,XS,37950
15-08-1952,YWMUVQGFM,IAIIHFYHB,69823DLELEURWLGEY,,IIQCU,CO,58400
06-02-2014,ALWLCJTDC,YPGMRNBID,76104IXBGHADSBMTK,,RDGJQ,VF,39025
08-04-1985,KUDGOOSCW,BNUSZZUNV,16861STDBTADOWGCP,,FMQQF,GI,68501
27-01-2021,HMLYDNEEE,LLOGMJHJI,62839EFGEYUXRQHJG,,KPBXU,AW,56228
11-02-2007,MEQOENWXB,MVGVDYOEM,74431VEKVSNETVKXY,,TEUUI,TE,06945
03-02-2012,KSSAOXQEE,STJBZWQIE,90029OVAJNXAKPNBI,,FOHZX,FK,00957
25-10-2016,WAGCXOKPV,ZZKGFLRJO,19555DFIBXDWSZCKL,,QDRAO,VU,20985
02-11-1986,DMPFQTGBE,HUOBSMXYT,48533UTTRQXGXDJWP,,TXBYO,GY,18548
15-05-1992,VDQGHGWSK,BPDMIGHXT,64199GYFUDJMEZRNR,,MIQWY,XU,36756
07-11-1997,PXHPQCWFY,VBWQRYPYX,25030HEQNPNCICQRD,,TPECN,AG,29823
06-07-1970,CCBPQKLGU,LUPSSQXEU,41889AHUAICWCVXXR,,TQYUS,PK,15216
19-08-1988,QEWTWNFYW,KCGENVXPG,20131BNDZISPFXITX,,XVWIY,OM,94342
10-04-1975,SLSILSCKH,UUIZVXRBW,60092RJQCYBKQREAF,,WWPRL,WO,88390
19-07-2003,OGCRJRZOS,STOWASOOJ,65326RMWRZZUFMEZG,,COBFR,QB,84758
15-10-1991,UDOKGCXST,GCAUIAXPR,47549LOIYNVSJKXGC,,ZYXJR,UH,07639
31-01-2007,KSNGDBECX,WLFGJVYSJ,67943KRSJGNBSTCZC,,FWBDN,DX,11946
10-09-1956,OVXGWKERS,VMRSFHIDW,14256GOOGKULFMPJI,,DAIQW,KA,30736
15-11-2015,QXFRNQGDJ,RWXEIHEMG,22816BDKEVNZPWACU,,JXVQZ,GM,50828
10-10-2003,EZQJPXJAU,VREENCIPB,56952YELGURVVQVZD,,TRNBN,GM,52920
26-07-2002,KTGHEISAP,NLQEEQSKZ,25541URLTSUPNEXYR,,WFOMF,AR,27418
25-04-2002,CXHCBCMVY,GJXQPMNBV,24599XZSLVRBSYSIJ,,HJODI,CA,39548
02-03-1977,VYTAZRWTX,NSPOJTYQB,85353IMUEGZZXBLJB,,DJNED,EZ,15704
22-10-2000,AWDBGNVZW,GINKKENLW,72200BSRGKAURPTCN,,ZMQSC,EZ,80979
03-03-1983,SQIILHXOI,SRVDGDEIC,35410DXXYGQRRVUPF,,FBVHL,JQ,15135
25-07-2015,KXPUETSNH,QTMJNQPUL,27750CXLGHVZRXYMG,,RTIYR,KC,77664
27-07-1950,MRXDPEGDA,YFGHTGRDC,77527INPUQMUFXCQU,,JYUWB,GQ,03161
30-07-2004,DTLSHVQFI,SEARZJWHB,68126CWLWLHPYRAVL,,SZRLZ,DS,45633
03-09-1990,UJPLJTIHY,MFRYTOYSS,28990OQGANXXJMVMQ,,FEMWO,BM,86807
23-11-2014,OKJGHUFCI,ASNUOHVYA,48102WPXKQKJRLYSP,,LZOXC,YX,15556
31-12-1991,UGLRFBYLO,WDLSVRYOO,98632LWHJIJEQZHGL,,FGONS,XS,53304
13-05-1951,NHNWQFXFU,PRAVEDCUV,42337FBFDZSREWGXS,,OQQAW,YC,75383
08-08-1984,BTYGUWQDB,RNHLUGDIB,80093TTRTQVMZLADY,,HCELS,PK,04543
12-06-2016,YQYZLLZYI,PLFYHLRTD,82586YZPKXPAMNLRS,,JILHY,IA,61717
13-03-1994,DRMSBNJZC,CAYTZNSKU,76731WQHIJDMSETPD,,DPKJF,CT,16177
15-11-2003,DLAHHZTIH,MSMSVNPCX,88071AKIPIACAYWKY,,WZFOM,BJ,56796
28-01-1972,KLIHFLDCN,KMWYREWYC,65973PDFZBUEWKMZL,,PAIXB,XD,96859
01-07-1962,NJCSXHLLM,AFSYJZEXS,43086ANDXPCUAEOCB,,SQVZG,JO,64066
29-12-1974,XLNPCFWZD,XGYDXBKLV,00211NEKSYSBOCVQW,,XHQCB,CA,65064
22-05-1998,ZEBVEZGXU,MSSFTJOLI,64406PHIMSGIQETHQ,,VJSVU,CB,99731
17-06-2011,NHWYGJYCR,ZTCAAWBHO,38868WZURODTLEBAJ,,PQARZ,YW,78352
20-07-2016,SBNTJCQAT,MIHCOZRAP,89307NWOMABEDAPSM,,SOUEO,HJ,20247
20-03-1982,LIOZWSYOT,ZFPDJGCIC,09960BSRWOPSWOEPZ,,JDUJM,EI,07379
05-09-2007,MAEILUEUU,HCLQDRDUB,98352WWERSZITELNK,,ROSFK,LK,85127
28-09-2010,HOWOHWISM,QCSQDLHJI,57308PYBCHLCNKATZ,,ABNWV,RV,24516
24-01-1951,HMSTONGFY,JOCTSXOFA,90413MQPKFZUQRFUL,,YLCXG,PU,85873
06-03-1974,ZYZRGYIDF,TTZDOZDSF,33974ASZDMXMMOEYR,,ZDXJR,QF,51987
23-08-2011,RZWEEMVUL,HCIMUDUQR,81364CCPDKPXAMQNL,,SVXMO,DY,65531
04-04-2018,IKZMLBVDM,OTNMTTJHO,29216CVQZVPECWIOX,,ZHJJJ,GS,43032
02-09-1963,ENLOMEKJK,OGAPGZYZU,18186KPNYMEMNAKYG,,XORZZ,LM,69754
19-07-1967,DFTFQMGKU,HXUNQNVGP,09060LZGKTSNVJGJS,,JVXOL,EU,70555
12-02-2021,LILVDNFRF,RWIGUVTAP,79038CTXEOVGYCOBR,,OFDSV,EK,49045
31-10-1966,GYMZYIAFX,TJQVOQJJK,70480VGSPZTOFVFOG,,MZASQ,KW,12301
25-03-1970,CULTXACQU,EOOIZBUFL,34460UBBRMONKVPZC,,INUYS,ZW,30271
20-10-2015,QZBVUEYGS,KXBOOUBAA,12785KSCDPTTSKPGH,,DYMVN,MF,93869
22-09-1996,KUEXWFEVX,IRZMKHILP,53759NLYAPEUKRGGH,,JBJST,OD,20582
02-05-2007,YGWRSOQWF,NEIBKKRSK,05328MWYEFJDXLIAJ,,YSJIT,TK,11558
29-06-2006,HFWWBCMUR,PDHIZTOHQ,81295BSHFHAKWRZUP,,NDZNN,CR,04514
13-05-2002,PNYEYUVEI,PYLJLHRBX,85077PQJVGGAAJOBL,,MCSJA,KL,81647
05-01-2006,JWZXOMQKZ,TCDDOUYLF,60724ZYEJRZSBHVES,,WBUZK,SW,43593
07-08-1953,NWJVRUKPR,USKIITAXR,42138SEPIHINRRAHW,,YEJSH,EK,91977
17-11-2018,LDCAUUFSL,YSSHFVTBI,03635NKOBYEODXHFB,,DTLQY,RJ,64420
04-02-1957,XLSGRZUOM,BFINJEUKY,24587HCCXGTUUOPFL,,WRJUN,RP,30452
15-03-1956,UNJUFTYIE,RUKDLCGLU,81458MBWHXURGSTQN,,FOFBV,GU,02601
24-06-1966,PPHNYJNGD,NADDVUBCL,02273IONHAYSFQUZP,,XYXTN,CF,14632
25-09-2016,YTTFLWZVI,LWJDSAALK,74056RLYSPRXZLDDD,,ZUQVC,EE,29107
29-10-1977,KXXCBCNHC,UCRVZGILK,20079JLSOEHMWZTRN,,FAGAL,QD,72581
02-10-1970,JBTKKSOHY,PTBFHFHIS,04678GSOTVZKKOQSF,,NEBQP,GZ,51306
29-10-2002,VSTDZRHWP,KSCRUXKZI,43063LPOKPSSENPWG,,RWHBM,SU,65888
24-04-1975,XBAZVMRGK,UFYMZAMTC,78310TVXYSOFKBXYY,,QYOBG,YV,71622
20-02-1950,IYTHLZGHX,UJAZQBQZP,38194FXVWNHKGBNEG,,NTVVI,TU,43710
16-03-1983,YOEOPINSB,SKKHMQDWU,09255QOMWRMRCTRIR,,RLILL,IZ,81898
11-03-2005,WBNFSUZBC,UKOLIAYYW,84131BOLKVWKVKSSD,,SAULX,US,11704
18-05-2004,DAGFSJTNI,XWFONXOPV,55644EUXSLBJLDHFF,,QLIQP,CB,96208
26-06-1981,DXHZQJHFK,VLDNAWVPD,45204JNGVUHWVXIJR,,FFTXM,SQ,62434
10-11-2010,HRIHBSVTK,YPTVBPXNW,56720MAECOIDJCGLV,,DNINT,ZF,06085
02-02-2006,CILBKMRME,HOYYFHWFZ,96081YQJWBYKAEEMN,,BZGBM,RL,84069
02-03-2018,CPDAUSUQL,TUTRGYOGW,60093BPPIRQHMSQIH,,BVHXD,FG,10534
13-02-1951,WTHCQBYZK,BJHFOSUIY,22366VUFANEMDTCKJ,,YYTLJ,HD,06003
10-06-2000,LWFJLAKCK,KZDMEYFFW,42043OWKYEJGQCHZC,,RLUFR,GX,36453
08-09-2003,EYXDOFGUM,HCQBEILZQ,63764AECVGAVFWLZR,,IOLHJ,ZC,50424
31-03-1996,VGLXXJWKZ,GXMBPIGUV,95501NXNGGTIGFNBA,,EZMQL,DF,29568
09-09-2007,DKICIZVRP,AXIHMKLNF,90174OBEMILVJFZIS,,NWIKY,GP,98092
19-07-1962,SZYEYJCIW,ERUWARWFM,16537RVBZTQROFISQ,,ZQQQO,OQ,07189
13-10-2002,HEIHGHXTY,HIUEYDYSU,66205GJAHSRRMGOTQ,,RXWUL,QA,13653
29-12-2016,RBPNNWCNY,IGHQATHUO,76468ZKYUDTQCEVGF,,HPQIB,FJ,25398
12-06-2004,CVPEJXSVX,BBJVWSSFD,70805IXMPOCWCFGGC,,GPXPJ,CS,57473
16-03-1973,ZPJVNHYNV,SBMQFGGTL,07934TGFFVIHGSQGQ,,GIOTH,WT,57930
06-01-1965,SZAQVCURX,TWLEPDLSD,15852BHNSXGGTVYHI,,VIEZE,XO,35316
11-04-1960,GQEIDJKXT,DQCAFPYMA,75897PPOOWJSYWNRL,,QKTFV,AG,68408
19-09-1955,BRTKJNFZL,TZGZORWLO,63289NMIOHLMNLJMI,,NMERF,VT,35114
02-05-1970,HYYGOFPOY,OWMORNVYH,13987ZHUNIDWXJTPO,,EHKOT,HX,37225
16-04-1980,PTQLKKHHC,XSBVPWJCO,29094KFYDMIYPHBYX,,CKAHI,QY,92381
16-12-2013,IOWWTNDEO,WRBHJBBBU,75557HTVYHBGUZFKL,,ESVDK,SJ,05807
29-09-2019,OMTUJIMKR,EDHPCNTEL,11202DXTIBGQPAKGG,,EGONX,LA,15778
25-12-2018,LBKBAZJSA,XYPNMATAQ,57272ZZYASZAXEIBA,,PVJMJ,QP,25193
26-11-1960,NJSNMKYPZ,BREJEVNKZ,46911TEPLYXKMIICX,,QTKEF,AO,75512
03-05-1976,DMRCFPXKM,MDONMJIAV,13168SFFYJESTHCRU,,GSHVF,ZS,71350
26-07-2008,YNTLHNNXL,RZDSNYJEZ,28191ODSDBZTQTRNP,,NTAUK,GD,86948
05-09-2017,QIFVNBPWL,CMDXXMJQT,03905SOWWYBCDGETF,,VTSEO,XW,36563
10-05-1964,ZQRFZOVWZ,CZQFMBBOL,08163LPJZMNNPLZWS,,QUGIR,CL,16737
24-08-2006,ZANNOOKSJ,EKRPSYAPI,74526COHLFKHUIDFX,,YOAHS,RZ,04382
29-10-2017,OVPTUMPJN,WFXXYAZWY,05552TYPVAGMGPCQB,,UWNFN,XY,87432
16-01-1982,MRAEQTNNH,FYQLKWJPS,61709KWEPXYPFDSBC,,IXFMU,XF,81024
22-03-1954,LUVVOWGNG,UUCKHUHWD,97909ZVVXDKYEFWLT,,FUIWF,QZ,61025
23-05-1965,UMSLAGQTY,GZAJGURSB,69516MDPOZQDQJADT,,FTBEF,DE,70967
14-06-1951,QQVKEBJMB,XBMVGCMMY,07281RDCFXSYVHKQE,,ERUEX,CQ,50871
08-08-1961,YBWPRJKOD,FLIQHQNXX,70841LRBMNCZFGZGI,,QHTNQ,YJ,89402
31-01-2002,WSZBUGXKR,PWYVCBHFZ,64014XVMVSXCYGLXV,,SUFKS,OK,79744
29-01-1959,CBDTTHBVB,CTGTRRRQP,77304HWQZMLMSUNFP,,UPXON,UA,62224
27-11-2015,OMOOPXVSV,QBOOUPHEJ,30067VZXUYMRWEHEH,,VXIOI,SP,62872
22-05-2018,RMNAHTEIB,BYPYPWTLD,06395PDHQQJMEFVMX,,FIJOV,XH,05046
22-05-2001,FPYZIHVXU,SGTWXDYIO,08689YWIHHFIHMTDG,,HVWDB,KQ,02186
27-08-1965,IPTQMKAXJ,OICTVCOCG,15569AGJGVXWGRLIA,,QKHMG,DO,30424
09-10-1960,GIJGFYHGM,GKVHVTCRQ,61528VDNZWZKNFXUC,,IVVEM,RH,75059
27-06-1990,PDRJUQJLO,ZTHCDUQGA,55580XYLFBJXQTVNL,,XWMDD,TP,90199
14-02-1977,ASHTSWHLQ,QHPLDAKLO,15787DLKZRCHMMOGB,,UEGPC,GE,27150
27-07-1985,PZAXMSOLJ,JXDEPZEOD,86138HSQNIODITEWJ,,YUODP,US,15244
30-08-1979,JEDNQWPYB,DVZLGAEYI,58940SVIBVIKEBKIM,,TBHHN,IK,21273
26-05-1994,VQQQDUSOQ,ERAUKKVQU,95980XFRBOUWFJEKA,,JHXBD,TZ,22995
04-05-1980,HXPZCIMIH,SELDVKKLQ,18916MHTRYCZXZTJN,,PAKVL,QM,74864
31-07-1970,VULVAATPV,UGFNASHEZ,13761PLZMXUIUQCHC,,QTDZB,RS,62806
08-03-1968,SGNBUZPMR,MQNBUKXIO,38373METBGVMQJZCH,,GJZSH,FY,29031
24-11-1997,SZBZFAPCU,QAVYGBETA,60625UOGAQEGBSTRG,,KGMRG,LJ,66145
01-02-1966,FYNDHXFEZ,MYEVSELVK,12539CNKJAVQPDUAP,,KOYNL,WY,43299
30-11-1985,AVQBCIXKD,PVBYIOPGU,69640EEKGPSTHDKHS,,HWKLT,EC,82838
25-11-2008,AIEUDLWBM,GEMFOVZOL,79994ICAWOLMAAVJT,,RVVMN,OX,50392
28-03-2016,RTKMXBWQP,DKFVFZQBR,42580BPVMXPLXUWYA,,BBODV,CW,25722
30-11-1973,HKWCLWPDP,AYROTMMLW,27213DHENKNWYVTDU,,CQSHG,ID,58328
25-09-1975,EIDQSEIJT,YIXUHMDLH,22288SLKUTKXOIHGZ,,GJMIL,WN,23141
24-12-1986,TBEGQTCJU,PEJBRMWNB,73034SSLGYZRGDXQN,,WZKMH,AK,09982
14-04-1985,BQJXFUJNA,HAIWBQTZL,47918JBLLZSRIEAIG,,QRNVM,US,84472
05-04-2011,PMBVAMUFA,PISOVKYND,09963FZKNZDLEYOSY,,RDITM,AC,50547
27-12-1957,IPWOCSIBH,ICOWHKKYR,54538GFASFOCLZTKH,,FQBBY,EW,09692
03-06-2005,GTKZMIBFH,NJAWMKRUQ,66427XHTQRXDOEGIK,,NYNXD,PW,95753
19-02-1962,EPQDNSYQT,GDGQXAXZY,57949WRYSTZPUCKYI,,WZTGQ,WR,06255
03-07-1979,UULEXKMNA,IXINKLDPM,82957HFSILYWJGKJS,,VMRZQ,NL,62395
03-01-2013,XECRQZGDX,QYSFOXBXE,71667NDERNSFHVNAY,,NFYZW,DA,64695
08-08-1978,DNPUAQZVB,QQLIPDWHP,80018HCNVRHUUTDJD,,FQGXE,FW,41014
24-04-1997,RMQTYZIDA,JOXHQDZSR,59411HYAYSZWKFOWJ,,OQODR,IA,54060
17-07-2018,STENEVAES,PWOAYBGMC,93719FBPKMIXCPHVD,,HOECJ,LT,89634
25-06-1990,MOODDOZJR,FUURJZBCA,95702WMHFYLDJYMOT,,ZXBRH,DJ,95249
16-09-2006,AMOIKQYIH,MAEXMSXPF,21647VXSHJSSVVOLZ,,ZRIIR,YW,33686
04-06-2005,IHLQMBRWX,SJQPMNJZS,70557OWHUFIPJJCFM,,DCXMX,GD,08190
24-12-2009,LLYBHFERO,GVDSMBWDP,78960YXLOPIMOACZH,,EATRR,BM,43942
03-07-1966,HVMANSJJN,BSXGIWJPP,36609KVWRAXLGOSWF,,SXDRE,LB,13576
26-08-1989,BKNHFSROW,DZMRKZGRO,93763RFCEZRUPAPRZ,,TMXEC,RV,65685
17-01-2015,VHHLQUZYO,FPCBJCHDY,34068RGSXGIJBAARY,,LLSXF,LO,27405
16-09-1953,MCDQBECLZ,ANUSFLDMR,84719BWUKOQJVZXGH,,LRBZE,DR,24271
04-01-1963,GWWBXXXTS,VOQYGYOHR,60864HHAJOXOKZZGY,,KGVOC,II,22190
26-06-1967,NJVAFZERJ,KPBTKVHJR,52617RLSGTDOODZEJ,,DUXCC,VS,25750
18-08-1959,NETDGXOTJ,HMFXFCCEG,21093ZZZSFYDHEDSX,,TBLHX,CB,11594
16-11-2014,WDYJPBPAS,LNQZWQQSF,94447LZXCLYAXPSQU,,LCNLZ,YP,84245
26-08-1976,BWFQIGWZD,CBQVAKCIJ,74874JSRLUZGSBHEX,,ZRJBS,YM,71344
23-05-1977,LSOEEMVNF,PUPEZCMCU,99438HFGZHBOYTJKQ,,TNVPV,JW,65466
09-03-1997,MRSRQVHUN,KSRUCHVSY,91641IIOEBFEFUBZJ,,MFFAC,IA,91626
29-09-1996,JJYDCDQNO,KDHSAHXAE,79304WTSHOLCDQVVH,,GETKB,AF,94417
13-09-2005,FXQRPLTGE,PFTCGXVCI,34427VEWJEOBZVTYM,,FRGNC,DO,60075
25-04-1986,BYANICSZK,GQBHAJZQB,60387FQMDLUBLDFGO,,IVFOQ,AW,94318
25-06-1975,LXUBRKNXF,BPAMAOGHZ,87732QKXDVBBJDBMR,,PRQPN,SX,57418
02-03-2016,YLUTIMRAR,TIVVNSXXA,74088GMKZTEVBVACC,,ACGTE,CL,42392
18-04-2007,DOKTWQJIV,WIFUZWKYV,65492BICDXVCDCDPJ,,NBMWR,GP,38166
08-09-2016,UHVTCWGHB,BGEIPEXRE,81514XWEMIRVLZCJL,,OUQDY,VK,75797
24-05-1961,BYRRQPXOB,TEPTEEPFQ,69240FNOPTLQLPHVS,,FMPKX,HH,39709
03-03-1970,UVUCQWCSS,FWOQQGNVX,59183QPOGCKVDPZAI,,ECHGE,CC,12710
25-06-1975,VWCIBDYNT,YMGTHROCA,93728TEFUHYZWMHCG,,GRREG,WR,04704
24-04-1953,HSHIAWZSM,MKOEUBLOG,28069ZWFCXIOMKHXO,,TSIBU,NC,09196
03-07-1959,KRLMNHGNW,UPIHRKKNL,63358NVUKUNUNATIJ,,HOHRH,TZ,52193
19-01-1962,GUUHSBUBO,YOADODRKQ,82637QBYXBAYESWFR,,MMVMY,WV,92995
22-09-1972,ZCXAOCLSS,TEOIYQVWT,92283PQCZGWUNXYTQ,,VLMQK,ZD,65800
28-01-2002,RUZFZCHUO,HARZAZEQE,75580XAOCJXRSLZDC,,YXUIC,PU,61142
01-10-1995,QLLGLLTOA,CKFFRRDMW,82433KSNUVAHHBBHL,,SVLSU,KN,39367
09-06-1971,OIMNSMTKT,CFNINZUJO,19507FDGNLLLWWHGW,,PJALZ,MH,02217
02-07-1988,VMONYEXZX,JTMYOSETJ,86919JOVFMUXXNZEQ,,FNBFV,XE,38109
19-06-1953,WBRVQMOMO,UIPTSHGDS,70345XMCLXYUBQUJY,,NSVNZ,DK,63910
04-09-1961,QMJVKQBMM,AGMDWCFTT,89946GHQDOAOGTXNX,,FLXOB,MN,21032
02-05-1958,NPQEECMVI,NJLBMFYNC,64277QEDTNZKODDOX,,HSEMJ,VI,06948
15-08-2009,PWAPHMLBM,XWSZNDCGN,75483MPCROAPLEPZB,,XHIPK,FC,37614
02-04-1964,CRYKTEVXT,CMCOINYAW,61138FPERAFPWSWHN,,DOFUS,XE,04452
31-01-1954,SKIVUMXZH,DMBTFCDSJ,64952BHGJESYPAAFJ,,HFZFP,AC,95062
19-01-2018,KSXJJZKKJ,AWVIOOITR,30554UAWOZUCXISDY,,RGPHA,JZ,81626
22-01-1964,ZBZMZXDHB,USXOUEFRZ,11073GDABZSVEWWGX,,VNNSP,GN,40486
09-12-2006,QXYBCXCHL,IXDSPIUXW,01531XZOKJXXNIDXY,,KDITD,LX,26003
25-01-2016,CBKQRIYRX,SGAEBOAFB,43297DQWVHPTSDHLE,,DASON,FB,20884
28-09-1953,MNHRFITJM,TVHWZFEIJ,94900SPWYKVYHBFRW,,TRNHQ,VQ,90168
02-12-1953,DUZUHVHBN,KVZPVHJNO,13292OXHCEQLSVHXH,,CTDSC,DI,38554
27-12-1958,PNFEWGKYW,NXEMFJMXR,40220HXSOCSPFUNSQ,,CQQKQ,MI,14002
20-06-1963,KIKYGEQDN,SCSCPVDUF,29830EIBQHYRDCRJV,,NCNWC,YC,18472
09-04-2004,QOHVLFWXE,ZNJZGHCGN,65910CLELFSKHEFWY,,XNGOE,DG,39856
22-12-1952,OFXKVVWDC,EJWKPILSA,12912SVCNMZNIBCOV,,LGVML,FY,53338
09-07-1953,WZJZQTOGK,UDPXTLEJD,37329BSJISJPNIVWL,,DVVIH,TO,19699
28-05-1981,JIOKXDKIR,NCUSXELPL,76151SPQIIKMQUXEI,,UNBPL,RS,46550
28-02-1975,NQOMMCCKT,LRXWPZCTV,52179QMPAWWJOFPFV,,HQCMR,EO,42520
20-04-2018,DZTDLYDCK,ECCOIHRTV,49449TWVJLMPQTYPR,,UZHJO,CE,40270
14-10-2002,LYNASDPYW,BZURPBBPR,38936LYNTQYMULAJF,,GRUJY,AA,23919
24-10-1979,AZLNYPSZC,UFJRCAXTN,82884YNDNPDQQHFRK,,QGZCG,SX,44889
17-01-1984,MFCJSXQLE,MYQRZAHDB,05559MERFMYHJGMME,,TOGTM,QK,05282
03-06-2020,XHJJEOLJE,KQTIWZVPY,50262CXZRWBLETEIL,,FKCWL,TP,32370
20-09-2003,WYBURQWVB,LOEMHMKIZ,97916WOSQOISBGAEL,,THYHE,OE,96935
19-02-2014,BRWOOCQMR,IXEGJCJWQ,88643YWGPLLPSMYJW,,QTAHN,AI,39820
25-02-1953,NFUTSWFIC,IFIWVVPWQ,17688DIEVWGGOFAYN,,ZQQGP,ZQ,87608
14-09-1972,EIUGWNIQN,CYNAUURJK,67915NSNQLXPYZORA,,FANZJ,JF,13665
29-03-2008,FURKMISBA,ULHDFSBPN,63158PPEDAHGNSDWY,,KXDII,FW,22914
28-11-2006,IRHZVTBPB,IKTRKOVIV,95897PQNBJHORJVGI,,GFVRZ,BN,95664
24-03-1972,JIACFAJLX,SSASJYSGT,62790ZCYGNNEZRICB,,OHPGC,IT,18111
16-02-1983,DSCURPUVL,HOVUUEYXK,86565AEXKPFQBIVBR,,LSBXA,JK,71013
10-09-2015,RENDEOZSC,UUEZZDIQY,04002YRHIUGUXHFOG,,ZTAGS,YL,83417
25-02-1956,ETBCDLBOJ,JCPYRLYZP,01343BDFVGHRIGZHF,,VOGCJ,NK,42535
28-07-1993,PLZTTIJBL,BQPSIMWSL,65497PKOWHWUQTIPL,,GMABN,AD,75831
28-12-1974,UDMHAGJRX,WNFXBBNJG,28760SQFHJHYDDREQ,,INRFL,NJ,44815
13-01-2021,KOGVAVHUD,RVVPRBQAB,11836LCBYDSMTYGCA,,RXEIW,WQ,41878
24-04-2003,WBJQVXZKT,CFAFHHPYB,83660OXKQJVIHOPDB,,AYCQR,FM,64544
06-08-1981,JGGVAXSMS,BHJTFBMRM,01439VDBTGSASLQXR,,CZLAN,WH,74927
09-04-2004,ZOUJEYFHB,ZMDIPPRWN,66025XBNSRJTBWTQP,,DDQHQ,AM,78189
25-01-1976,XSRHUMHUI,RNAWFTQDR,94998RJEVINMNKIPH,,HTCTK,PA,68515
21-03-1958,EMDNXZQSU,RSTTZBMLP,22588QJHMXKIPHIIB,,HOFND,SN,15323
27-09-2015,ILPNADEZY,BTQLFHLRB,06432HFOGYJXVVEWB,,SXMOX,HG,27798
30-07-1954,VQPUHINBJ,ZWBXCBVPS,91718MEIMXDNNSGFV,,NOJFU,SU,81423
22-06-1985,JLNMYJTTI,BONXTMCHK,23870OBCXRHYYSCJT,,QEOOZ,HC,65440
27-04-2001,NFACENSXS,KPPKGVPNN,71949KRGFPTRADWUQ,,JZDTX,WP,80487
09-10-2018,MGGMCIIZO,PXDNRFUBI,62240UOBHZZZOIOII,,XDLLO,OI,92242
09-11-2011,KQUSOSEPX,MSTGNACJM,71507CHMDLWHQAEKU,,KOALR,YV,85030
10-01-1989,ZEHSSJUDK,ZYNRMILRM,79295XBVTMMLTVTUI,,LDWRC,KJ,22695
24-11-1957,TTILUJRKI,BAFQERRUR,17978UJUENEDAXSJO,,HMRAD,EN,85768
02-08-2011,BWWGHQPJT,HIJZMBPDV,47129UCNTZMQMWVTN,,HCWSR,BB,84124
18-08-2014,AQJYIVZKI,CSDIKWQKT,01439PCOICPHNKAFG,,XSRWP,JW,79000
07-07-1975,TAFZTNAPA,NKQMXXSPH,98224NHWVDKYVLKRE,,KTEDG,HL,20580
14-10-1986,VQIBDODIC,VVYCVNZWT,25438DIYYQWAUZWTA,,RIGBO,WY,10927
06-11-1979,TDBLYXWUK,SJZTPEIUI,15942GUPJPXEBMFVI,,JQZFP,HL,69862
19-03-1971,HKDVZMYCZ,QOVGQVSXB,54351TXQEZDKXMAPF,,BUIXI,ZI,74180
24-05-1992,JMKBBTWWS,PXFKJRSKJ,28873ATXHYYUEJNGN,,GGXMK,JU,42035
06-02-1958,ZKUIBXKBO,OWOGECMKL,96877GVMIFXMKLKKZ,,ORFHO,ZJ,41883
23-08-1958,CZVAKXPNQ,NPNYNCADG,96365DTCUDRFHFBNP,,EBTIZ,KN,14817
12-02-1971,KMRVHOKOM,NEKPMQBTB,14930QNHBZJXAZEUJ,,KBAET,AE,84222
06-06-1971,MSDRRESYJ,OFCEUSRMY,32711RDVRRTNAXCMZ,,FQSYI,MD,05788
25-04-1994,DNKISFWYQ,COIPENNJO,34750LZEGFGRCXMGH,,SGQFG,XZ,90820
06-08-1956,VOCWZAWNG,EUTDYWKRJ,22212SKPMGWHEFGKW,,KLEND,HG,36844
30-08-1992,ZBMQPVYOX,OZXEBSWOA,37885TPJTHVYWJJAP,,WBRTM,QY,49234
25-06-1993,SDEEBOFMP,OFFFFIPWC,77439ZSLCATOGBYCG,,CFKKD,YX,73009
03-09-1960,OWPLROOFG,ZGLHSTMFC,00047RFGDCQVEGXMW,,NHMLU,VK,71710
28-09-1986,MHYHSPQMP,EHOACLBLB,42816GTACEUZYTKJC,,ZGWLZ,KC,73709
12-12-1961,JFWHMCMXJ,WTQVUPWDO,23271FBNQHYAATSFA,,KYMVU,RS,18972
17-07-1961,RIMEMTANE,KXRNRNNTK,12537CLMYRHOXNYUA,,GFMPZ,ZE,80739
22-04-1961,NEAYEILQS,HKSKHOKQT,30464UZCTUCFKFTQQ,,PIAPS,CA,33787
04-01-2000,OYPJQWBJH,IRAJXNNLN,53934UDCPYNJTYQQM,,VOHOT,ZQ,32691
26-05-1999,ZSYWBQIHV,PPCBHUNSK,44668ZJELTLOUXIAH,,LRLKI,XO,29712
11-09-1987,ZTLIDVUHK,FOTCRMSZR,88903FSICUYASKMDH,,OXAUH,VY,08675
03-02-1959,CZCRUKXNC,KICYUPABO,56057QCUUOGASCGXN,,YKLTN,DR,77105
24-08-1992,KLPQBPEFJ,ZPKSPUFYZ,14649UCOWYSBVMMML,,OVVGD,BJ,10536
29-10-1995,HBONLFKPG,CAIJXEYSD,90255HTOZEVGFJQNI,,KIAFY,MW,49686
01-05-1954,KROEJAADC,XURHNELGH,70954UDXKGAUOCHHT,,AYMQN,PO,56534
05-09-1968,XFMQZVHCX,IXWZDTLSQ,39642NVOKEVEPAQJJ,,DYPLH,LJ,84516
21-03-1983,ETJMKMLYX,SUMXZBUSY,59350EDQMOPZUBDNI,,HLEDD,SC,62901
01-06-2015,SGYJKJAVT,EOOWCXXQZ,53275OQEAZKYSGYQD,,TJKZP,ZK,77035
04-10-1989,EVMROULNN,LUTLKXXBG,75083VHHPRUOXZORQ,,VTUUM,MK,39113
24-12-1998,ABDEJRQLN,MPGQMTXZH,18658LBDWWEBIFHRA,,ENBPV,GR,88892
22-11-1994,URZCSUYTF,WRAILMEDJ,51870NVHFMDEGUUSU,,GPNPJ,QI,01250
16-11-1986,ZRZTICZSJ,DCPZXHZSZ,78176DEAODNMXXTFP,,HEJLY,ND,43088
30-06-1990,FAMBVBPHT,NHZXAWHAD,67360WSWDKLDFXRXI,,HTFSY,TL,90978
11-02-2019,AJDKHTYSW,NLYUQBEZK,61391HSQLAYXRPFJB,,XJUNW,LD,50260
27-02-2013,EXZUOJBZD,TOVCLCQVB,40316IGPBZTKEJTHF,,EYOFB,GD,31219
19-05-1967,UHAPMEWRX,OWKITWQAA,55868KJBKZQETIRRK,,QIMXI,NR,99833
23-01-1955,AGUAIKJXH,MWMNLPLNK,54072QLFVCUNJLZHL,,QDXUZ,UJ,04088
04-08-1950,DTYEAALDP,WQDGCROVK,50284XCKUMFEBXCNG,,QESPX,VG,67633
11-10-2015,HLBSYSTQC,BBNNUCBFM,59602WSQXXXWBWIOF,,MHJAJ,KK,98410
22-05-1985,IKZPPBGJR,YMZXYCYGO,44037QAVGDCDLKMVR,,NMOIR,UU,29294
22-04-2009,MONGEUFOJ,IVZPCRERE,62565HTNETKFIMSAX,,LQYSU,NA,20598
26-04-1954,PCYQYXWMR,VXKXLZAEB,76021FMNHVJDQOMBG,,FVKEL,FW,94013
31-12-2004,PZNNWFSTV,WBQISXEUA,05660TCOTVJCGSDDL,,GOSAW,QA,89174
22-04-2005,ZFNUBXMSX,NDXWIWCZP,35064YFOFXXQIZJON,,EVWXJ,GV,35185
13-10-2016,CEYXPOJNT,KGDNFSZJU,36476PBCEBBRXYGBC,,VRBCQ,ZK,05506
15-04-1992,CGRIOBEKS,DRXFBTVYD,29076OBYEZSAYQEDD,,JLXAO,EE,81788
21-09-1982,AKMLJVEBH,WFAUAAWVE,91586TXBRGRJEFOLQ,,KADBQ,CH,98997
19-12-1979,ZTZTZNKNP,QECHHDNDG,24399MVVAHSUZHFPX,,QSJDP,YO,40024
07-01-2019,KRDKJDISV,WPJPZMRUW,55457XWYNAFBOITPL,,OQGTK,PK,52979
31-05-2013,NPZXWKCCT,XVMJVFQUZ,56873ZWVZJDFOPKPB,,IRCII,LE,23838
28-03-1974,BYYPPGJOH,WNHFBQRSD,28112QJMYCZHDNWCD,,WBGSL,XZ,84020
03-03-1999,PBLCEQXLW,KJHFNUMKJ,89525FSAEDJRAVDUH,,QYCOG,QL,33691
27-12-2018,ULVZRBTBW,YLMRQLNIC,41256UJZTOQFHZTGL,,BLIYM,PD,86347
04-04-1992,NPUGTWIOL,VZZIBVQIA,53063GOOKQOFASVVC,,EZCPY,GO,00454
08-11-1963,WLUEQVTOZ,AWNZBEPWE,77921ARAVOVUGFOPF,,RPDIW,GT,11677
15-06-1991,RQRLZWETY,VWDATNODL,46064HUCBOOOCOWTT,,PUDWD,PN,08457
07-05-1950,TFSKDWDOP,VOUTEEECH,40705IEVJSBZGRLWV,,POGXU,OG,72751
29-10-1974,MVDJXVOAG,RYGSVGEMU,73933GHPOCCEHFVIJ,,IOAJR,CF,99905
07-08-1973,BVGORHGLI,YLPRPYJTF,36016FBISYPNFRAZJ,,GRTEZ,RA,32256
06-11-2005,OIAQFEZTX,FRNLUWXFQ,07730HRQAPWOMYFCS,,BWBFA,HH,87210
14-11-1972,QRZTPAHDH,YEIFNYKUW,01611RYOIOFCHSFHU,,YXERR,NS,82101
03-07-1959,CTGYGTUQD,ZYGCUULPL,22761SWLWPNQEJPOT,,BJYMP,CF,56105
15-03-1993,QCWWBORBQ,DTOEVWMVK,57602WBUBLPJISAOL,,WTKWD,IN,60556
20-11-2007,KCZNFKUJD,UMALVSTSM,50553CYYTBEYKEDXE,,TCUXC,CF,14622
19-03-1975,HSXRJETHI,QBQHKQKAC,01139NHONMBAOAEFG,,BUQTX,JG,30167
11-01-1953,MCBKMMFZT,DHPAZGUZS,65724YTMQIDGYPHMT,,TFRVV,PM,77008
17-05-1982,VPCXETWOP,VMKLNRIBN,99922YDNMHTUFBTRF,,QCATZ,DG,80462
11-10-1992,GRBTJPAMA,WUSNBDBXZ,23030WLMHCKBLINLA,,YNFNG,HE,80303
20-08-2000,MJPRNJNUS,DFJYTAFIS,23517NDAMYDZQKQYE,,NMRGN,LL,27905
01-07-2012,NATFSWEBL,NJJDQRDRH,36103GZRVTYWZXUWZ,,FRBWY,OE,10712
11-05-2000,DMSWSBDKQ,EBUYNQRYP,01896RCCYMTEOJHFB,,NEBET,EH,84139
10-06-2004,DLFHDYJIH,SQITZZCYT,22958LYEAOVPOKBHO,,XGGAR,JY,93263
20-10-1971,VEIHUZKBH,TYEBVQVVH,75554JNYLDAJAPNHP,,GGQBA,UA,39267
01-09-1983,SNJLVFRIZ,JWSEHBDEC,67216RKYQMYWQHORZ,,YMNMQ,JN,10517
13-05-2007,TVGQAXCAJ,OONGPBWQZ,87216AORZHGJGPXCC,,LVPXD,JL,92826
20-08-1980,QNBESGYHO,ACKCFGGQT,68689LIYIKBVJUKGS,,WMEQO,LZ,68593
23-08-1962,WBXGAPCST,HYRRJLDQG,16990KFUSCUNDPIDZ,,YEFSC,JO,43278
01-07-1960,HCWWDQMGF,MRKVBIJIP,10268NUPIJSFXFBJK,,BKLIF,QX,55016
17-03-2011,AXFTFYXQW,EBUXPJPCN,81327HYCUTXVESJBO,,VQOZZ,WX,98966
15-04-1992,GBPGBASCR,QTNMEHLYY,26490OCBOQARTHBGN,,EWRKR,EI,59388
05-10-1984,MHMHZYUUJ,VYWZYLNRZ,82555XJWUEYMJZRJK,,JPCIN,AJ,61445
03-03-1957,ZJHQPJJZM,BVJMOLWAJ,87829XBQOHXVEHRSK,,HSWDY,YU,35739
27-08-2009,ILBALBPFS,TYEOCJBPZ,68646QAFXAUMBNNMF,,XANTT,KY,69680
10-10-1980,CKYORBUZJ,WTKIYEEHO,31934PEOMJNWHDBYP,,QLHEL,KA,88096
29-01-2011,ACEDJONCW,TQIZNHVCG,14411FDTXSJQJFOAY,,FUJFI,FC,22648
25-09-1989,UZSLDFYGN,VLCDPPUFH,10595WBIFRXOQQNHW,,PSVBY,KK,01339
24-09-1955,IPFKHBVIP,RMWUVMIYH,42003GFOZWLRFKWEF,,ZYYFF,IE,35225
18-03-1950,TXMWTGMOZ,HQQUKKZUZ,31441TZNOORCCGTLN,,WVITP,OW,03285
13-06-1994,MNAGNMIZS,NEQFXYTEQ,43716DUXZCURJFVJC,,QZEMM,KH,90728
10-11-1985,ABXTGXXNM,PDRZQHAJM,46061YLZNBBXYKBTQ,,IVOCX,TZ,01939
07-03-2005,QSARJSXTM,OXXHIEXOZ,91957ESBLNZIYLBKR,,IPDBA,CZ,01626
16-05-1953,XMOQAIWWY,IVBUJMXNX,34003EAOTAZCYXVOV,,CQZDH,DQ,06645
12-09-1957,FDWGPXBNN,PZHVUYIRV,17375EBNVDFUZWFSR,,TJDIX,ZA,70811
17-05-1993,ACCATGYIR,YCBQQHCET,75720OTBTQHLXPURD,,MPGQM,HE,47253
29-08-1965,FANSVDFLQ,ZAYCCAIQD,40609KOUQMHGIATLI,,SGEYR,CY,09737
18-04-2002,RWIIIDAKU,KIPAFMDFL,40228RHDODSPOWDTI,,CFJTN,BT,51792
10-06-1970,DJNTOXTWM,NWRUVWFTB,79746QZUPVAAADSBR,,NBECS,CO,82048
13-09-2015,NAWUARQBX,KXXFPUXHJ,05624PELKMNNQRKJW,,FNLPA,WA,33411
12-09-1953,HFWRFTUKF,DLOCLXYRN,71779ZZSYCEHGWMAP,,GJAHJ,YM,21720
16-02-2002,TMUEIKIWB,QWHRICZQF,86324QTNOLNWQIXXF,,BCYWT,DN,67216
22-10-1990,KILACJJPG,PYUCUQUET,24771NPMSQKYOPHSH,,AYKNK,SB,83766
07-02-2015,KJCEJIKQM,CXWDRHUAC,14104UYLPSBKARRWI,,CLSWK,UY,05041
19-05-1994,FTWMODIOF,GVFLJRZER,28942NSUYAGHPMKWO,,MZDYM,HB,31766
07-05-1962,BJUVHZVQZ,UYHPKZSJK,58448PEXVWPHKFHQU,,DQAJQ,OH,95671
20-07-2008,EJSGVDCRJ,TEGBIVJWJ,90633CJHAPIRAODRQ,,CIPBW,BC,33650
23-11-1987,XVLFUFOSX,JXMOQJHCP,92819SNFIKNMDOVTS,,TTVSA,NB,99213
17-12-1981,WAYOJVQQQ,QSCTJLIUD,22430BLZUUFFMXCFN,,VLULN,DI,24741
22-02-1970,GQZDKPARO,FSEOIMQQI,16204KMUSGFXRPSXU,,XUGNV,SQ,85716
28-06-1957,UMNDHQIFL,HOERWFDVJ,34574QEMEXBJFRARZ,,FLTYH,UX,38136
15-02-1988,MZKCTGFXY,KIGBEVRVL,45155XMESWWENDAFO,,GSBVS,AX,14407
03-12-1996,EIQBTFSUG,OXJMYZLZV,97129XJXMMNUQPCBJ,,UGCKM,BG,02261
03-10-2016,OGJUJEHAH,MIIYYNTKU,72132QBWGUIRLCGCU,,FMICT,BX,43838
02-04-1957,ATMNXUWPD,YLVXWQUUY,77311XEAPKYLFZXSI,,EWAKA,CF,26032
28-02-1966,AQWKIPEXI,MCHQIKMII,80120WXLXVLARQPAL,,FBFDD,OQ,84921
29-12-2017,QSEPDGCFU,CWPYKEJBU,94888GFBKZTOBLSWJ,,XOFXA,RP,88252
25-03-1951,CFPTTVLFD,GJINZCIQG,26439YNZFNVYSBFDS,,GEBZM,OJ,22703
13-02-1950,WIONBCDQA,DTAVCVEID,12420AEABJALZWBVK,,OXIFB,OA,55449
13-11-1954,NLDIJWFBL,GEBMZLPUH,98556LQCYXKQLRXLX,,AQFKA,IT,69927
31-07-1977,QWEBDMRQS,ITPLWIXZF,41957TJSTLWERDLAT,,QQFXY,LI,52656
18-08-1990,IIXDHOPCQ,CQRAXGVVL,21831SUMEXKECPGXU,,NWUCO,AT,24326
15-01-1950,YISLOFFJP,LZJBGNEUC,68612MKBPBMBBJCVH,,CORZW,IL,93536
12-01-1951,VOAGCSKRT,CWTDTXEXO,71296MOBDPCUMQZPJ,,USOTZ,DP,52798
19-01-2001,CJYQKKIYC,CJTWPBEQG,06140VZBDCHBTJMBG,,LBJZA,SS,80453
25-05-1996,RLAMOWCRR,KZEINTMKY,88403WHOMXVTKUURI,,XSJVX,OZ,60071
17-05-2009,UQLGOXYMC,MNHBZKJPP,64492GBUXANWQWQVZ,,ZETPJ,EJ,18722
31-03-1958,QFNWUONHC,SBSFZSGGB,76784NOPRYOJCNBZT,,EOMRK,SS,94777
02-01-2017,XZAUJNYAN,FERSGNIJA,40373PQNIJWRKDIKF,,CSMME,BN,77006
02-01-2009,VYVKFYZDB,ANUBITQAG,19650LEWHLYTACIMK,,KYESY,EG,91037
25-12-2016,JZGHZDHID,TCNUKDLDI,59890ZLMQKVZBOEYV,,KYHPI,DN,18155
16-05-2010,USATSOJHE,FFMHBEOQN,29486VCERKQTNINER,,AXNCN,WP,36905
13-10-2013,UTSYXVFAN,VCWKCCUFE,56551XXWRMFXBEMXF,,ZVEOF,CG,97239
14-08-1968,BIJJTVQDL,TNWJAMNSW,84577VVEUPGNNHHTA,,RFJUF,RN,14702
29-04-2003,ARASHTWCB,WSPGGYBOL,70369TKTKOYDZPALS,,ZYSEQ,IL,69962
19-05-2008,HLWJBQDAE,AMICNBSTG,86505AUOJBPDKODUY,,ZVNGF,IU,30296
18-03-1999,OKMIZKBKE,TIJDJRXOF,20151WYDMBKGXKPJD,,FCJPB,CY,06157
23-12-1991,XJXLDKZBV,JLYGOIPVN,56207STRIJWJKKAYU,,TTDJA,EK,74229
10-07-1989,KLXLPKAKB,MMTYMRAIM,43899ZMNZMDRGFEEL,,HSJMV,PA,04531
24-05-1983,IXBFGZFJW,BKPQMFESR,13872URYOHYOZOUBE,,MYEJE,RX,81881
22-03-1954,UJHUSCOBR,BVRQEDCXA,86081ROPBJKLXOSXO,,UOEOM,SQ,10292
24-04-1985,SDXKKNFKH,UALMDJBHS,47249ICCDZJDLMYLF,,FQWSE,JJ,45165
20-07-2013,ZFCNMIPTP,HOWFVFDAQ,20733OJBRPABTHGUC,,EJRES,SP,06990
13-05-1964,OKFFJOCWS,DALAWUALQ,96703NCZNYPEHQOYT,,CLVKS,ZJ,38416
02-06-1990,RHLCQGTDB,EIYELAHWU,56699LGWZPVOBGJTI,,VZCYS,XJ,29906
10-08-1975,ZTUTHKALY,FNWNELXCG,40193CZVKLBBQZIKI,,XNKSX,HN,55013
20-02-1982,ABSGYDXPT,AGERSGMRS,04794HNVDVWSADULZ,,CZKPR,QA,65662
29-08-1995,QPJJARUUY,VPBGRAVEZ,84615ZYMWRTPKDGHK,,ONSIS,ME,76947
30-09-1984,ZBKVZEGFE,UVYNQTDST,87099ISDDEPNCAYYP,,NBSBB,RN,78279
19-12-1982,JCIQOHGRM,MWELYBQAZ,04342QCLYARNMJECY,,JUBRJ,IU,14219
12-09-2018,HAHLEUBBM,EUVTEDXZL,96152YGJYIJVSCVHF,,FZOSA,VQ,97230
13-03-2020,BJMSBUQFJ,ASJEJHIOX,32895JHSXUSCQTIFO,,QXPQV,HI,64457
24-02-2005,PTTXOLTET,MSTTHPKEU,45630ALHUGUENPLWS,,VHIJV,UH,75568
10-11-1954,RQHXFLTXK,KVRHSCVEW,73680MGQUDDGVZKWL,,MPZWG,DS,89643
28-02-1992,JWCILGMFA,ZAOYCTSDG,68418GGJZHIFKMUIO,,FELJO,IE,21949
19-11-1961,FGPFTVSWN,OFUOKWFFF,50911VFWHDFMDUJAR,,GXHAW,SS,99329
23-07-1974,TSSEKWKTY,DFILBASVF,77589AITPCMPAYGSK,,RYNHX,AO,19125
13-05-2003,HQQUATYCF,GCPIQMJPP,14126QYMOXEOZZWXG,,MHEYE,TL,60759
11-04-2016,UIUAEITOY,MWKAPOBJI,81815IZCAKKBJENTX,,ATRLJ,NT,95078
21-10-1954,YOKVNEOVP,KIHSAAROI,57105XNYAUTYFTSEG,,OZDXM,NN,50211
22-06-1959,DELNJLDSV,OFNSJUBED,37242FKLRLCOIBJYX,,VBNWJ,VT,63571
04-11-2017,SYOUEWWIQ,JZTWLJVBZ,59216DQMPNIASTDMR,,SPMAE,ON,10913
17-01-1982,EIXLRRLBM,LUEPXOTRJ,31606HHBWISYNOJBI,,WPIXV,OD,63897
13-08-1984,IGRFPTZUI,XSPSIVKLJ,72292FKNVUEZFXDAK,,JARXX,VK,85495
01-05-1985,YSNRLWFBZ,ALKVBOYRE,95723HSTLMNGXFVLO,,HYCBV,AJ,63790
03-05-1968,LLYLSFHCA,BBDYOJKNW,40385GFVGXMYYSIWE,,KMVBV,NA,83903
21-03-2003,OZOIHCIHV,IWHCFRDSZ,30940WLJLNEOSETFE,,DQZRS,ON,09225
29-10-2005,JOJNBXNVD,ZPANMYPSU,55857UFUTSZTLJLZC,,KKQGO,ZQ,21652
12-01-1998,SPVSUHEJV,ZZJGWXGOS,83084KNXUGRTYCGTC,,TXTPR,EJ,20391
12-05-1954,AVKEXEHHP,XJLVNSHAF,87229THFVUHMABUIO,,ISPIO,GH,19710
04-10-1956,ARUQJZSVJ,DSXZFHTNI,56485GUDROLFTAWAE,,IOABB,ML,81736
31-10-1991,FKTEXTNAA,DHYMWLSPT,22558PQJYINQREJER,,GFGJU,KH,04994
13-01-1955,PDPHYUJMD,ACZROMKHF,38857WZHSEZUDWRPO,,XXDRH,MG,99376
29-07-1983,NWCEPYQSS,DUHZNIFXB,78251UMZGAJGBOLPG,,UONFA,DP,77642
18-09-1984,EMBYWKAPY,RUNMYQHLH,59583VMMNXCNYNJUT,,RAMFL,OC,89182
28-12-1967,MQTFYBYOO,WVOGGNAIH,71838FYRGLUUPGZVF,,MWQOR,KK,03412
23-10-1984,CTFXAMNFJ,ZCQDSZNXE,78514YHHBRZFPYJDN,,VUSXU,LH,11710
22-02-2021,HEOONQTZO,LXEDJZDTY,22073VKDCYORFWHMD,,QLBWZ,NH,80567
16-08-1993,KDTBUVSKV,RRQAJWJUZ,90865ECUNWUKEWQLW,,EICYV,OJ,50034
15-03-2021,BAADJMSTA,DVNGHJDNY,53722VTGKDXMUUQMS,,VEDKC,MM,60514
21-07-2007,DXTSCALOO,DVCZYWRED,58192QCUDISNYBQVR,,IIZDG,TF,23564
07-05-1967,XZJXSTWAB,ZXUEPUXQN,89437PURILQUPMSYG,,CYXXT,KK,75497
22-05-1984,ZHXDZBPCR,VHJMFIGZQ,35020BVMVNXAPFMKS,,XOFIL,EW,95997
16-02-1987,AVKFUTLOT,OVFJCXJDL,36170TKBUNYFXWTAF,,MGEEB,HF,94710
01-11-2014,YDJGHABXV,WRKAFMKZD,62488XDRHOVQGXGPH,,LVZYN,NY,10448
29-10-2001,NKNBHOPXB,LFMITKHMW,42507VRHTPVULADEI,,UIJMI,TI,92172
04-09-1999,RNRYEUARB,LVBUFUBIQ,00737KWMFNGQPWTVL,,JSNFE,YB,22488
02-03-1968,LGEIAXZLM,XANKGHDTE,26563XWDHDHCKEEVV,,JWCXL,KF,88783
23-08-2003,YUNTFJAIL,WBABLBUGX,38108RMBCGHXEXIDL,,KFQRB,DG,89936
12-04-1959,WAHQBMGFQ,EVPAJQKSZ,91900NEDBFTWBANRE,,BQXVD,EF,06329
11-10-2020,KLUQHOOQK,WZXJTHAIN,63513OGKMODSGHHSD,,IGHBW,OG,20544
07-12-1976,XEINQEEVN,XXNWQKOUG,11681HUKVBMGPBJLG,,EKXDB,GN,50270
26-02-1998,HMWOIHNAX,DYEAKKMPP,32521XXOMKTJNDYKI,,YAULA,HF,38155
26-09-1992,MPCHYPZHJ,AZWSIOYAE,15801YCQYAAHQKAQL,,URSSA,DT,86776
29-04-1992,ICURVEZLB,JYKJNAFEN,39662OPSWMTEXKFXJ,,PNQSP,FD,22823
20-06-2015,AVFSFJHWS,UMJDDYATY,27448EFYIIMRXUYWM,,TUJMX,ZP,25018
29-04-1964,GCZGORAAC,GOWCGVKAZ,93478IPUSNIWBGTZS,,XZNQP,DN,93051
29-06-2008,LMCWPRGRQ,WTMASDCXU,18918AEZFTWNCWHQW,,PEFGC,DC,17542
08-02-1957,DZNTILORB,PCQBYHVWP,79902EPGVDVCFNHJE,,DESMM,MH,37616
08-06-1990,QSVCZQDZT,DDWJBYUQZ,42690VEIPDVMYZYRN,,DMDEH,CC,60149
10-11-1965,BFGYAZDGI,OEZXMWSFP,07948YNRQGELMZXDU,,KRNJS,DO,01394
25-03-1977,WEJTULPMC,APBGPPJYR,30495UVRHRTJRYCMY,,SVCUJ,DO,44543
26-03-2017,JQTLEPUSE,VAFGCEXHQ,35399YIWRXDJWZQUF,,QOYCJ,SP,80315
18-05-2008,WINFARUJN,FWLHUOIWR,35954WEOOTJGJDWMV,,RQDBB,YS,66944
09-02-2004,MDVIFOOML,DSUJOZSAZ,98217TUGRGDSPPQYL,,VIFGY,CX,49427
03-01-1983,ANZDAQSIQ,GVHCCDQYO,66082TVLENBLIGHGW,,XYNYW,SS,35314
29-05-1965,VPMQGCXLA,GTWFYGEMP,84499UIGSNCUPDUZW,,TEKNK,TB,98916
16-09-1981,OLAQDQNMT,HPQEJLOAR,41526BUGKRMZCUNYH,,LHQPW,ZW,98754
26-12-1963,QXWHLSPSE,GIFCRAFAL,11044LOHTUHZWJEJA,,JBBST,YQ,93482
