DOB,Last Name,First Name,Address 1,Address 2,City,State,Zip Code
25/43/8837,HWLUGEKDG,QKRGVCOWD,34903NQNDWWIIGTCG,,GDEAV,BP,24885
65/32/8105,DHYWAQETZ,WVMQELHRT,38584REFXLKZZSERA,,IEAVC,SQ,73062
89/17/3651,SQEULRJJM,MAHMVDTQY,71370THFGTSDKOFCJ,,IRLYN,SE,25194
15/12/6946,WLMCAAZQZ,KHNBPVZSY,86466CGNFNQSBVRLA,,FCXIE,CM,81101
57/94/3658,ADPFONCTB,LRWKXIKJN,09009IKRYLJSDUCBW,,HIWJX,MF,13378
38/58/4067,DQWDAPZJY,LHIJIZXGT,76218WYRFEZRDBRFP,,REPOC,CN,30228
63/58/7802,RCQAXLRVP,STDAZFGEC,33847DOFWYZWFJGNX,,BNZLA,FL,02741
67/35/1715,ZZYKHCARM,WNLAOKBZU,32450IUIMWFWQBJZM,,BSYKM,NC,78302
61/35/1488,GNWFWXMCK,TTJPQINZK,34187QWRVFYUZNNCF,,JBXSK,VK,45593
33/26/0939,GGVJMDJZR,KPHWTCTGO,64142RGBRODVTYTEP,,ASUUB,BL,18413
69/50/9066,IBHHNHTFA,JGFBBQIEO,98730XGVPETQDCTLR,,FFUZR,AX,05361
62/83/6420,PBKHOLOEA,GZVCFOGDF,21681ZXCCQYXIUCFL,,GTECR,BG,12228
91/78/6070,ONLYYDKJN,PGATXQCJQ,99812TIGJDULJGILX,,YBDMY,DJ,49488
87/71/6681,QVXDZXBNS,UYMTCOLAD,49623BEICQFTSRKGS,,SDHCH,FJ,90839
13/46/8939,DGDGJUHAD,SDRYDSZKP,35214STICHRDSBHHN,,FVHZR,KT,23215
43/36/8892,VXBBLLNLP,DLBEDPYQZ,54991IXKVGQMNVBGM,,FMUUB,JT,42412
46/74/7706,PCVYNVRTI,QNBKJNQRC,82233LDGUZFITNGSZ,,ASSXK,OF,65136
41/07/1193,HWAHLWIDP,SZQUPZRYJ,76335MLNTMIOLWGNP,,JBGML,VD,18402
75/23/7419,WYRRGQUSL,RFOOXHZJI,69883ZNYXZUFHGYKN,,CJMHL,BG,60558
59/89/9857,TKFXWMOCZ,PFAMVEARX,91807WTXUEEGSKMIN,,DHPLI,CG,52026
46/68/3953,ICNUNIUVD,QRYPLDHUA,88993ZKIJKYLVCAFP,,OWIPJ,BE,79786
40/58/8173,VJCFKGIWY,JZEJBKCUT,03442QMOFYTJPUZTK,,RTZYF,ZW,00294
86/61/1894,PWMWRZXHS,VVRCSKXBV,30168WNNHTVJEXWBE,,BRQVT,AN,99489
12/90/8855,RUUXVUANQ,VVUDGTZXN,32403TXLVAHKABITZ,,THUNQ,FR,94952
65/70/4162,FDJQCCFXA,UWYQLGMZF,22529ILJABASOOIVT,,AEYRX,VA,06020
14/86/8448,KENKLXEZF,VAZRPNMAP,92693ZUCDLXBLSETS,,IUWNR,QR,08272
28/27/0240,VIGPVKNEC,KKCMEHEHN,23366LZVIEYGRJYDK,,IIHZQ,RF,06294
78/88/7746,XJBDHSMNE,JDDNXGCXM,02900VTFWGVDENALA,,FJRCX,EI,41021
29/94/2632,BPKSGLTTZ,LCLLUHOZG,57414AYJCLWGOKSKT,,IRMSD,DL,83626
80/33/4516,ATCOSLTLZ,NUGHGXSEQ,57766ARVHRLKAKZTA,,DBCPS,QN,41315
57/29/0703,QBOHNPOWV,SQNIZCUQO,27801XDBVXEDKJLMW,,VPDUQ,PG,64877
30/12/3205,GPVEWQYRU,KPMOISNQI,04758PVOYYFKZLUOT,,UBUKZ,LH,55740
93/09/9768,TJEEMNSBS,JSWCMIVOQ,82029SMCFBQRLIEXQ,,ZFPAY,CJ,95974
04/74/4673,TTDLJXOZB,UGIMKJDQU,74681SHSZFWMRJWDG,,PIBCL,QP,08962
36/56/5560,AVPOAAZYO,BRFXJCLPD,58328KFFGLCJKLYUC,,FZTAC,ID,12003
72/61/2915,KEQYDEIPU,OKHOGKKVI,68830KKWPXAKPIAXT,,SYGWY,JG,66934
80/28/8550,PRFXJSGSI,QGTRRZSBT,17704QUULJKDYRAJT,,RMEZK,AU,78498
13/06/6930,VNRQJILIJ,MBDAVQKVQ,33208QEECBYJUJPMS,,CXNOC,IL,97018
00/11/3700,HQASLNTBJ,OEEJHOAUD,23574UJMRZUBIWZMR,,QCQDN,WX,52789
12/54/2397,USFIOILCE,TZYGAVSSA,37944VYIOJTLBIMFU,,IEGPV,BA,11311
72/52/2280,KUYGWDIKQ,WQEDVOQNB,99773VEXTMFMRMSXP,,LEGXD,QE,20860
34/49/5379,YSBHRUUPX,URPWBOQTE,25922WXPQPYUUFMQZ,,MNSAO,QE,27791
41/29/2631,HJUEXSPZK,JLSQORXLR,56802OVQIGZZQSEYN,,FIOEJ,VY,95486
41/79/2120,FGIWYJWXY,CFEHSADTM,53253GLGSLZDUXIUN,,HIXBT,SN,39159
66/13/4950,LSKNYFQFX,BUDRBGJLH,11328GCAAUUDSFCNK,,WWGZT,SU,56874
24/69/3890,MYWSPUOBJ,XZAATRABF,48105NYOLYIRVAOJY,,SVBCM,NF,23056
68/99/5978,EOLZMDZDJ,VOCWBMDWO,64641CXWUFGPLBTLZ,,XELCN,BE,50721
95/27/1202,LZWSRZWEQ,RSRQRVQMA,31656LDODGEBFMIPG,,LUIBN,LV,38933
60/06/8898,IMUTUWKFH,HKTLOZTJD,13812JUUMMAXVONGP,,FHSTC,LJ,32514
47/29/4634,SGLMLMOGU,SZYNWBBBI,74536JQLOBHJHMKUM,,TQNAQ,XV,21591
49/71/7415,SKSAPWAAI,CLAAXGWJN,23352JFCQFKUCSSGQ,,GBQQS,ZB,08810
45/60/5268,FCEFHMDJV,JFBIOEFXD,80790FZMGSOJHRSSL,,HAAID,YV,25551
06/65/2233,QCCJTYIMN,VTOEVNEAA,73102UYAKRGQYOOFD,,ICVSJ,FO,91918
25/80/0080,BKDPUSSOS,QHKFIUIWM,86375PTLNRAUWKHDR,,HAORF,BJ,09691
69/51/0668,DPNLPBRKM,JFXFNLKGZ,74372PEMBDFQUQXEL,,YEICZ,OH,24547
06/80/8661,TQSPIMGJK,WAAEYUZWP,86361HUJIGKZQEYBP,,CEVDY,PC,54549
88/93/6103,NAWAOSXNS,RLNZRHBTX,47230DQDPEBVISVHP,,WUCRU,NT,48239
55/66/5903,ULAWJYLXP,PILXGIWZO,11685LESDFTCKEYRA,,NRIXA,QH,21609
58/34/8626,OPMHMSCJZ,HEFPIXKQL,83805POKTMJIFUBNV,,WOOMY,TO,32324
76/74/0200,RWPHRXTIJ,CLEPJTICN,33900QNJIOXGMSEGX,,TJXMY,UG,36385
19/34/7817,UEZCFUFQI,KFINCBISK,66759SPAVNVOBZHNW,,QNWYD,CY,70002
92/74/3945,GAWQOMLYI,XLLWIXDVF,80930WNHWZIMDSBDV,,RVQWE,VJ,17215
01/82/4405,RZBVXHQCR,NLIBPZOKV,87977XVIOTAMFFWLM,,DPTUO,AM,71309
03/92/3741,GAYMMHPLI,EPIYNOLZN,32770LDDDJHORJWGL,,GABBE,FA,38327
95/78/1759,NGMOMHJOZ,GJKNJTYVD,56410XPOGZJENEMVH,,LQEMA,YY,36322
15/26/8626,RHXFOSYND,FCOERSDDZ,14151DOLIBWFPVPHO,,VXCDN,XB,32968
56/98/5788,SRTXSXICL,QBTTVDVIJ,07308BMFFOXYSGOJG,,WPJTW,VJ,33301
01/93/9023,SYFRWOSQL,CXVLTQBAM,91219RXVDHECIJPAX,,ABTII,SB,26108
56/13/3203,OEXWUKSKX,IBZMAWYTB,36890JSWDCEIJTZHO,,RWYBX,HS,52981
92/01/0606,DWULCSEQW,QZKSTOGKL,39310IOBPVPLAIFBU,,ZWCVM,FQ,53630
08/29/6513,ZLZICAOMU,JEGTWXEXD,45643JZJYMIZHYAJP,,BBBVK,JE,89091
26/12/2922,JTGHKHWAP,OTHIGZQGC,71771EIRBTQDIVXCX,,JYZVE,CV,61065
32/70/5436,MQDLKBBJD,RJSTCZSTM,35405SUIUXCDVEPNJ,,LXTDX,FB,13587
42/15/2908,BDWKNMIVA,XNAXBSQPG,02709XLEBGXTTDAPY,,PKARA,IS,67213
86/84/1028,BOHWETQLY,KBTFOGPFU,12174SEJXVGLHDQEA,,EZXGG,JE,28901
75/37/9238,MVGBESXLH,YMOHMGEDG,61132RMZZZRXOGNHB,,OQCDQ,HN,27557
81/75/4624,YZLYWFYKH,JUEWULWYG,30882ALDYZOJQUBBP,,NHNSX,YU,70375
63/47/9949,TAMIKNLZO,IMDCMFEJM,92426WGKMWYITUWVZ,,PBTGF,WQ,15501
84/88/3067,CFCPXYWFC,TYBLNHKZI,21112VJTABIADDNRD,,DFVJL,IE,00069
99/43/5617,HQMQUVQPL,KYRTAEOZI,90937FEUIYFZTZFGV,,XPTBC,LG,74980
13/50/3324,FNCMUFNEH,LRYJEGNGG,15924IYNDHXXXCLRH,,KQVXW,ST,83398
65/49/4435,ONOXNLCYP,RJCVPHTFD,85784DOYDXMAHILZG,,CIONP,XM,98757
51/30/4713,PROKJHTGO,TRZOHOKSG,39818MBWYUSLDSMCW,,VYDUD,ZW,78713
27/33/0058,GGHAWVVEC,ZMXULYFJL,88018PSYWGVKHTNOU,,KNYPF,BD,81178
09/39/2962,WPLAXHKRA,UETWAFRPG,25637HDJBAEPSFZTT,,ZXAFT,FB,79927
72/55/2289,NNEMKVRDL,RZFSRQIEQ,22897IPUIWJBJKIRX,,CJSMZ,GL,88271
13/83/7849,AAZDBVQZR,EJGQXKLVD,93736LTDADKMJYVUX,,ZQUFG,YK,42013
81/20/4609,CHCPPERAB,SZYZGWGAN,42772QIOGOUNXLXYE,,MQJOP,DR,60681
72/92/3605,TVGIZFNSZ,LRJQKQUZY,80396QTWTMYCLQKKF,,ISCPM,FH,66288
41/35/9435,EFMHSFBMZ,RRMWUWQGR,97700LYONUCMIMNFU,,CEVKG,FU,28657
01/85/3316,AUTQQREYO,GKCIXTYFI,90483STCTTGBNHLPM,,WLSNZ,JC,58922
14/72/8476,YRMWWQTFS,BDBSIAXFS,83358OLKXTQKHVRDX,,WILMI,OP,28165
67/99/5603,EBRQTLMAB,RCVSMWWVQ,78978ANMBXSSZBEVK,,DYUTW,IX,69344
96/68/3399,JYMOFAUFD,CXTHILRTZ,65743CYWDHUJOAXNB,,ZFUAN,ZQ,51761
93/14/7949,NKRIUYUMN,TZKSZMYHY,95924CKGCMKXFMOKM,,XOJPG,WA,35648
25/44/9824,RLOTKKNJI,VDYZZBKTV,06910XXQEDUUTMRHS,,TBLUH,RZ,84508
55/46/8217,WHHUHCNPW,FMBBNCRRX,34740RWNEIQNGBPPZ,,ESYIH,GY,91021
11/95/8174,OQCJWABER,XWRMAHNHR,26727IAWJLYDNIUZN,,UNVLA,PT,28092
10/33/0094,ICBXJZOOF,UCVNVYCDL,96393BJUTTGBCQWJQ,,RFDDB,CO,74759
21/32/3458,KAUANGUXZ,OQJBYMWGL,22665UIUJYBEKXWBT,,LVXKL,SW,10630
38/78/9789,RPLBHUQRV,SPBORBEDI,81057VSJYBZXTQLLZ,,ETZCW,OD,00965
29/64/1577,PUPPKHZUH,GWMJLROXN,06576DZMQRRPIACIU,,CLYVZ,KH,06343
99/85/9512,TCMGXWSKK,VNIREFGMA,08181GJZUQKNQOOAK,,TNYWN,UA,21339
76/91/1649,GNIMCPYIO,ODWHAIFXB,07485COPLYLRAKIBQ,,PVPNP,BT,84627
73/68/9456,JKLDTBHJC,RGQFTFCAC,03643FAVPKCSBUMUF,,DNSKE,UE,41334
84/62/9792,NXUPYATHY,ACLVQOHDU,28026FXJPLQOKKFCG,,YOSYO,FR,73122
89/07/5468,BBUWYEUQZ,UQEUTFRQB,11025UGAJAURFRFVR,,FZQJV,FB,09936
80/20/9589,KKLZXWFRM,QIKFDHFVZ,34739RLLCQNXESLKS,,MZAYZ,QT,47826
63/53/8437,BZIHBKRIN,BAFWYALXL,60345HJYLQUKTKAPE,,OKIHA,WT,24705
80/53/9297,LPFRJGAXV,WMJQNIKBT,32758QKLNAHVFUHTZ,,YLPRS,YR,79042
74/31/6940,SGAUIIOMB,BXEYDJUGQ,36677CEVPPZJHAHEC,,PJRYE,XN,03407
88/22/1538,UYOZJTBNV,IHJOFLVUP,52833KLKOJYNQULCX,,GTHUN,IO,87156
18/68/1143,LEOQWPLDN,LRGBPJJRR,09650TJBWCZPLDOJE,,HBRRA,VH,23194
76/45/0731,QXOWOTGKD,XHQFDOSHS,01279URMAADDOHXSU,,WFJOG,VJ,92637
42/36/8886,UXEPRABFX,NBAEUQYHS,90129CZDYCWWWQOYQ,,LOPLX,WT,54259
63/15/8439,VYGQMKWLR,OLOKSWCCM,10651RLPGVHIVYILH,,VWVKF,LV,28425
19/41/3822,HXQWKOBZI,NGDVNUHSV,78427WEUFYGJPWYCS,,MYBUG,QO,45494
09/84/6859,MLKAOUZKV,SKFRJDJUP,18239WBJOIRBDUMNX,,VAFEW,WP,14708
69/52/3908,OHVUGNPHS,XOEAVMSUG,04915ORVUICHZWQAI,,NYVJX,HN,05487
12/04/0738,YGQWMRZKD,YNAWVULGC,42758NZFQXNJQYCJL,,TITML,AY,05918
84/94/3880,JJJGAASND,DFGRLYWJZ,42091XDKUYLNEMHIF,,BYGPY,CX,79409
37/48/8305,FSNIBVKOO,OEVQGNBNF,80575HVMIPXXLQPVD,,QGCMO,YH,01388
20/58/9393,PCASZVEYO,YCLIZGRGT,19535SIWTUPKZMGNJ,,NCCKJ,AK,94180
91/93/2695,VHBQBVLXM,ICNVEAEUP,51199TIIXBHGJBMQP,,MUCZG,OL,58259
00/50/5081,UCKLOKVAY,DEZNPHHUB,80800HTQTPYTVLETQ,,HXYOF,KL,72432
68/41/4010,YVZPKIVZA,QDOCZCHDQ,64654BEOROJMJRZPA,,SWIJG,KA,05712
83/18/5351,WTXNHQMCH,QOKDHONKN,89653XLYOGHZKCKLX,,KVZCX,CG,87823
81/58/2406,UNDWVRGOG,OIQRXPUYO,63233WDBZTPNOAYHX,,GRIEW,QJ,11363
41/98/7686,OJXRKTVLJ,QWEZGSRAJ,42762WBHBKWIINXED,,QYDQG,EG,20766
43/43/3989,WTWPIURSA,NGVODSHRJ,51298VGSXBPDSRFTS,,GTYNM,SL,48231
03/87/5590,BYEYTWLIK,OONNAZXDH,00789JJHNAWCHGRSX,,SJTIF,RT,33978
02/07/0458,CPSIVAQEA,CBCNCLYRX,07490ZEALQVNETFFA,,OXHTJ,CH,60533
65/00/6813,AMXDIGLRU,CTMJPLKOB,18432ALEMMNDTHEYL,,SVJNY,CQ,46376
44/45/4557,ODRYMHHRF,CHMSQEJHC,68135SBPIAVEDIUVX,,KEIUP,AY,21504
34/00/6531,YICORGYQW,JOQYDLGNP,41429VUCXHICVBRWJ,,USQYC,SY,49954
25/61/8987,TSEUUCCEX,UPMTKKUIF,84596XKETFUGTNMCU,,KOITU,QU,48302
96/19/3485,LGHIMIPBE,PETPKKKLM,52205VWQWPBEXZNSX,,VBDUE,SL,50792
11/39/1198,SVBHUGBIR,YNRAXZMNH,00459VAQNKTPUVVKD,,LPHVM,XV,11270
63/72/6502,VKPRYMPFA,MOGYDBUWR,70608LMSUVPINNAZK,,SJRKE,RB,21773
17/75/5388,IDRMKJZZR,TDGRXFYPM,17286GLVDWGMUXALY,,CVNDX,OJ,57298
65/60/8740,MFUTFSOBO,JNGYBIYVF,90510WUIKLAHFDQWE,,QQHBF,AH,34434
66/92/9573,CTSUMIBDX,RKMCPGKSG,17830TPQGTTBGXWXZ,,UGYPF,ZJ,71990
95/63/5173,PLLRGSQFF,FTIUIJMZJ,37290RFVESJNWPKZD,,HOJUO,FG,53653
75/68/5790,TXJNVZWUI,ZOHXMGMJS,30885NKOTAJHRXYLO,,DRUMR,VP,84963
65/96/1578,DULXSHQMM,KRQRAPXJN,19523NZUKMBXTIYNM,,SKMOT,AN,02514
62/81/5986,NSDQTDDFW,WUQMZSNTL,98394TDZWEYYEJITH,,HTEUB,ZW,56175
87/93/7508,IFEXEMOGE,TTAEOPNZM,44153HTUKFVRDYLIM,,DCTJO,AC,31300
49/38/7898,WXQZLUOBS,GYKCKUTEP,04744KAZISQVDJCVE,,CYAMX,EV,93065
12/79/7282,LHMJCWICY,JAEQVHCAE,95497HYABFOAUODQL,,TVZRU,YI,62105
76/57/9045,MZXKDSLJY,NZTMIYXTK,79537LQTWFHRENOIH,,BLKGT,WS,50197
67/13/8253,WRTKEDQLS,ILMIUEPSX,96247WZZTAGJJLIOZ,,SRSPT,ZJ,22793
73/01/1982,WBEQCJWCQ,BGKXZDRER,60349NICUSRZXHGAQ,,CUFED,IV,52987
57/57/8302,UQNWNKXKT,TNICMDTFC,89473UGJLYEEKNOVX,,KCFWX,CF,50246
42/58/1236,QKIHIIJCD,AHFTMQFDS,23993JZCQYFQIKCQW,,NUXTO,JK,04429
90/57/9454,OKRMEILUY,PKRPTJMLI,21107IUQZYYQGYBXF,,DUOPO,RL,78723
06/19/2484,AEXVGENVR,ERZWRHYVV,76548MGNFRHZRFWUL,,MZIMT,JL,37373
48/03/8342,TWVZYLMTS,CVCLMILQP,05081FPTQFPEDFLNH,,FTJGJ,MM,87912
86/31/6759,ZDDWRYTBL,EBCBRFZTV,23163CIGQUYBNQKQV,,PXPXB,VG,01030
04/87/5223,YJAAJLQYI,ZZZZGFGJF,58244LSMHXDMNTYXB,,BWLHS,RU,63787
45/17/5410,TIMIIYFZG,NQZFXZBMW,13988NOCXXHJJXPRR,,XAIMW,WX,16201
26/97/8372,VJFTRUCHT,PHLUSQKET,13204AEYRBQUQNKEX,,WWXIQ,KC,97412
10/46/3569,TWXPZBQVP,ZHCWZNAZV,40300UFXWQHEGBWIX,,TJJSJ,QG,98948
26/84/6651,IIUUNLVET,TNFQNXEYS,05826KVEXDQWFLTDK,,OIBNV,ZY,32734
09/16/8116,SNBUPPDHW,WQRCXAESL,93173UPPQQLPAJGDJ,,LAISR,RL,01773
25/59/2960,LJYVTGOZX,LWGIVHLKQ,35549YLWMUDSHNCLW,,ARHLJ,XX,91048
83/14/8621,OJROGEJZQ,AGBAAMDRV,47997NMEXZCVUQERZ,,KEHJK,WD,72880
66/42/9490,HQBIWWGLW,ZIDLBUHOR,25061QLWGZJPMLXBH,,CRYOL,MY,55294
69/09/0728,LGQBHLDMK,AGQHTPZTW,16196MWVJTBVNNJXB,,CCIOK,NS,98539
39/27/4719,FJTJATPUU,NPCCPAYTI,96200ZQRSVPLQVGRM,,ZSGZB,AN,94369
93/35/0409,MTJVODENJ,DSUYERHWP,79278EOEYNNGQACJF,,WEAFL,GR,67407
55/43/1740,ETBQBNSIY,DFIKEYHDW,83956UEFPNJSJZGAT,,FOYMK,BE,64176
98/18/5348,CVWMKLEMN,RJOXXDSLD,66845SJOFPUAFVYBU,,SWDHK,RO,99543
44/00/3616,TCXVJCRUC,UYZNHFLNT,83342CZMETBWDGWIK,,RRWYR,CG,26905
64/38/2267,AVEAKGADF,OBHODFQXI,31113BABOUIYNWZQF,,JKJWC,PV,49624
59/14/2782,ZMIIWCKQI,YLOYNUKRN,85330TOIVEHVCMGRQ,,DGKKD,LO,24652
90/85/0264,TRYXPUNTI,URJVGSHKE,57423CGAJXIUZAZAC,,BMXTS,YO,16989
16/70/4417,AIPUFCFVP,JPAMCMILK,25758GVVVFNHLBPWD,,OUVRE,EF,79509
53/99/7025,GOBCRFMLX,CDPXSJSQP,72922YNGQUDUBKVUN,,LKARF,KL,10893
02/32/1723,JNCVGNUZR,NFVRYRAPJ,88278MIQIKEYNNLEP,,XEKZH,UO,18947
16/09/3000,BJHWPAZWB,CPTWBUVEW,37898CFQGISUAOGGA,,NWHKZ,AG,94669
86/20/6740,BEBXDYWUB,PWSNQWMWH,49161DJMDAIAEXNBW,,AYLET,NT,22298
63/62/5539,PKKVNNZNE,ZCLQUHPOE,66155JDKHNYXBUZIP,,ESNWF,GH,34491
54/46/1397,VFZWNKNSE,TLMTUHTUH,64852ZWYHILCBLNQI,,MGPSC,IM,69705
23/93/3125,XHCZCYATA,FXMQHWYRU,56610QPLXPBIPNABU,,ZOKJZ,MG,05683
13/80/3727,YZBKQVOFH,XZZRATIEZ,22990DWTJWANOGCDW,,HIJCV,LB,40419
81/09/0892,LYUXKWGPZ,HUENABAGK,44799NZKSRJUKNUYX,,APLRU,LV,76053
62/02/0215,VDBOXDWNZ,GTTSLCPDS,46684LWCKBZONNIHD,,DIKTS,UD,57831
06/23/1072,SCBZDYCHT,KGAAEFKTD,40213WCZNJTFAZXWC,,FSYMP,NE,76721
93/41/1195,ZZKGGIMTT,ADKUCOVGW,09808YHAWSYYPDRGA,,KIYZK,KF,42858
04/66/2857,XKAHTTZSM,BQVWDZVKO,34419TFXSZNGVULTO,,BRBXM,ZU,57296
72/10/8818,MTGLADTJX,BRIPHGRPD,60600BLWYLFXQJZBG,,RLMBX,OM,11763
94/06/7121,HIZQXZTTN,VEBPKSDCR,27061ZYUKZGJWCOTM,,ZDPGZ,PS,98512
03/62/6894,AAVPXSMWQ,JSVNAJEVA,83798NQRGNEDOCMGF,,HNQSF,PK,07835
47/66/2595,BPRYJOAFU,IVPPGVASP,11550IQSRNUQLLKAZ,,EBPIG,NC,77294
59/61/0862,NCSATWPXW,DDHIAIOTU,19455NAPYFRZXSNRU,,PPIHK,JF,31940
30/15/0017,JVDYVTWPI,KDJLFMBFJ,73659LNJAHYLBTNAB,,LQQMT,MC,12269
16/26/4474,ZDJZLASCB,LZNWLXFGG,34320SZPMJADJVMSP,,VCXCS,KA,25998
61/05/4524,NQEAYCWYA,SWZEGIGMT,04220CWHNKPFRQOYJ,,BBBFJ,WG,10283
54/28/4010,VHOXNUBYT,EFMFHHZDQ,09731PGODOMDRBDFQ,,IGMJL,JT,70842
14/45/6551,EVHFZWTRQ,OGPUXSDUN,90814ESSYVTIULRWK,,LESBT,TZ,14064
73/02/2452,MWPVIJFEW,ELXOWSIBQ,37631SKDWLSBOLIME,,DXXHC,ZA,28982
28/86/3999,OMGSUIXMM,HTTQZITBX,46722SVQWCBVKUQNO,,LVAFI,HM,58148
41/34/1338,FBTQEUMWU,FGNVZOOOO,62331HKZKBHCDHOBJ,,OUCJY,KQ,80951
52/57/8330,WDZMGUFOJ,ZEKALUPKU,94983MAMUYUZXSYTN,,BGTZM,LU,93996
36/64/0231,XBVLLMZVB,ZJVBLHEUO,31915RXSBFAPRXJRA,,QSNOJ,RL,19753
59/05/9076,KCXLSQAYS,SZSZPICSX,76315WBWBUOXLYVMX,,VUOKY,QA,49396
53/09/2976,TTJOUEXRJ,WRGUOMNZM,30557NQUZNLEABRMU,,DHXCP,CN,08786
08/56/9130,WTJXBFLHB,UNRLUTKNO,46306BTNIQIATODPN,,DKTVA,CO,17909
70/31/7015,VOCUNDSYI,KBUJWIQOC,71749ADEKHAUPTENC,,TWCUB,TT,69223
76/15/3332,GQSSHVGGU,ZNPBCVWJU,61374HMZTLKUCUPJO,,CYBYV,II,33623
62/65/9739,WMKSXYZXL,LUMIGTDZP,45055WNCFEBUAJUDC,,ZMJVI,KX,55817
35/89/2512,VIRAACBWR,ECZXIXPZP,51188YSDSFWPDYCJM,,MLSTZ,PW,25637
74/07/5248,UCYLJDYVP,YFGJIFSCQ,61388DGEYZLIFYHAK,,BIKIN,PG,09184
65/59/3882,JYZUIWNOX,OIMSDLRVZ,89823TESGSFBVQRZB,,WQWWU,DG,17762
27/31/1210,WZFXNZPMU,EEPTWAINH,52740XONCYGJNTMBX,,XMZUZ,LD,01103
08/67/2390,MJEMUJZUU,TCGROUQHV,84378BBXSSOLSGBXF,,LROGT,FP,90704
73/85/9941,EEBAVMGGY,CWVDVKHMY,13839LDPWUZLQBANN,,JZEIM,TQ,06137
20/47/0915,KGUPDVRZO,RPIXXDUWW,14231RCGYIKJRLGNS,,XNOMY,OG,63578
19/75/3213,ZYEZMVILO,HJCAUNPAR,71892OIORHQTPPJJQ,,QCQSP,HT,36172
08/05/8923,KMTDJXZIS,LRPGOOAGJ,15861ANTZJOMAOWHM,,UZIVV,RP,99924
27/33/5131,LCHPDPCKD,DUBOPYPIX,09369TXPXYIJUAOOD,,SBAEX,VV,67123
98/41/7699,ZFKSTFXVZ,LQINPYSKB,89681YBBRJYOPXEEO,,WPXUW,JO,75779
41/90/4772,SRUJLTUKL,TEUOBYXNG,77358WDFEQFJXXRAJ,,NSREX,BI,70166
36/57/3435,MUJSZRSJP,FJFCQYKNX,12697IPYVSZASXXGL,,GODJF,PR,48481
56/00/6900,HRGCPSLWU,JAVICQKQR,96905UITJQVZLMJTU,,ODAOP,UT,96380
73/06/4477,ZNFQACMGF,VQENDVVFL,27375DZBZPEJLLQYJ,,IYPMG,ZI,84413
25/59/5706,CNRYMECZK,QLAWPUZFH,77982HZSUMCEMIKAU,,WLIFR,CY,63681
74/48/0404,IGEXPWZOC,MFJHSANPS,62344KTNSORYNSIJB,,GZRAH,GU,89351
06/24/4519,ZMEQYXWJO,EMSMSVKXS,17016HCPVYOXVNIZI,,BLWOK,UA,02961
69/76/2640,ZKXCCOTAR,ZSNWJAREQ,94686QFLAFOOHMQKJ,,FWKON,XG,96653
79/92/1356,OOPAAYLTP,FRWLATKHH,69749QXSVPQLPDAQM,,GSCDU,DZ,28347
90/42/5068,DDQSFMOAF,YIGXHWRMK,82035GYURGHXZCYXA,,VGVLA,BE,15627
20/99/7446,UFEUVSUUJ,XHCBHIQAC,41702IHCMHPXAHXYS,,UCRNL,XW,19550
18/62/2651,ELVADXKZU,EIAULEWDL,65191GNPHTXHZIBHM,,ZITEO,DV,43271
97/84/4972,IBBNOVWUJ,LPHGUDKST,22393OGKUTGZDVYFK,,EGRED,JT,70485
22/86/4613,WWLBTYYVI,VIBPYWKMB,75145HEVMHMXDOFWI,,XZJJD,TZ,94088
71/00/5022,CEFVFJSZL,FIEQIZWSP,37991DNCKVCMNGOGV,,SUZXO,YF,32177
04/16/1373,DPWWIQTCH,FBUWOGVNK,32686XFYLJEACPTTI,,COBOJ,ZR,33164
73/97/2190,ETQRXXZEE,MWAIPTQWA,37327VKWPZKRZHKXD,,WNCKJ,GH,52140
52/35/3267,UPWZNVMMU,CEUTLWWIX,01884NZEGVGTRBKHX,,JFDVN,GU,54456
67/52/5206,ONYLNAJBN,OTLCIJKPE,45240PPKPYEBCATSP,,NGPRX,YL,62479
63/33/2937,EBNMGEYYQ,SMKJFEMKB,69009BDCVTLPVDEET,,STETF,ZT,14117
26/40/6347,OKHYCVASC,MILECORFS,03453SRVUDWYRKPVS,,BMRJO,VO,26308
07/44/8307,ONAGLNRQP,HGFOKOPNG,66777RYUBUCHVWWVH,,RZNZT,DI,65205
97/01/5868,ATLVXVXDS,MBUTZNXKW,14845IXLHDYBMRMTW,,AKTAH,TV,23126
87/44/8740,XOABXZQQE,QJVTSPTGA,58613NVMVDEDIQFDY,,YLIYH,DZ,16228
13/88/8408,MICGOXTWA,HOSSXPBAX,88591BBMAIZBZPNBU,,JVZQE,RD,57094
23/96/8210,WTNTVDMLO,PHCQPIIKC,35247MZYSOIVBWJSI,,VQIDH,JX,68842
53/74/6386,PVTQMALSR,OWNIZMJJU,27630TPVFCURXOHHF,,ZFLEW,GJ,03652
78/71/0317,QKYWVZUMX,QTZYVQLEO,69805CJYJWUTYNLOF,,SNWQY,WY,45369
91/80/1290,BHVIFSQXZ,TAWFCCNOH,19528EYSOUUIEDDKU,,DDLVZ,IW,35255
07/03/2647,LPCYUUVGQ,UJICLLCZP,22809TYABPAXLQLRH,,NULTH,HT,27210
63/35/9815,UCITWCFLQ,ZHAEIBHSM,05081SYVGVSDQESBL,,TEMMH,SQ,70176
52/37/7470,IEYOMUMNN,SOPBMEDCJ,33720EMOAUZXZNDMV,,XLAHU,VL,36430
20/76/2726,SLANWBGKA,FZIBTFQRN,97391FKOQXUNWUEQM,,HIKHS,UD,39826
23/14/8881,ORKQGJKKA,JHWOUJTFP,37440CBGXFHCSEDCS,,PKNKJ,UN,84497
44/18/7077,PRCBPXWSJ,KTZPWMUTL,89207EOMIXKGDJCQU,,QSVYE,SC,04912
98/73/8022,KDIDAXJQQ,FLXAVTONH,45142IWETICJVCFPU,,WGHHP,CW,25945
44/98/4859,ORDRRUFIO,CKNTSMXSZ,18106KEBACTBJPWPH,,HBWTO,TP,55409
66/80/1181,KITXSTUPD,QJWRKNBPM,38726RONERBCZCCCX,,ZWOFF,WX,20347
30/37/4123,DGCFQROYM,THRTKYQHH,43693QDEGZFRCSOBX,,AOIQQ,WS,60018
53/43/2589,CXCZCETFI,XUWEWCIYC,76747JQJIFWLJHZNV,,CFKMT,OH,37293
67/67/0358,NMCLAUTSQ,CBTCNQQHF,60833QTKGYCCNPFRW,,GNXCF,CS,09163
55/59/6077,CRNDMPQPV,ZQKQCUHBJ,94264VBEJAEYCDMZB,,REMOL,LJ,99353
91/12/0556,RKYPQMMJM,ZMHSVGSSZ,90363EBYNFXDXUTDC,,MWACY,XR,20136
45/18/1378,ODYVOCQOJ,ZOLYROCGE,96702LQHXPSITNIEO,,IMIUH,VY,00597
87/66/2782,WRPUVMSJE,TDMYRNZNI,88872NGCTRWKYGZAR,,KRCVR,YO,81867
54/48/3461,JKEQCZNGE,WEUIIFMHU,32352CTTWPAGGFEJL,,CWJSZ,LU,71045
47/83/3328,NNLXGVUIB,PMTPUKVJL,46676JJSRWBKVHPGN,,JKSPS,XC,71904
93/69/5254,CTMFYIBKY,CEZIQMTAN,77912XFLSWSQUOOAO,,PMEXD,CY,11092
65/92/0843,VZWJPBURU,EUVEEBJFY,01793MYKGTNEXBBFV,,YNQMO,KE,42891
84/78/4157,TWGBLSHNL,RPSMGCJDU,03073NWIYPMORINVO,,EINPK,UQ,18730
08/59/0633,RTNXELWSP,HKVIKCTNV,78644IIGVCOCVDBHB,,TNQBQ,HR,06320
01/85/9872,KXWNXARXA,JJUGNUCWR,28795DUBWYJRUTFVR,,XSNRN,PR,97831
33/10/3314,RCURTXVFT,VPULBRCPG,55577NOPVJEWHADCZ,,HABVF,GP,51475
74/50/2574,JOLWNXPRK,IMAZUJWBN,04091OFMGXLLHTGTC,,PXFHL,MS,98800
44/21/1121,MQXELSITW,XJPJRPXOA,32120EEWYAAEBVVZE,,GPIES,LG,75904
61/35/9512,KAISSAHBM,SZSPRFCZY,15569GWPCQQSGKEET,,WDRNA,QM,99674
24/20/4426,BHNNPONRV,XTVUKCRZA,89109QAPIUTNZGFCY,,EHNAV,BE,42759
76/47/2971,IERTIDWWC,EMWTMZQCQ,93888AACQJYWHVTRO,,MNFMF,RZ,07444
28/19/3190,GTRSDPTDB,APCVSQSXM,71444WEGBQARVQBMN,,QBDFG,VP,88375
95/53/8859,OITMTWMUX,TLYLCVDPF,52015XKONAHSKYFQY,,EHIUN,XH,19567
47/94/7026,ZAFVRSEBP,PZJDZJPIC,00418CPJRTWPDHTOC,,MNKRK,GC,13222
48/01/6123,RVEQBCQQA,CKTTJYVUR,54664ECKRZJAZOFHL,,PZVKR,KB,14688
59/30/5713,PUUIOEXUR,AJQYZPBXV,04756LXXTFRHWMDBO,,IEXNG,XY,66196
68/54/2062,WLJGTCSLP,IHTUIZYOV,86734AEHGAGBRQHFJ,,GDWXQ,GE,69921
76/26/7950,PGLLBATTK,WKEUYKBCW,61494IZLNTFCESWSK,,MVHCS,XI,06613
94/48/1170,RONZLMKGP,XGQRUCRWL,19723UHQYJUUEOOED,,FOOUW,KY,06288
74/92/9293,PRFKORFFG,SRUWJXBEI,60959ENHTJJXTXDQV,,AUXLC,UH,63207
80/17/2808,YQMXNEMEN,YXMYSGLCO,33722UMMYMCHTQBHY,,OZMTO,RQ,15891
59/53/8477,QGOBUESFL,PEUJJSROV,29796MRZFTNMJFOTU,,QZWYK,IH,68281
97/71/4882,KIIMBIYWQ,UVVHLLQHX,12718IFAFHKSXFZUQ,,UTFZP,SA,97705
47/66/4580,PCYMAVYDQ,KIRKATYDB,21312RSRSCYWCQSGW,,RZIXQ,WL,15645
14/62/6364,JQLRBVMIL,VLIWERRLG,83338ZKMWNDEEUYOO,,NYOTM,RC,37965
74/84/0365,MUSZZLHUI,FMMQSIBLN,32590IPCIAELDVWEY,,TDDAU,ZP,43150
18/23/6336,HAWOOMQQC,MZZDVWOVJ,05987RTMDIMKMKBST,,HWHKE,ZL,65573
81/05/5609,FMYSCLNRB,AINGITZZH,70535JPWEWTLJEMFA,,UCNKD,GV,61123
62/54/0700,ZYJYVWMUB,ZACRAYCAY,70298QAIGCDSCVLOB,,RMIOQ,VB,35950
35/96/5929,MFLRYQVDP,MGOGJMLFQ,00692MHHKHTDZIYPQ,,WPFIR,CF,07609
14/23/8753,GOGBVSHLH,EZDSXSZAM,15603GELMXLJPKWIK,,CWIBG,IQ,04612
20/75/6984,IGDLBMUMJ,AFXMENPSK,57383QITOUCMUFJUD,,GZOCC,AU,68020
04/89/4780,UYUHXVMWU,LZDFGEMYE,69922CYZDGHSGURYZ,,DXAXL,XX,33402
10/82/6842,BDOMZDJGK,XTOYARYGG,15022WMRZMCVCEXDH,,LBXHB,EN,67266
13/17/7807,FCBGTMBRV,FIGYLRYZN,03626XZZBEKOMUPUD,,DVWZW,HM,59130
53/80/8800,GCAYBZQMB,CDUMRFQZX,98598STXGAUQIRXPM,,QEGCP,TN,56133
39/70/8259,VTYINVDRG,JTBIFZCDN,26717MLREIKRDDZZM,,NNLZQ,GO,64695
66/18/6858,CUONUSRND,LFEAZIZWI,13298BJTGTVZBWXMS,,VWQTM,HP,10051
37/68/5324,UVATLGAKC,YKZSTRQOW,03650YMDGULLIQTZO,,EHIFX,DJ,60859
76/88/3952,CNIWDCOTD,UNFNVWVHM,67895LBOPILLBADRC,,PLUEF,NB,95144
04/83/6928,JUCURADAM,HPTFYXNRR,21315PFJKZPGEGLEZ,,QSECK,MI,80628
93/09/1239,YLWITNNAZ,ZJSARCREM,41478BAUVEVEMNIDF,,QAGRD,PK,36371
60/55/0806,HEGDAOKCD,OULXNWQUQ,57007ZHUZMSIBZUTS,,VROCP,DO,61890
15/47/8897,ETIEZTWNX,RDWFSFWTB,74005CZFATPNEQNRL,,WEXKK,II,46315
95/45/9128,YFFCGYIAY,RSTLBAJDE,00065CRHUJDLWQCTB,,FIDUC,FI,61138
07/59/8754,NCQJJGJMJ,PCOGIEWEV,15264BOPTBKFKPUGU,,QCZJH,EB,51546
25/71/8024,SLIIPAGYJ,OXFOKGASV,10396OWRJQDUQCMPP,,WLAAZ,WM,57521
51/25/0649,ZWEXBOBJH,JXGGNSQUP,68986RCXKSFCUOCQL,,HHFUL,OL,55938
13/19/8582,GZSCUPTRA,GADVKINQJ,45798VWXCMDLTKTIR,,HOVJH,PH,80809
02/90/8027,WMQLBHEAX,BXFNNMZKZ,20395YEONHJKIXJSB,,OOCCY,RY,05680
72/15/4913,GDQAOSDPG,DSFHVKJYC,07712XGLUTMYGIOHO,,HPMJY,NK,71543
48/34/3024,GAUZPBEZN,HXEDCGGIB,02481BNTOJFEHUGIQ,,JFDCG,TT,95778
22/50/7157,LGHZFOELD,WNYEEXAEX,78151ERBHXIGHAIMI,,LTYUU,IK,26038
93/79/8156,QNTDRBFNV,CBRLUQYWA,02214OSGWQGZZFSFM,,IHOFI,LX,51863
73/89/3224,DWNTZULME,YHMSGBZFP,81763VJHYWZEISFPM,,WKTTO,OK,48607
74/67/1993,QLOULFCXW,KJZCCFTJZ,48551IYGPACNCFNLY,,QJBWG,BF,96384
84/99/4887,WUARMYTUI,WGJGOEZPD,69690TNYYXHAGDRDL,,YFSXX,SB,91156
19/76/3805,CQLIZHWNE,XLJTYLSFW,05848ZWHDUOXRQGFG,,OIKNO,QR,04375
48/25/2686,UDSLIQXXM,DBAASGMYH,28088JBRXXKWYRTVD,,YQBTT,KR,12231
64/32/8494,CVHKEOXFB,BUBFUOCPW,79320ZEBEUEJGNLWU,,TZTSG,XZ,22923
57/06/5641,FDDEAAYJV,UVUDAPZBT,08249IDHOGMFZMAGR,,VCDJT,AB,31003
51/57/3722,JMMAGKBUF,QPXDHXGUJ,15505ZXDHQSKFMPFP,,JBXIX,PA,69425
88/98/1104,GXUNFIPPX,TISEPGKCN,96658FJYEBDPOQVMB,,FDCKY,EA,44127
89/01/6911,VQWSPBNSD,SWJXODTWP,39921DUVNIEKJNPMR,,RMGYM,PA,98191
51/25/7899,AORDUKTWX,QHESNGZZF,73158HNBIIAADKSCK,,ZEGIV,QH,64837
49/53/6311,LKVIOMDTL,FJHVYRYGZ,99756GRUWYPVVRWAR,,JTISE,MW,22121
79/33/0417,JTNFYJBZQ,UDPZAKTCD,39345DKOPYFLXLXKS,,CZEUP,EM,25467
01/47/7205,CDPKANFTQ,LLQKXAFMS,59506HWENENBUOZCT,,MNGKU,WP,90188
19/27/1235,HDHGFAHCK,VOKEEGRXW,37023ZLBCLBOOYJUQ,,JRIXP,LQ,87514
04/62/9927,GEJHCPEXZ,NTVNORNCE,58788LQIOLGWYMZPU,,LBQFP,MR,77525
84/13/0865,NNZSHPULW,FCQJZMVFD,86982XAKMORSVRRJK,,IMCTT,UB,71299
72/04/6492,FIWHINJRH,TTRQUNFUP,88295OLJLFHGWYABQ,,GCWWT,NZ,79460
23/48/1349,ACZYRIDAJ,QIAEFNBGN,75144SIYYZWGPEWJQ,,UZQOC,EW,59134
87/09/7926,KZNHJMIXA,AMZKBXVZZ,76702XVHCBETFIRWT,,SZDMA,OV,50157
04/42/6307,ODNVAXQCB,SYLBKFXNM,69048UMKZXCECOSTU,,PJFRA,NL,98152
75/08/2318,JYYZTDDTT,WYGQYNIOP,30919HRIFSMHMPAOB,,PMDYN,EH,91271
63/68/5118,NBSHMJHUX,OVZDMYXTZ,90501QBCJXGBMJTTB,,OLETS,JJ,02512
91/20/5466,CTBVNHWEZ,DACRZOMHP,82525WOFKBLETWYJW,,SMWRU,WM,00840
78/37/8224,QXKXPTSDS,IHCVRNLTZ,38649NCJBOIKHTIYJ,,ZIBOQ,EK,77969
35/66/0850,ZASFPFWFO,JQUEEQMRX,80367MWKLWLXWYNTO,,YPJPI,SA,83973
58/84/6228,VNFDQDTLD,ORCDWMQGI,68856MMULKAVKGQGB,,ZXXLY,DY,76770
08/04/2432,MOPBJNUDE,YVEHWMGQW,08308ZZHTJTMPNKGO,,ATEZV,PQ,74237
34/44/1293,PIXVNABKN,OBAVLWLGE,85994XDKEBKAEDQXO,,IYEEZ,FL,14513
84/10/2747,QDITRIGXH,XEZMRREPI,01008FJRRBHEGTTCQ,,FDRKJ,DZ,36107
94/16/2637,QEXEWUAIR,XLEBKCOZU,54854QOBBZIDCHAXO,,WSIXC,SD,86653
73/74/7322,GZQFEOZXD,LOPGDXLMT,92678BNPJIOBTGZBU,,POFOC,SW,15314
05/31/9430,LXDRRQWCD,DSRSBEXWL,89054FKFMSVJHFIDE,,DWAYP,DB,90745
25/75/0872,QNLHMSLLU,PFIEJFIZM,09520IRPXRWEDTNRU,,XYFUD,VM,62539
00/32/9268,NOASAATLZ,QQOIWWYBT,52738YUKFLGXEZPJI,,LUQAE,YD,76224
65/38/1911,QDFYFZQSW,PTHAQIGJK,95659AGJBYRTLCBXU,,TYYCE,BR,24407
26/69/0228,UAQOBXIXS,HCGMZTLQE,32403NSIGZKDJTXSO,,PNRHG,IX,89462
40/71/9373,NVYCHGUOK,PMOUEYJSL,84923GZGALAMNOFYO,,SYAHP,FX,66530
77/75/8278,MLINKKRJN,FLLAWTNNH,27959AFTIZDTDGXLD,,AEUVL,HY,72266
42/97/8121,LCJZRXDXE,NTFOYFXHG,84272FQDEFQPIADJD,,VIHNU,SE,32017
08/64/3751,MAMLUAMYS,NBQJAAGNH,05990LOOUSJGWIEBE,,MVHPX,UN,66866
21/73/0902,XVFYMVCAC,DZEABIFQA,07308UWJSMRONXDGS,,RWMWO,BR,96138
21/59/5980,KLRMCDDWL,DTWCHGLRS,90599LDBYYBHPTHIO,,EOSNB,FK,87733
20/79/9001,HRIUIKSLK,GCBRBWHOC,47829DJDJAXWQEOQT,,FMJPX,HY,88987
73/31/0084,GPRDBCZBN,XZXCELIOU,75304EPZNXNHCNYDR,,VCXDL,MV,36621
73/94/7797,FZYDUKAFR,JSCEYVYPB,10466WRUXAMQMGYQU,,PSZYS,JV,88044
37/77/6205,QSYSTOBEO,YICBYVVSL,89726KWOPEAVVXYDO,,XSXGU,QV,91716
87/51/3161,VHEJIPQWR,TFCTWILIL,57409DHJHBARCKUEU,,GVSLG,IR,53012
69/65/6853,NDNOTLNSH,VOTWOVIQM,22766TWCBIBCTMGUM,,VDGTT,YN,29072
21/28/8903,TYDEDVNXP,IXAQLPZIQ,39812CFXGRYPTUNAS,,JCQOY,VP,71142
48/13/6238,ITGLNZOBT,VPYBJUXED,59890GTVAGYEJVNMH,,VAWNA,ZF,36693
08/17/2464,IZBBAMUBQ,KLCBQLWCC,63892THNJBGAYPFMC,,KBCGB,WV,25857
89/86/6486,DYEMWQSRJ,KXUDFKFHR,23666WWNAUUWVXDWX,,CXKXS,VN,14150
69/09/0700,RAVUXKESN,FJIWTOESI,46237WBKGSHFYLWWA,,GHSIV,WS,29538
33/85/1973,YLXSBMUON,BBZRXOPEA,56948QHGEHBAKTXYR,,RCDEN,YG,17210
19/64/0093,KDHOFBARO,OCOIABXBK,89843CRJQOVOVYEIM,,XYGLX,GA,69967
58/01/8874,TQLLMPONX,FILXHHMFG,30734QFJODDKQDLVM,,SQWIZ,GV,23599
81/85/2903,VYNFUCFWT,QQPLWDBIL,65112EOMXQKNFHQJL,,YEVYU,LL,94713
56/54/9881,CHYLJHCNC,NIASLNAHT,01436PPBETNRQNSEG,,KZPQB,YS,55254
97/87/8065,GUARTLSLS,JSZMQVLDB,00990ZZYGFVWUUWDG,,MYGZV,RJ,10555
30/76/4206,YMXWZDPBA,UTAFWSEFH,18359YPMVAGVLXAPQ,,CGOWD,UQ,64536
09/98/0095,KRJEDOLYW,CVRBDHKDA,12953JVZOUZLXXKJD,,LOLAV,TZ,36827
75/05/6510,DLMKHIKJY,POGCWHKDB,01655CRJBAZRHXGQZ,,FNFKE,ST,71654
14/73/0840,YZAZMVYSE,UZTHNGBIV,67627IVLVNCLRPPOX,,YYYCB,QP,70286
12/76/3400,RAYIVUJAL,YMPPQMFNP,80288RJXNCNKSWQFW,,ZIBGH,SE,02917
26/62/8975,YVTCBHMWP,HJHUGRWOM,75624CONNAVLFKZAE,,EMNMX,WT,85486
05/90/2095,LXNUEMNXM,QATGUABCP,75504ZJABGFGSTYRS,,FRCKY,EE,18759
50/22/1789,LRIIQHVHP,KOAPHDVXM,41784JWQSTIKPEUCJ,,AOAQX,ZZ,42291
55/31/2167,LXFULMBWC,HVXTOYDAV,00992UXXYZXSDIQOM,,UUNKV,WY,83965
67/42/8023,KYLLUITMB,FKYBDURZX,42695CFTUFCROKDKY,,OQTDC,GP,55470
24/81/6106,THGNYRNNJ,HYABROFOR,55577JWKZIFEKKRBQ,,EGYZO,DC,95675
08/49/2877,QGCLYXHEZ,DFDQRRSAZ,42925NNRJEQMDAQHT,,CCWQP,MH,10466
31/61/9708,LJNPKRFQC,RZINSKHJL,38981SPDPAVSRPDWF,,JSUPL,LF,75036
71/11/3103,QMARXJPYI,SNVRXLWDL,88043MVOSFWEUKZQQ,,JHFSO,MI,77441
90/64/9408,JYBHAHUZX,HZFYPZLKX,17120WYXQXJIRFMBV,,ZCDNO,KN,42737
07/04/2430,YYGICEULD,PXPCRMNPI,47982JTKLUHOJGLVW,,RCNTE,QY,69476
81/17/2081,HFIXSXJQV,CUOFOKSUS,24650FXSBVMDLDTDB,,XPZGJ,TM,95471
92/63/6986,DJGFHJDHH,YGZOFPQHQ,05546AZNBZTUHWZHF,,ZQJCH,AE,92832
35/03/3552,BDJCJKNXW,JWTORTVEE,99653XAYVFKYQVTHL,,YQUEH,YG,73207
73/07/0919,SMLWBNTGQ,SUAGRIRKE,56270JMVLFQWTYBPN,,FFCFZ,MK,46658
02/65/1333,IRVWXJENH,YXVZYVTJS,02166RKGSTGVIIXFQ,,JFEJO,CD,21072
89/56/0802,TFFOWHYKU,NYLAYIGPE,34881UAKOCJAHWLDI,,YAOIN,ZV,56614
63/70/9888,TKNADSXKI,XYLHTALCO,70851QMHHBLPEURGR,,WUWSG,ZU,54420
94/86/9535,HRIMGUGHS,LJMQMHLTA,74714ZJOHBNMVGJQQ,,JKWPJ,VS,00734
01/48/4332,WEPIFRIJJ,WSFRPBYHY,87969CLOJSTVKNQGA,,GJXUV,FT,29534
55/51/7231,JZLDHYMZF,VBXUHLESS,33529SZTJUEMDIIZB,,JTSOM,NR,54462
74/76/6681,OLNRPJRAM,QJQTBBVDU,26497TUNAAJQGBAQR,,EBRCH,XH,43043
82/69/6391,HPQWWTGKW,BNYYXLDNL,80170CCZZFQYZYZEQ,,IJBUC,ND,92831
03/23/9867,IWRZABLSO,ENCCJLTRM,11754RJXNLCWENISQ,,OKXDQ,RM,35833
08/10/7094,NLPORNFPZ,AXOHIBXGG,94353RMPDETOAPKZH,,NLPCB,FJ,89536
08/61/5714,LSDSYVYND,FWBFVUQNP,99828RMMDJMQUXXDF,,ZVOLW,YK,49428
89/94/2763,BNIWPZOVA,YRRQOIXPO,81724ZNWUGLHYGANM,,XVHAS,GD,41027
15/89/5494,KAJWXBXIF,RHULBWAUN,35406VWIQAMIPOTYM,,OBIHT,GT,40578
47/73/3740,UEOKIGCKO,PGSQXBXEW,00705ZHHAZDHMRZWK,,MOICD,QI,36004
34/89/2739,LUFJRXMAW,SREIVAGJB,75376FMCEOMGCUNZL,,HDBNA,ZW,65001
07/66/0245,PMICUBSHW,RGVSXAQFX,06902USKJKWTHRXSY,,ZBMLD,TE,48458
53/53/4286,YUFIUDVCZ,CFBXVLMYO,22074ONQLVCOARVZW,,OGSCD,RS,94882
78/86/2781,ZZYVCDFIL,MULQXJEJS,56959DFNGLMZJGNHR,,RAZBX,VW,71676
40/54/9263,MRDBCSXIA,HCGJRESLY,82370ELSETQSRRHXV,,SEFFM,YY,78233
01/53/8584,NQDQAOUQD,JZWHGWUPT,09787PEABODHYLCRU,,EAEHX,RR,25911
74/58/6577,KVDCZQVGG,DSMCDRXNX,30807VGMZAXYCJYWG,,EJSJQ,JZ,71711
84/32/7583,PMKWWWBMH,BODXMHYWH,07585VLJAPBZJNKEQ,,VTFSQ,DM,02741
54/39/4310,VVLCHTENR,LUCMCIOMR,32794DFFNFZYJYMTX,,JOMTE,MG,22177
92/77/1819,HBLQHXYKV,ZMYRHYDOA,67336OWRJLELQGRFF,,KWXJY,XW,87441
88/81/7922,YIFRJOUWZ,GDSKJKWZM,93816CHQZBTCHMTKZ,,BEZNV,GV,16653
94/05/9999,QVUDXBVGS,VMQIDHNAH,80305XNOKARETHROP,,ERLRH,RB,58992
57/77/0551,LRKHDTJZS,ZVBDYAEHO,34429VJZWJIVPXQHO,,LFYPJ,OV,42006
13/36/7591,JTMCUPUDS,VTKBYMNCS,68673PTVSTPPXRMEV,,KFGBU,KL,27925
44/22/7134,KORSNPGQK,AEOOKLBYZ,77488ASRHEDUVNLQP,,TUWNC,LI,29426
44/68/9848,CQNQRGFCL,TCWFOBNSR,12740ZNUIBJRKKFPF,,TPUDY,VA,71181
40/59/4099,CYIYROPVP,KJPUHIJPO,65794GVWALYESXBUP,,HSCYL,GW,78163
46/39/2291,RWABKLNQD,BIKENYLIJ,87528QCLQQGVOFNLI,,CLTXP,TS,97190
57/35/5980,FXVPXJNEX,XXYRQNEQI,44317OKTSJPPFQQIU,,VDFFR,VA,71813
59/57/1698,UKJNVDESQ,KEFVVVOXY,45376YMATXAFIDAVP,,PSWSN,NT,52588
50/18/4731,BWFHECHCV,LLFZOLGNU,77129KFKNXUSFTLOJ,,FUEAD,CE,08632
29/00/1430,XAZZLJWJR,BQSQOJNJM,18410FRNNQATGQHVK,,ELYYW,ZH,28518
25/77/5163,XNYZAMZJB,PPYRXUJUB,70091RZDBVRKFVYZM,,JXFIJ,HH,81500
38/58/5469,LEWARVTGK,SJIUDVROG,98680SBQBALRWNHBU,,RPZCX,EO,60200
83/63/2914,JXWQDEVFB,SDQBFVGJL,59205DGPZQZXPBMOT,,YSBIC,VE,44940
31/28/8956,AVYTQBJSV,RSLVQBFYC,24138JQXFHTVKUYFO,,ALKEY,FB,54321
58/42/0559,XPWHBFSZE,JMAFKNYRK,23317QNQQAWSLGTYL,,UTEGZ,ZC,24495
63/03/1630,LPPJGYVDL,KZPWXBQMH,87742OSRYPEHGYVZH,,ENWJB,TF,58647
02/46/1789,IBCLLBIDG,ZBHZGXHMT,11692KRIEIWRHTWSU,,MRTSE,GO,16243
53/25/9179,QOFDSPBOX,UNPKZAMIQ,47809XGEZQYNZKGUG,,YFXML,VV,01258
02/62/0088,DVPRFYPXH,MRXOQFTCZ,41522BDYUPBIDKMRU,,MJQWE,RD,00094
75/66/6653,TWMMLPMJY,YMUDJYVCQ,64880FXLYGMRQEKAD,,JIZJJ,OI,34841
08/68/7720,RIBPQDJWC,AUNLGSTQF,07673QNXZWHNHTGEN,,EALWM,TA,10983
81/07/0929,KBQMDFUMR,FOVEBAYYZ,55061VMKFYSOBHRPR,,UMVLV,QY,35701
25/39/6211,GDNMFAOTZ,LQUYRDZXK,80097HGVRNAYCKZUT,,BRYLW,SW,26258
25/96/2306,UBLFCNBQR,JLVXKNTZP,58891YNHCZMYITOFV,,AUGVI,ZM,51971
65/90/6574,TZYNKSKQQ,NNEZVLXZC,83446SGWABVJLWATQ,,KDXFT,YR,45098
21/08/4325,HRMBCQGAR,DBBBUCMDP,19004XZPDUKEPNHRM,,BWKHQ,HA,25523
84/65/4252,OZQMVEZCU,IYYLPDSZJ,73998QDENLDIYGRFN,,QKMFN,JP,29071
82/56/9494,CXCMJBIJP,ZDOCENNQT,52023EMDRCROQIYXT,,DNADF,YZ,95915
92/61/5273,SKPBPDXWM,HCGKLNFCG,37471UEKRHFXRFJHL,,UPLAZ,PP,95718
71/41/8891,UXHFYMTJR,XDZEUCBWL,66535GSQHYJZCWOLU,,RPEAN,EQ,93852
70/50/3974,RVWJOQVHI,YTILIVOGV,52407FZPBUWUXEBBQ,,CYBXK,QP,88420
06/44/8170,OABQUPCVI,PDJLHVPFP,82261AWQLWISRJQVR,,BBENP,NA,65892
06/15/7408,OJONARFLF,COLHEHWJA,79747HWYREUEOZEYU,,WAIBY,QJ,18883
04/53/4365,GKDODBAAV,DNRHPIPVY,61387XSLSLQDYIISG,,GRCSZ,FP,93809
80/56/5927,IZVMMLDWL,DCPFDPAAV,87001GXKUVBFLOKWX,,QGKBW,XI,45849
65/54/0849,DUXSQNLIB,OKFPQFFEB,10953SQLDVAUOCMXZ,,ESNIJ,PW,25872
91/66/3214,GAQTCMTLN,VPVWUVHDZ,28493QVNTCTTXPVWG,,PAXZZ,OB,74280
33/25/6881,JATNADTCN,DIZCKZIIB,14915QBOHNGQGWIWB,,SHSHA,IH,22159
70/53/0318,QWOSCVTDD,PNPWZUXMI,50710FRWKJFOQSUKE,,CARXL,PJ,16716
37/90/8861,UNSULIRVM,BNHITARUS,21679XRWLDQRITDAH,,EFMTY,TW,03643
51/34/1885,CEAGXRCFV,CASMTIJCH,31458SIXVKJHHQEUW,,TIVVD,KA,70557
68/58/2033,AAYJDVAUY,DSXKLWSHV,22789XWMLOHWGXMLR,,VJYMO,LQ,95693
97/31/8760,OQXWGKPAU,GLIKOFXOY,77672CYTXQHSLXEBJ,,RBHIV,YZ,65015
15/18/6213,SBMSWBNCO,WARHZSHYJ,75767EDQPNJGTVUMA,,PEHYB,AN,14823
58/86/4699,IRODAEEHC,FIHQTVBCB,02247MBZZQPYEYILJ,,AKOHV,FP,08135
76/33/0959,ATMLZRBMH,APMHCWGEP,44843DOFMJRRRUAQU,,DPSRQ,YS,72174
36/68/4273,OQQNKKVNG,NGBNSOZNO,92435UZXOQHNUERWG,,USTLP,YY,55145
78/57/0604,UYHASFGHO,IWKZPAEZO,81810NHNJDDCPWGWI,,JXSZH,XW,22899
09/71/1180,NCYRUQNKS,TXTVDOZXB,82420BZMTUTHUZJXO,,XLYHR,CF,33400
29/42/1314,HHXQPEUDX,RWSCMOWVT,63092KCILXFAAEEII,,IAYWV,GB,85187
57/87/7046,TIVWMMHEG,ITICPGXJE,23868GSGBKTGFTUDR,,EZIDK,AD,80930
42/62/2195,WPFZTPQLN,CAVNJRRBG,81538RUBHZXMDOJPT,,ORIGR,ZS,50211
29/87/7904,WUMSLRYTC,VIYCFKLAU,68160VCPNAWHQOSEU,,OCHLX,NV,58837
88/62/7381,QDOQLCFUZ,EOSUHJEYV,71486FPDPGEJZIGGH,,ANLWF,YF,71715
50/63/5690,KAQCMMRNM,AHQAJHKTA,50956LMWVTNXZTREH,,LGSRY,DP,05054
81/12/4081,YZZDSKATL,RRXIQMSFX,71564NEMONNNZLMLS,,HYULN,VO,26818
29/98/6594,HXJVEZMUE,JSORGALSC,22336DYRVTAAOIYMG,,QYXYF,UT,67509
44/44/8921,LJWRKWWZA,WDARDKVZM,43037OEYLCZCYIKZZ,,WTZTP,UN,50089
15/25/2264,XFFBMTRVA,YSKLBOALY,43963XTDNWBIRQXPL,,FKBJS,NF,45217
27/05/5380,XETWILPPU,BKDXFUAAZ,62630BLKWXPIDLPYB,,UQDNS,GK,91187
72/26/8033,EZOQAUANB,PGJADCNPQ,37006LOCIJOLFSIUC,,FVUZU,UE,61862
53/50/3983,RNENDESPH,IFYFGPJNX,82737XIFCRMYAUJXM,,WBDIE,AH,93433
14/33/3495,YVGGFHGCU,MWYJBLZHE,05376CORNZVUQCSNI,,UUPNH,AI,23352
22/97/4000,XHQGAIFAR,MCHJCFUVQ,56295YSJCJMBGHHCT,,NQYMP,UR,47375
77/44/9152,DRRAYUSVD,PXCEKKUUD,39722RHCEFWIZIECF,,IDOCP,VA,42284
49/88/7506,FVUWSHHQX,XKMAEENRR,14682RQQVYUXCCKUT,,NCNRL,SG,58582
70/33/4318,BYDKNQUQU,JBGKRNQBI,04037KCFVOJHVVVWR,,BGLTP,AD,43935
47/66/5110,YYTZHYPAX,NQLJCHBIA,15825XAYJHIYLNTTF,,SZKUI,DW,90382
92/60/9873,FQBDHJMZK,ZCTYFKAHA,29355VPRWGUAYHGVP,,YSNHE,PV,23459
13/34/4791,YBRPPAHMT,ZVITRVYDR,21734VPSKRZWPCPGM,,BIMYL,UE,73996
71/17/2762,OKSUSURIB,DQFFGRUHS,80424FEIBOJNSLNBE,,PBWTV,NQ,23942
88/22/7521,YDLURNUSM,BCFDAQQLX,68093BJJEOIOMEUWW,,IJBHC,BX,60035
31/40/3523,ELMQLSYKJ,DHESBGMUZ,09473YLIFTUWLXAQE,,HOWPO,TU,02767
63/77/4042,ASJTLIAOD,EHTKYMSIV,78240YUYUGQFDGHXP,,JXUTQ,DQ,60032
44/87/9422,PPURGUMDF,HXKNUYZJU,88447IEANZCIVTPTO,,AUMJS,QC,96716
77/96/7227,VFWVKPVSA,POJUCQQAV,22017JZCEKUNGRSTK,,HWKZV,DQ,65481
06/16/0111,QPCFIXESO,PXQXKCEWQ,24490KLJRCOGQJSYL,,WFLXF,OR,77148
50/71/1471,PUXMHKMRR,WPMUBYSIN,17130GPDLSAGZNSGX,,VVTLQ,FP,69417
01/56/8679,ZKNVOWTJO,QWNXOLTQG,33483JLRFYGKRHTCH,,ZWLOC,JD,61953
15/65/3148,AECIYKUOP,BLNLCGBGQ,20516EJHZCLZFXLPT,,OHRHI,RH,04395
25/94/9679,XRWTMBZCL,CSLFBRFPF,39061YEXZLGIHNCJC,,PDRWF,SR,68140
06/46/8993,FQKVDVUDL,MRXIOVVFW,67998HHMEVHRQSSKU,,TTGRC,YX,78681
09/39/6900,SAUXWHCMS,SBBNJNOIY,41206VDJGFLPBDPOR,,YRQWR,OB,25897
77/92/6765,BHZNLQPYY,PRFMBZFIY,94362XVTGHLKAFNYS,,YYTCW,NF,87889
81/76/2304,MPJJOPDHD,QXTUEIKFH,40579QQLNXKJSMFMQ,,LDTAK,WU,88673
61/71/8477,GQZBRSUMO,SEJZNRHNO,62360QCCUVWPJTPXW,,PRLVM,WX,52573
80/00/6314,OBQMLYUJI,CLEYNRPEP,87812KPDFXQWPXCCR,,SETTQ,TC,09115
68/76/9729,KGEJAQXJO,QPCBCEJYZ,00042CJVXCTRFIUCP,,VZSYO,PU,11652
51/01/2832,FLHWHSUBM,WSHNIGPDP,36315ZIGXJNAVXPSD,,FWLVG,UK,86178
83/40/8967,GYZUMZBKY,SCFWKARAB,47754DJVJUNKKXUIQ,,FJNWJ,SY,45175
02/00/7913,HMOJZPSLR,LEYWROMZJ,73539LBQFSURRAIAL,,RPXDS,AK,19607
70/66/4293,XYRFYRCKR,BLTYMWCIS,35082MNNUWKOCCEGW,,PPJBU,DG,94954
89/83/5613,NZMDVVFDQ,ROBHSYNDB,79966XRGGKCTZMXWJ,,POCQN,OP,01232
53/86/7137,YOXTUODCW,QKFISJDEE,05204XVQZFHDOTXHH,,NQJKB,BW,08535
14/46/2027,EJABSJZDS,YXNWQDSOH,45678WGDGPNTTRZGV,,RUXFQ,IH,54567
83/63/5248,LLLAECDPQ,IDDTAGCWH,69655XDEEPPTCXWRT,,SSQST,JP,22384
81/54/4562,KNCPDRJIR,JTNVTGOVW,12837XNETCPPHGONL,,ZSEUH,EW,42996
37/78/8601,MPFHVNGCJ,ECXQDLJUA,81865YDMPYYXUWLDP,,IZQKC,DH,39338
65/06/1148,NELEXXMJV,IWHHWSWRA,37183YWDGICECOFQI,,AETDU,AO,66386
37/46/9661,BOBVVQIGV,MGNGAEDMP,24986FTGWJLDGWCGY,,AXPDM,JW,24574
23/91/1140,QUPRPFIGE,MHHRACPOF,98598SZZGALGRYDWW,,NHXGX,SD,63222
54/44/5035,KCMPIBDLL,VHLRQDJCP,76374IFNXZLZLTKTT,,VKHEA,BK,90877
91/08/8117,KRKANQPFQ,VHOCPDGEE,99580LZPHHKAQNHCY,,SZKST,WE,13007
96/90/8256,AJQAQATLH,YVJBKSBVF,40583AYDZVXIAKYER,,QBPHZ,FE,21670
42/74/7720,DJKRNPOJJ,SQEXVOVFI,00703HAUOZNMHQQFH,,QLYGI,JV,33568
01/70/1865,PKQGXGRJZ,YGJOYQYNH,21085ZYCRNSHHNZOQ,,BGNWN,YN,27800
20/53/6848,GZPBORBMH,NWLIUULMV,93049KRFSIULXUCVA,,UGCWM,QR,29561
45/11/2772,FTXYFHGAR,LMVFVEZKO,96596RWYOLMAXWCNV,,YYLEO,VQ,94740
43/40/9913,UHZWLCYQW,GXWCFXEQA,03999NULRFVSVGCKQ,,LDZOP,GD,38097
29/99/9059,BKUZQZDUV,ENVWXUJEY,26764JAVVGLMCJRSV,,IHCXL,YR,86039
99/43/1295,CXSXTLWFY,XFRQUWIUH,42340TKBVBVRXQZIX,,TJYUB,PR,21910
86/29/1168,SNTROOTKX,SFPVZACWY,03349XDLSSWLSDVSX,,IOHGB,WV,04114
94/43/3219,GIHBASNRR,ZNSHMHJLC,29469UWBBOHIIFUFU,,FKRSC,OC,77470
28/60/5046,VWQPNSKSP,DFAFALRMJ,48235MEFDEXYNFKOR,,XSAOG,TP,68297
29/24/9957,EWBHMYFZG,WGOHNUKYP,67986DRJFOANDDZIG,,SXVFS,MD,66711
26/91/4198,DXEOETPSL,YXBDMNKPA,41141DEATNZXCLDIV,,AAFLU,BH,37763
13/43/5533,QNNSBLVBH,IRLEZXSFV,10285JKWZAVXSZNYM,,PAACA,OA,01394
51/34/0240,MAQIUACSQ,KUNJMEQWM,36863DOEMVCKHXPDK,,PIGCM,BV,88507
20/23/2732,HFXGJLAJR,HZZEBBVRP,81861GMVIEGQQVSIY,,OBJVJ,BG,45960
09/22/4495,RKDZZWPNJ,ZLHYNTRIR,11977WTYMNQNDEBLX,,ZKQLG,OB,01580
72/07/7865,XRLOIEXOL,MYNCKXXGN,64399BLSSTJSVOJFV,,IPIKM,AY,89587
89/09/0864,LOJFBBIXM,HBOCHGSZU,64901OOZUZLRVUYPY,,BZAMU,SH,01598
55/56/0892,ZPPWXHZCZ,IXVMFXHRO,65491QFTAVVUNTUVN,,NNOKM,ZV,67456
65/47/7741,HSZYSLZGQ,DNCTCIZPH,63453MRZWBZPSMFXN,,AKAEB,HR,89661
83/54/7447,DZJSCHMEO,YAHBVNXOS,87749OSUPYFGMNZKN,,YOJKD,NR,41668
24/98/1925,FDYKFKHUO,DIPUOVKGN,92498WSUOWHPHYNSZ,,QPBXG,HX,00737
62/55/9030,IRNXJSYMG,OAAKDCOTT,55126SCKWLOUYTQPE,,FZHVM,UR,41699
61/44/1320,ATOJEUCOM,WECLOYCFJ,13463SBDMIOKDONZL,,VJHKM,ZW,05852
80/08/0988,JKCHSQYJF,CMHFRKVNS,78778UBMMOQQKFSXZ,,EDSZL,YE,03680
14/48/4871,DVVIJKPCY,IJZQBJMGY,89713KAORXYVNAGEG,,OVVBP,PB,68320
45/74/6095,HNUZZFLQM,ILRRYSEST,26533DNWVAMEEVHVN,,RUGVE,MH,32878
21/93/3687,TIYQTTUFL,DEBLOUYTR,84831BAYTXWRYDIZJ,,MSKEA,MO,45225
47/50/2486,YDJFXBKCH,UNBNWJHFJ,88639NYAJDNXAVSZW,,DMXRB,DF,30635
98/91/5251,ZKEPCLXTJ,EVKYVDTGH,03736CIDQZLWDKWHC,,ZRKDA,BR,86814
29/19/5811,SIWOSWJYX,ESBKCAIPQ,63619MEWZEJTMWPIP,,DTXYA,EY,07346
54/77/2442,HLYUAFWZU,QAMVPLQKY,98585TJLJAYQGULKZ,,OOTWA,KW,42311
42/65/0461,YQJJTDWCI,OIVMFRKTQ,09052TIJEFJIBETWR,,LSHYA,LA,36159
24/27/0370,REBVPOBLL,NVEFRJGSL,57154DKRBDKSMTPBT,,HWTQF,LU,43181
30/63/8550,EYDHKLUIA,ZXOBCKDEH,61346JYYHMQLTEEIY,,GJWSF,UH,53226
15/57/8101,IEEIYGSET,LMKDRRTOR,97605AYEWZKUUSRTP,,LXFFO,HB,27099
60/68/6992,OFMZNFHXG,RVVIENXZG,10218DLXDBLVHOAUV,,XEDOQ,DQ,10479
50/61/6417,UOSRNPMSN,TIPMHQRNH,39424DBQRKQNGRWWP,,HJFCE,VO,74633
87/18/0613,QWBLWDPBA,HAOOQUJKQ,51797EWNSVJOMAGEE,,DUPCN,TA,90657
35/01/2421,MUFYFERFR,MGRJBWJZK,03452GEUCCELPAUEP,,CIPUI,SQ,04133
67/01/4080,DAPTDIBNM,YVLODKMIF,81154HHEQPLCORPCN,,XCCGH,AP,09833
19/43/7890,GIEIYMVWH,LRACIOWQD,23686TULDYGCZSHMI,,JYBJY,YY,96866
75/84/5025,EPPMFKTQZ,QYAQIYBQC,02491AHUYXPNSMMRN,,AGPAY,VQ,30046
83/16/1761,KWWZWACLJ,YSJIGXHBO,23590MVTMHJMTHLAH,,QWKCW,LR,35359
63/95/5601,WYSKNVSRD,WCLXGRDGM,31142NLWKYBVLCMIX,,IIBBJ,HN,82641
69/67/8222,WJKBXGOXM,XSVXOSRMX,17620YHRQZLFNQOXP,,RJFBJ,ND,50790
81/85/0471,XNVIQTDQZ,TEDXBNVVT,75488HEJCTIBJJOAF,,GWYFC,KF,91322
04/48/2528,CXCNTJQMS,GRUMCFMNJ,99503CTYKDRKHAWWL,,ZRGUF,GX,20537
81/52/5202,JDTMBUPAP,DVSWHDGMR,04441MPSRPLQSVUTH,,ETTPQ,LG,83217
06/76/7804,VDLATZEBO,GRFNVVJFJ,75432YKJOLKBVVCIZ,,UFTHC,VW,63338
28/08/4158,BRSBJBFQX,FGCYUJPRI,86714HSAOBVONLAJT,,IIQYO,DZ,75361
21/78/7604,FGIFHRQRB,RDSZYFGKG,97349EOFRVZBMXGZR,,FHVPR,WD,12897
42/78/1533,HDAUTVEJO,OQUMEKMPJ,81631AGXHLAHFCPNZ,,ITPKW,AX,10324
79/47/4219,WFEPFSRSD,KQBLMBIIC,06247KMHPSEEFIIYM,,FZFQH,KU,62054
69/02/4435,KVOFLUESR,TSOUOJLNP,51724FBHCGIELYQZK,,NDLQY,MZ,23466
05/62/5274,JDYYDLXJJ,ERYRAGPBP,88696HZXEUKLJZZGE,,KLJHP,EV,84380
10/78/9090,NXZAXWHWK,PYLQYHMGN,87545QROIUFYDEHKQ,,RETYS,BZ,84020
91/09/8231,DUKVSCANU,NLDEAPXLB,05356YZUUVECNGQLI,,FMSDB,VX,87772
53/33/5211,QAUWVCFYJ,FIIGIHLAF,27701ORWICSAVSYVX,,IQLCK,AC,01614
04/47/5673,ZNWMHWMMM,FBKOSVLPG,47435JUNPOZDKDWYC,,SYSRA,AR,85057
86/81/0156,NKCVMWPWA,ZHTMBPKUO,45601ZTGPKJIDPILA,,XENYW,OA,18348
52/65/9676,QWCVRQFRY,KLKBGSLYY,26606TTZPLDDQOGET,,EIXBK,WW,90687
54/79/4390,ZLUBKLVWL,GBPPPVHUD,21808PSTEOKLYOPKV,,SYBKJ,PI,13278
15/94/4356,FIWPHDBWL,TQJICABAK,92823PWUTCISYGHWL,,QENBK,VR,78630
14/60/8020,DLXQXEVKK,VQQBPFMUG,27053ILAWRFIUZFXD,,YVQHQ,PR,60441
33/96/2109,AMDKEHUBS,VPKKUUJAE,07021OYBJPHSGHRKG,,HDQNN,VO,25139
71/85/5342,WRIAQOEUA,GSBDAMHQF,79257BHSWBMFPIGYC,,HPXTL,SH,46444
96/50/7379,JORIZLIMA,UGLSRWXGY,23346DJWJXFBODQTS,,NCVND,CP,03910
48/16/6364,MCTZJLKKW,ZLURCWSYE,89450JZMTKFFTTHKB,,FPNCJ,HA,39871
49/52/5619,KKNKDRZEU,OTNWCGEJA,46401UIGGGQPPQHDP,,XLCWS,DL,43743
84/88/0773,ANIOFJSBG,VOQPZUPWS,26378SHEVOXFGDKUB,,FPHMT,FY,93649
69/38/5237,RARMTEFMY,PPLXHLCXJ,77109ZPOXSETSTDWA,,EWYSR,WP,58108
30/59/8037,OOVAMDXLR,SAWQVGAOY,81334HTMFVNNFWDHR,,JHWDU,MU,18091
77/16/0745,HFQJMEIOL,PDBEAIAEY,23546PSGPSIHPFALH,,ZKOOW,UP,09070
08/32/2961,CGZHTMPJI,SZRUOWMDY,73188JEHAAEAQTJQA,,FMAQA,IL,42755
49/98/0789,HIJHBTWZU,EUBZTJCVW,62673GACTFHNAEHML,,FQCAQ,IU,74313
15/85/9557,ECIUNYBEW,GUPMBAKCI,49595CJWGQQIUBJUY,,QIDZH,JI,25856
03/60/8057,HEXMBIMXR,VFOSPLSSU,92253KGMZHTPGUUCQ,,XQMZZ,IA,11559
04/05/3104,GVVFLWDWQ,QRCUDDXGP,39642TIWTROWNOXBT,,KZNMS,ZU,96406
69/49/4611,TQVIEWEFT,GRPPFZDBQ,03379PSONDIKPTTOZ,,JPCMI,LT,31781
60/13/0731,JDUKWQXKC,XDUPCUBQD,90247XVYKBJPWPMWM,,MBERZ,UO,97831
24/38/3808,IPYTEODZD,OHDTYMRMO,64688SBFKWALSZLLK,,RYBQO,JF,48277
66/33/5425,ZEQQVEKMY,MOWNIFCSC,68281MKFILNXJPCJT,,BQZBO,EO,66908
74/22/2931,CBECEAEXJ,EEAMLFKPN,94687QWZRHQDGBBDM,,XGYCP,NQ,72844
87/84/5636,JNSVRJLNV,ELTIWJZIP,88503KCTMMBTVBYKG,,KZPAY,TU,33544
36/79/1683,DIASERXCR,CFAFGXDQX,07435URMRNLYSXPPE,,GJVWP,HJ,72363
44/96/7451,QFGHKFHOQ,CIHJIQMIZ,63790YSPKCRVJPGAT,,QUBFG,EI,13788
48/59/4559,QLPIYVHNK,JESTVXRFK,28883WIFVNHOEETSH,,EJVHP,FV,54060
37/80/4384,JYMTNUDLA,DFKKWQRWA,19926WZARWUNEINAU,,AQXZC,GA,24441
28/37/3240,ZJYNCKQUX,QUXWKCIFT,11997LHRDILJKGAGR,,LBQCW,QB,49035
13/63/6187,YMBSYPUMJ,QUPWKKLCG,90338LCJCIVHLQOMS,,XHAKP,FE,46085
37/39/3344,VTWSIMYEG,VOANSLOPA,07901PFEPHWBSCIYX,,EXEXB,HE,21232
55/96/1457,DMZPGHDKA,WWSKXNKTV,90608NACQVUULMFJV,,BBUIS,HE,69212
13/45/5065,OWPVLBXTM,UEUPBHYHC,90313ZNPAHGZGQBRQ,,CCKXR,VK,20313
11/19/0365,KJYZXIRIW,FBXKUDHPT,40564EWBPQVFYOLZQ,,HBPRI,IG,04070
54/30/0254,DQANLSJTF,LDMJXGOQM,39046HMHSIEUAWECV,,QSQHO,YJ,00809
30/27/4043,PYBTFOGXP,MELOFHYEI,00646UWVPNYQUFLST,,UZLTD,SE,72982
92/79/7199,OJTNPRPOH,OQHABURCK,77569VHYJCTZVRWEN,,KSFSX,HX,71008
63/76/0220,UBXVNRHOB,SQXAMGUDQ,81573XVVOXEQSMNCQ,,ZAXKV,BH,81262
91/97/3517,LCKONNSQZ,VOWWBECZM,75941XHCBGVLBDGZL,,ELPJU,OZ,01750
08/13/4830,HJKYKHOZF,FGRNIJQUV,64366XINUNMZBKLNJ,,OPJMC,SB,32847
51/90/1958,VDAEEPWAK,JYTAJDMLF,94462FRRJYCRYEULT,,GDFIX,TQ,20553
68/14/9524,PEPFCABKM,KFSZCKOKV,53643HGRYEYVNKOKG,,XBXUB,EI,61873
09/35/9456,UITSOVDNG,ILQBQHUJL,88763YPBCFFBDXOHI,,FMZRK,PV,73474
83/31/9526,KTIFPMNFK,IGXLPQANB,40918KEWAVUVSAGFN,,QPUXG,TV,15968
38/55/4961,HWGMLPOQQ,FQPVFUWTO,11980FGVFWJJCLPGW,,UEILQ,HB,90347
29/46/4036,WJSQSQQVR,RXIDQSKFX,42338JLIPJNKZUGRV,,GOSBX,EZ,65504
09/30/6920,HGQARXEKY,UYOCOTJVI,96677COMTEQDSJLGP,,KCRNL,OB,04376
70/65/7694,COTFJRMWI,SKROZDZNB,54949BCMFRJNPAHBQ,,UXAIY,GH,68434
21/14/9623,UHTCCJUTE,UKHHEPVLQ,23198RFBRIYXHCGPP,,YTOFC,BI,47333
08/87/6682,THYGYCQTD,QJWFKMCDH,26239JVXZWYBXQGGF,,HGELY,GA,58935
53/01/2143,JTYKOJEUQ,ZCPTAMTSM,21278GBOHCIEZLGNG,,QPHML,IJ,18361
28/29/8909,HCNEIRIND,APLFJQDPB,14918XNSLJUISUUHX,,QHQEY,EV,09589
06/94/1364,LLJCZEEEE,ULXCZXYXM,15800NSAHCPXUDMRB,,METSY,KA,01921
82/19/3932,RGWSCLUNC,VNIGRPWFT,05466JYGKPQGMDOOW,,OGBQE,ZQ,49184
72/82/8915,EBEAEGJLC,UWUPBDIET,73680NMERCKYOQQYO,,JGONP,QX,34066
64/96/9193,WJCEOUDMO,TIOLJIVGD,64900XMGFBDDFZQPJ,,WJURA,MY,39081
20/59/2083,WCDYOVQRA,CTMROSMLS,08873LUFKTUMCPBQD,,HAQIT,BV,28006
09/14/3120,BYDYOFYZE,NUBPMUHQB,14620IYBLCCQITQGJ,,XXMUI,BW,18966
19/86/6271,BGHDJIZQK,WYIINFRVG,43936BWWNNFXPCDEQ,,JWLRN,EA,83348
84/73/7718,QWAFSTVMS,FONZPOXYI,66296JYTVCDUIVBAN,,HJUIY,YZ,04600
20/46/9225,IGVVDXQUM,KFGZZVTJO,11570QNIFTWDLQGTJ,,SZDFU,WL,97234
38/01/9049,SKDALGGDW,QWFWRNLPT,39748NUEKZTFQXUWJ,,ZURQD,JF,61648
37/83/9778,YZKPSVOIV,IOYEFYKCU,24899XMWLCLACSVTR,,ASFHW,KI,75134
73/31/9308,ZIXDBNWRI,VZAVEATHL,77448GLPIHSKLJDKR,,XABEA,BI,88289
88/13/2897,EDRZKCHGP,JNACCNVOZ,64360ZFBEPUAVGXRT,,UGBLM,JR,95228
69/60/7018,IGXGPDHMW,XJYWVJRFQ,98100WGXAKEFAHBBL,,EWAFO,OP,95572
79/84/8110,TCQIPJBEW,AQKUSMGWT,91610VGXCPXLIACBJ,,EJYBL,VW,43316
38/58/3479,OVVBANCAK,AIKXFDILF,87471EJWFJTRUIXAQ,,PHYWM,TC,20343
55/85/1500,EVBNJPIIA,DXIPIRYEK,84977NSTZGYAFXBYH,,LTMWA,HB,81347
97/19/8793,CKIIRNYZH,JAAGISLDT,78393OQOQMQRDNWTT,,BRBNG,WH,58017
90/99/4419,JUDRLMNPS,JUMZYLZHR,00696JSSUMYMXSPYQ,,ILCEU,LV,36044
69/98/0885,JKMSASRWA,ZBJNIXBKT,91654MYDVCGXCGUUV,,EOFIY,VO,26904
02/90/1269,IEFZEZKWM,FNBOHDGQT,37588DTVKDNDBNNXL,,WHAIO,RY,28627
64/37/8221,WYLMZBBCM,VSQRBIBSR,35386SRZFLBHKRUWZ,,KTQZL,JG,13664
23/84/3918,IYBGSEXNJ,ONVNWDVYO,95542MMDYFJQYBQYZ,,KXLVN,AJ,75926
94/27/4138,GFNNBPMZK,AIYKLMCIW,56966ZBAYBJVDQOYS,,DPHVO,GH,58552
72/09/3263,SCLVOCURF,TQMZATXGU,85830UABBFYJKMEFO,,MIRHO,DK,56781
52/76/5471,DUGRNWEKX,JYHEMPIPL,73587VLZKGONXTHLM,,JFZKH,XX,47820
13/87/2363,RKNHVGGAN,DHNOAXYKP,27193QLGEABTNESQS,,KJIPE,XY,32248
48/64/8731,NQWHTLLZF,UEUWZZYJR,59348RIHAKBADHELZ,,BLODG,BN,57739
44/64/4616,UVSUWEKTC,OORRQWGKC,83923DGEZBBMAQOFI,,JUUTW,BP,38300
09/27/4888,BXKZHNVTL,LAURNELBW,39481UCXZOTXEUISV,,DZJZT,VA,72547
95/82/2842,ASRPZQKKA,XMRDAVCBJ,02925KLPAGEGVTBOH,,UMUHF,MP,63623
85/62/0400,JKAOJPRAQ,CSNNKAZZZ,80369SCKDPNVJHKUA,,RLWGO,UO,54850
66/87/5072,WYLVTSYDM,EFHVNILSS,54032QVOZMAOLXUUJ,,KUDCG,BS,67464
27/05/4810,HNNGIBAXF,TAPDFAXXL,99644EHXMYHTRRXBP,,DKVRY,ZW,15984
31/43/3267,LZCQCSFND,GYGKSLNFP,87075QWTPRBKTXSDU,,SIDDN,BM,72483
60/34/2983,GCRGYOKHY,DPXKKHSCQ,87258TJYHKIVYCBPF,,ZBBBH,ZS,38647
11/40/3418,WFUPGLEYE,HJJLOJJZY,50948DETIKFPMZUJQ,,AKHBV,KW,97192
27/40/1752,JGOINAVJJ,HZQRARBXF,33791YHBGNAVQTVXA,,IFMJL,VX,99616
11/83/1945,KQEBEFEZV,WDQHPQPOE,27155WNPHTSUVEAAZ,,LOACQ,LZ,13751
45/01/0712,ZRWMWEPCB,SFQZZUZGC,47404RSTUJEQDHTIA,,TNHLO,BH,01315
57/70/9770,VQWLAZDCP,IMCDOAGHN,81649RWOPSEETOOHW,,XJBAC,FR,74318
77/75/2382,TJPJHYLLW,PRARNPZVQ,97779HZLCZZQYEFMS,,SWWXU,UP,59102
54/74/0055,EUQSRFQKT,GNDEPWNCN,75228ASAWPNDLYRTH,,DMYUN,IU,12823
64/14/7381,NGRJNZQCS,YRFCRKDMA,17465QRFDGOASYEYW,,NMFYR,HL,94473
21/00/7076,XAVPUGANQ,LCTQYLBUR,69821YRNOGRVCBWLZ,,HMGKV,JV,86004
75/04/5030,QCPNRBPTL,QNIGZKBAI,08385KWSDXJMCENHD,,XXOKR,UE,94040
47/06/8656,RMJIPSQPO,DDXGUPHYY,58854SIRVJOUKXVLP,,XSMOA,WE,17571
36/28/8406,SKHQSQWUR,PAZOHOLJC,04384FLEFCXKBSGLU,,VKLLG,RJ,84057
13/79/1735,CYQZVMQMD,KSZHKQQTC,73629LNKMQOLGTYNN,,PNGKQ,KT,70235
85/80/4484,QZKTJQCFM,SPKDGWOVC,40537OTTNZGMPBODR,,VFYDP,FE,26858
53/74/0643,FKNCIHUOS,LOVANKLIA,70767GTAZHPPVULDL,,EONNJ,JQ,38740
00/82/0511,UCJSRKCPE,ZSCOKJVBG,81222QLRLQUABOUAZ,,UOQIB,PW,39148
39/11/7851,XXHYCZPWX,KOFNGAEAC,52245FQOYGNBMWCAX,,JWLZG,KF,05901
18/37/2679,COCAHSUKL,LOLSWRFAX,95729TWFIUGYZAXAD,,CVGBH,UP,32555
11/69/1294,CAFOUSSFW,NKQIMWYNH,42989YGWVKUWTRVPT,,DBYRC,BP,37991
00/68/9098,ASYYYTLWJ,XLOFGECDE,08871SPABEYEXXNUS,,JHXWW,EC,30038
45/12/5329,TZQXLRLDC,MRRGRFZUX,62463BTLTWWUSEKDT,,CTIKB,LF,87325
98/30/8591,GHXQBPPDD,QLDVLZJJZ,37493EBPFQFWYTIRC,,GTIVC,EP,09753
51/74/7716,EFUOHMHLT,LCBAURRIK,19387UBRIRJKSJLTR,,YLHCU,ZD,46703
37/58/5046,LXAUAUVEU,PKZAXFZIU,67881OWCVJSBSWVWU,,LFWLP,RU,60921
90/82/1796,FAPVROLJO,FJOXMQGXD,38455HPVSQJVCDPZC,,EIFPH,AO,45102
59/74/8164,POIXQEDJZ,TYDASCMWP,57677YTICEKJVUXVF,,WEURG,OP,82623
16/74/3651,VCQSXJIWK,SXAHCUGPO,17038NURVHNTSLWCY,,GEIXL,EK,46444
68/00/7138,SWPGSOFRD,ZMNKZBFZU,67148SQYSUQBOTVJS,,OSDWR,TI,47609
93/69/1000,PCMHMIHYP,DNRSUUWUF,42602ZIYHFQUGZAIZ,,HQKLF,OJ,97241
70/88/6505,DHFHAZCVS,KJBTCITHS,36285GPWMFAMWNXLM,,LNFTM,ZJ,26920
43/71/0733,DJHVUAAGO,UIOQEDIYJ,57936LSLQRCPKBPZL,,UNMIN,DR,57479
46/00/1191,PGAGMUCDM,RUERWUYUC,45672ANLCIGSLBLHE,,ZVOVX,CK,56105
68/45/4624,XLNDZAMME,PSBTLPVZD,48508KJWGIROMLRWM,,HYJKZ,RE,70486
60/63/2909,DMBEUGLVU,GPSNTAFYT,67217XOWYYLWQHDEH,,TUDPU,FS,27902
04/93/7551,TZLSXINMP,PCOUGLECZ,31454MXEUTBLKQKKE,,SNMIT,TB,55138
82/54/4579,SEMBHBDGA,MYPBOJSLF,80237OENFNZZDZOOF,,ANWJI,BI,11921
31/59/5869,AQGNLXIZJ,PEPUHKKSA,98795QPWNKOKUTACU,,DSCQZ,XP,34001
16/55/3821,BUGBAXTSN,UFYGEEWPA,55902SCFEKMLZJSRC,,NZKLO,VP,62296
59/86/4798,EDGJZLEBY,RIZBWAODY,18586EWVZIYKSILBK,,LNGAO,SP,11192
06/62/5660,HMIIRQETA,UMPDJVXAV,61843SLTLSEDKTBMU,,JALIB,GU,91683
76/77/2259,ZBSTCONOR,GJJCJWBTT,10977PGOPTMDBVKQB,,WLGKC,AP,93344
22/08/7088,CDCKKLXPS,BWKGRIQCT,51042JTPSALPBCYEP,,ACBFI,PY,04810
60/13/0878,FMVZZBXXC,PIRPTPCQX,66107HVLAFYAOMAJM,,GQWLZ,OA,70008
50/25/4035,WLZWVFALD,IDHVFANEO,53961BLPUVOOQHCGG,,LMEMU,PT,37411
85/42/9647,KKIUSBCRF,DVNKEOSFX,21318CLWXLPVRSWYG,,FEHEX,RV,34839
72/21/5131,OHHCKMRCN,SORMJJAXL,11522HZOFVFZMOIPI,,SELBY,ZO,15627
34/03/4273,IAJFJHOPT,LQQVLNFHS,86504MFCFHEKVQPFS,,MMFJO,KO,04336
28/71/3047,SVUTGAEON,ZAFGWZGFV,46297CVOFMWTCUOZM,,BEVFC,XG,55985
15/63/8633,KXZPOUJAL,CEOLAHRIZ,09468EFIWOFQCIWRE,,KFRQO,TD,80302
72/29/2731,NVUPXMDWE,ZNJTVIAOV,93972ULCIJBCGAFOY,,QBBBY,AU,55030
52/92/7331,INGSLPMKE,BOFFENAZL,36383TJZNSZDEQFOU,,XNWMQ,XS,03431
25/48/4637,MNDSLERYF,VWYANHXAG,83923RRSSRRQFYOHA,,HRSJN,EY,04811
68/68/2437,FFVQCLCOP,WEASORKLP,23048PIKIFYOLEESQ,,MJECX,PX,16737
43/57/7840,XEIUDFNIN,HNAYATLWM,24790HQAATXCRAAMK,,XBGKL,FT,31074
15/91/6429,NNYFJISGR,UQCCGFBMI,33860CGAEDQTXLVCJ,,SNYSA,MW,29680
86/90/4495,XBCBMWNLF,IQBHTIUBR,24793OBZNTNWBGBIB,,RUSET,JB,70065
91/40/0379,UHNKHKPCJ,FJVJGLGEF,03865FWJQRQFNWWWN,,LJWKT,ZB,04812
50/54/8265,KJKIFSALO,KRTXINGVT,34606YSAZUYILMYSO,,TJMEY,ZQ,23801
71/91/3482,OLWQNQUSO,PGTIPSIWW,99763WYZIYUOBCCRQ,,IWBQO,CI,20099
16/42/3901,BCMPFTKEA,BFHAWJEPG,86541PMLPPHUGVHMT,,BZXYT,FO,89879
98/63/0163,UYEUTHAPV,TDYIDHCJN,95307LJWPTOIISRSA,,KQKPZ,WG,78294
67/54/9943,IRPRMGBBQ,WEBUEUWLG,49009SUDBJPJWDIAS,,XGLZU,PS,62462
75/48/5217,CWNMWPCEM,FQKVPRQUD,93957RMHRVLJEDMPB,,EGPEH,YD,80942
37/56/6758,CVMGMRSXV,JGTEPWIXU,63429HZMAZKPKTREK,,DPNEK,OI,61435
07/91/8556,MOYWWURYF,MLMCFSAWT,33526YAIXMKSGXMXP,,EGSGS,UF,71443
65/57/9521,BQENCVUIA,IYHOXGKXT,05816XFOOYOACYTWP,,ORGWP,RQ,35131
30/42/2386,BXPFDBAJE,QOUKBJIOV,79509XKAMUGVVQQID,,JUJXQ,QJ,07852
12/63/1981,LUGTHJRJD,HNXQESFVZ,44002UWHGQIEMQLHI,,KRXCS,NH,40563
36/01/3489,KGEARYMBK,JCDVCTOJI,08964IMSXYAKTQCON,,YFHFZ,CS,31375
32/63/6864,KFOAPFEPI,LHNIPFBNB,55650LRXFWXMEFTKN,,UVQXV,WB,77937
46/61/6197,OGAAKJSBN,WMCBDLHLC,86354BEOVJPHBNMGE,,CCUXM,KY,89017
65/16/8923,YXIVWOYNJ,BNEDMHGKP,53251MCUPTYKKKKOD,,BCXXR,JF,33412
82/39/7063,IWYEPPPVC,IHITRJAHV,08993PHJFBNFMLOWM,,KVIFT,JF,89180
13/86/3660,IARLUVULY,IOTHELNVC,13885TSKPFDZJLUVX,,EETJC,EL,94399
58/55/3740,WQNNJGFLQ,HWYBWDRSZ,01177YUAVHCQWQMQW,,SBPJI,PM,42122
43/32/3467,LBYDHHIVI,CYGGBLNTE,78425DTECYOESCIMH,,VPZQA,KB,89932
92/86/9736,EVREUJUQI,YCLPKFYUH,48500UIWDCUSIHLII,,MSZZO,ET,89802
16/42/7065,XDLLSMPQB,XDUSRHTJV,16392TCEBZNESGODT,,VANNZ,QH,86181
08/71/7702,ODFEDPXBN,ZNXOZLGTF,38106JVVSMZSTKDXX,,ZCPAV,LB,20890
99/54/4192,TPAXWHASV,JEBMRZFIS,44564DUQFSCNFLXRB,,FHIXE,VH,92855
13/79/2553,MKUODBFQL,NWFZOYWUN,74919NFVCRUAGSYNI,,DVVRJ,TR,52423
98/22/3697,XLPIJEKML,XNXGEGDWZ,71988AXWTFEQLLVHQ,,RQOZV,TF,76610
01/33/6877,UKHFCVIYA,HGFFMOVRY,21649XLBPNNFIGCDX,,BLRFH,YL,23640
07/81/3313,PXJMVCCXY,WVZBPIXXJ,55586MDHDZFIZXKDR,,LHFZG,DS,71272
82/23/7994,KAIFZDVLD,FVYMNKOJC,14979DKHNWDKZDCBB,,CGDWD,CX,80994
21/39/9922,XNMVHFKHE,JWPWLKVWR,76985FSZVHGYEDCVW,,AWLQE,VX,87859
05/21/0522,SETUZIFOV,OTSVPPUQE,70888VQIKYIIVELCD,,HAMYW,SO,47283
97/83/4602,XOJJDANYJ,HRWGVYKQU,79436IXNNPWIBMOKN,,GESYJ,VF,74966
02/02/7520,XRPLQZMFE,CNRUQQGTG,90748WIDEUWFEBUEF,,YSLON,UM,44969
16/31/8173,DFADQLGAY,DUDHJSXVH,21334EQAPCHJWWIIR,,RPWYJ,VH,17539
79/03/9020,DMAHTVVDC,UVWPTBQRX,32438IXHIYZZGNCPR,,RNXLV,AB,70909
32/99/4223,UQGIUXCSV,AUWGAGLSB,82312DTRPBDUQFTEZ,,PJSQI,WX,71746
20/56/3801,UIEDJUAYR,ISIUGCPOS,94741CBIPJOQXWZUD,,RUCUS,PJ,36007
31/21/8993,PXHPCTQZD,FPDOTWUIR,52233WYCVGJJJTOTP,,VUTOB,QY,17629
85/50/0759,IQRSZEJGK,QYBIQGHCP,37969GLHQYOOWMEPT,,NNALK,XU,10150
00/21/7872,SKFBBZDAJ,BBDQATNZI,69917CEDISLBXXBPN,,EOJQD,EN,22733
43/52/8017,GOGHRVISA,YGRQYKIXS,60977UQCTJKKBQBGX,,IZMOY,QM,04305
96/67/7432,OFIWTZOGN,HQAQLJRYO,19021DHEKVKDWMFSJ,,TZORU,MC,57428
80/89/9765,FUVGBBZLE,GYKHMJKDX,40950ZECUHXEYBBDE,,VKWTM,BN,73223
50/20/8044,FPEGVECEG,JAHCLPCMY,15757JGNUJCXLJFNL,,XSFVL,PJ,56288
62/91/3718,TRXCATHVC,VJUSHASCS,47135JBNONCFOSCIM,,CGNIN,BG,08594
81/31/4713,CSQGZSLND,QMSQRMCTU,07280HTYFBZRAGYIC,,JVPNN,MS,60032
22/77/1504,VKQZLDIKY,DTGUVHHXM,33981SLIHJSIXMABN,,CWYRB,TM,17867
73/55/2639,AXEDYUPIJ,MUOHRFQJL,64706KTSSGXPHMUFB,,YEPXL,XE,14922
48/71/5877,QTHGIUKQL,TOZSIIBBP,49861HWUBZYZJZADC,,CYYSW,JX,08748
71/99/8899,IDBEVWZUL,OFFYEPPWB,75570CMPJIEEPZRXU,,XYDBQ,VU,19741
47/58/0820,UZBMXUSQK,GBIVIAPRU,76362WXECWYYFGVHS,,CVREJ,NY,06440
68/46/3670,FJJNPCCCN,FIUFHZWNX,14457VSVMYIOFQRMJ,,IVZQH,AY,35412
74/06/8627,GVYETEOXU,LEBVXKFQV,96198BTXPZEYKFJUV,,HOSDI,IQ,67235
82/14/0797,MLPJLYALL,AMWYCBBYD,35346OAAJHLGNOGIT,,QBZHA,UK,24174
81/09/9724,EZFAJBUYQ,EFOAGXZLG,08719DSXWOTTZFQCA,,DZAZH,AB,58787
22/23/3629,XSGDEGBBG,EDUDJLCAX,76877EOFKAXIPVTAL,,TYZHP,RD,41016
19/88/0385,TGUHUYGOP,SMLMJAYXD,72756JHNBYLBTDWMX,,YXOEU,ZV,25144
75/96/0963,IALFWZSTE,JUMQEIYRZ,27247JNEDTCNMUXMT,,DAWCO,YW,82766
64/13/4008,NWKNUZKXE,ZDPMSTCIX,42373RLKVRUPWZHNC,,GMCNC,OD,36014
29/50/2855,WKSBMZOFF,LSWJCHUBN,12981EGJQIBEJWBRA,,JYKSX,QF,67145
94/84/9157,EWYPRLKEF,RNWHUCZTN,16875KIIHKVRQDTOJ,,RQODO,XN,47837
98/43/2901,DAIMUNLCV,CFOYLIXRO,59048PZYCIDITOSKW,,JBKYI,QQ,44135
55/91/7169,QXKPWKBGJ,CTSQHDGUH,03660XHJWHZUZTZMZ,,XQWSJ,GK,60706
12/71/3204,BPWEVHCZF,TYDNWETRJ,59617TCWFLVNRRJZZ,,HSEPQ,XT,38072
47/21/0573,AGEAZBBGT,STGUPPANJ,24723FONCNNZHBLGL,,EKBPT,RR,37790
50/69/9501,ENHGKDWMS,JMUPZAHOK,26038ZKEHAPMIUTIU,,KDCVQ,WC,93234
21/33/6315,FZGXCOAKK,MVQTIJCLU,80110NKISAWXGJDRS,,MDXON,WI,92958
78/05/9079,KNCICZVPF,XOZDBEEFD,24396UQUOAEFIGKND,,HMLHT,LF,07158
34/70/9685,TMOJDOXKY,HGDSUKCVE,77976ERLFIUFVNUSU,,QQGPC,OD,46320
51/23/1803,KHSYZEONO,PDNVIQBDE,06257MCYSYNBVCXMV,,ANDYY,JH,96272
10/25/4620,CCRLFLRGD,RIHDHWQXX,12638PRZLIVPOKICA,,QIHTA,YN,06919
81/69/9507,XUDTYBJEQ,MCRCHPLRY,62471AZCAMSVBMAQJ,,IABSD,MF,28005
67/63/3098,OKQFVESKC,MKGYRYQLQ,84541YSSAFWRCRMPG,,QRYUP,YO,94607
34/12/5885,VPKIBAFNS,EWDCWQXSR,93883BRGCLNEFWUJV,,NDALQ,MF,46897
17/86/4728,JLGTMNWKA,GCDQQRWAW,50921CSIXTESXFQRB,,OOKVV,UD,92218
34/80/5247,ANPAFXNBK,CSFTIDZNV,69730XVWKYFXAQGEA,,FMTVF,FZ,93151
73/07/0041,XIWJLHESI,ZOXUVXWNE,87362XLENZTFHJTOJ,,XCVOA,ZZ,61133
45/03/5890,DABDFIQKV,TDZXVUQHP,77927DLVJHAWRQCBY,,UIOJS,RU,37893
99/81/2926,QPHGQFVCL,LEGYGJRCX,74624FPJVNKNBABVC,,YWSRK,VX,21112
95/65/8214,KNBRGVROW,FUMPVHDYH,16329LQICZHUCVWIJ,,ZRCCI,PU,77928
24/42/1557,DMMHRBRJO,FTYUTNKXB,34279WDYEXIJFQIEQ,,DBUOK,MD,66727
64/75/3157,SPFZCGUWB,MJVTPKZMT,64024TVCZHGAZOPGC,,TVSJP,GV,56040
38/03/3804,VOFEBIMKU,XDOGOGSXS,48017ZYCGBLJWBNWY,,RIAAW,XN,00188
34/13/9421,LCFUVGTWF,MGNLKRSHY,89561YXIPCTATUBQQ,,TTSSN,FS,11486
77/71/4182,ZCSCDNCBB,YYWMTIGCM,92509XPMGWJXYCGWB,,UBQGY,WK,32941
22/00/9144,SYEZEWTGA,QTYFQTTYI,94376USJFEULCJIGA,,UOVLY,WD,85306
59/84/8851,KZWCHFJEO,VUVMLDAQI,67715OFQIUVDSKVIT,,ABVSF,LQ,11145
54/51/7165,ASXLZESBP,MIMANBUWB,53770OOTCGYYKTOAO,,HVQNY,TM,62722
98/22/4292,VYZJZGORO,LGWRZCSEH,78069UNKRJZAYJDDK,,KCADM,OU,21889
57/48/3547,HFBJWNPPF,KLOSNDZPS,02363FFXYNPXYRMGA,,JSLPS,LS,96948
77/45/0179,BAUJCVXGJ,KGWKARNBJ,86501KUCJMLQRSDFU,,XFZTB,DW,96742
87/73/0190,CAZKXSVYD,JVAAGSREU,07643WFTMIIBRFLVB,,PHEIA,TZ,70769
99/58/4403,REIPRIXNE,WVKQEMVXB,71964YTEXOXUPVHDN,,QPRZH,JA,92500
33/21/4346,QWBTXYSGP,PPEMETPTR,35847RDGUCVNYQLGJ,,GXDLH,NP,59177
47/70/4330,MPKOHHMDE,WDTBFYAJV,17729HUDKUKXOPNGE,,GDAGG,NQ,05100
35/93/0877,SDFVRENDV,PFOJLVNYT,29094MERNJDOBARMS,,QQQCK,XM,50133
16/47/3732,OQGSMPFWS,QPKDNCZOR,03763VBVWTEHPJJOG,,DQHSX,TY,91060
54/46/0171,WRJHJZIMX,BLEOHVGQG,57805CUXAEWJJDGIO,,BPZEG,GJ,69566
52/79/6633,VKYBWAITB,SZOPZNTMX,60749CIJAYAAFBRIJ,,STLRR,SI,88200
52/50/0264,XVWIFSZVU,PSXLUTLXV,42312MTBUEWAXIFNN,,YTJXT,RE,74990
73/74/8251,CIMYVGQOU,WHMFBEFDA,78190VMKHJOQKEZEV,,TDQMG,MZ,18774
88/41/5509,ZLOXMFQOO,BKPCSNVAR,62065LLXZBEOKCCTQ,,TTOWE,HO,44305
18/44/6579,HTAPJMMPK,DGSOEHIVS,74722MIJYUVCZNGRF,,RIBVP,ZZ,53001
76/46/8299,YJPKZUWCQ,PVDLKGSVC,26560DEPEFZRIIAFZ,,VWHMQ,BL,95297
35/74/9795,HXCAUNPFN,ECDVNKWSP,49469UGLYXKKTZDNJ,,UIUME,IM,15805
55/91/8987,BVAEYBVWB,OTFVQQQSB,31077VOQRREJHNMNP,,CSTCD,WI,05145
59/38/2338,VKOTGMXJO,OXOGLCCXC,12071MMRIEZHYYCEE,,KOEPS,GN,72239
48/20/3508,GVMPBHTPM,GOVWEAJOF,96583CVVVZBOFEOVZ,,UWYDA,AS,68210
65/31/8390,CIMPNIQKG,NQVLMANLQ,17788KJOGOTGFKMCQ,,SPBIM,AQ,18027
65/70/3801,LFSIPFSRB,BRUSLJSXV,55051TEHFDOWLQOKK,,MMPDE,SR,27583
49/79/8917,EQLIKRHIY,EDYYLLRRM,60636XAOEODELXAIK,,JTNAT,AX,09321
62/24/3166,XPPEFMRIL,BMLCXXRKC,48506HJFAFHRUXXKM,,IWWWY,DV,98417
53/23/1754,VEEVVDJXZ,JPRUUXNBW,53915JZMKKUVOQBDU,,GJUJG,HO,54359
28/37/2021,HYKKCKHRE,OQHPGBLIT,30353YUWCOXXRIOPF,,IBLUR,AS,83433
52/65/2491,VBITPEKKD,QIDEMWAOQ,27601MCMMDCOOPBTC,,NYXLQ,IW,06154
99/11/9239,OCXBUQTCC,GUCPMSVTT,86391ZRGCOSBGWKOE,,UBRJU,KN,00998
19/49/0282,YSOKBHCKW,FJYGDIRHW,26938QSICOIXACVEW,,KBJSR,SM,71061
08/77/3978,JQLMLWDVL,ORWGTZLXW,19786JOOLCEYXSDMT,,TIDTX,ZJ,67030
25/86/9335,VYWIGRMDO,VJMDKAZOD,01261HZKAJLLOEZNG,,KXPXA,ZW,80667
46/72/4831,KWTDHJQJT,MCBTAFYUX,44048MHEEGHIXFPDN,,ARRIB,PV,41110
02/11/7830,JGHVEOQQE,FVVDJLIHE,89485JLPAECAEHRSU,,GSZVA,ZR,98569
57/69/0538,DDBLORHAK,RKINNWXYR,49238QWMRWVPIDQNJ,,BHEUR,IE,67295
53/03/1696,PKUYQMYVT,XCLTGYZRQ,99129STOZYFRUKESM,,ZIOMB,MO,89276
13/07/7334,UFAFSHZEA,NDNSINXXQ,97939TMWCYOEKBJNE,,NVUTF,PH,18463
62/06/1741,RESJXFFAR,RUQISWTDH,09499SHUYMDPLQUZZ,,TBDNW,RN,75148
59/29/5909,YQSTALIJZ,ESBGOCURL,71733OCTPKFCIIIAZ,,WZAVS,ZJ,55750
65/97/1985,WHIIQPPTQ,YRIFXDYII,50572IOBHEHIKRXDE,,MTQAF,ZM,79921
47/59/6968,INUCYRRMD,UYFXLCNVL,18265DGARRAINBFHQ,,XMUAC,QA,95112
26/38/5568,NHHSMJLZV,FUNRNELFA,80017SZIKTARUVGHZ,,YWRLT,FV,78944
17/88/9948,DNIEKFJFK,AGFFFSOMD,48241ZRIPJFUHZUDX,,WOZUE,OA,02312
90/67/4306,URSSVPYSY,EDDFBUAFF,33255KIDODTWGEYAX,,UHJXM,NU,27260
09/14/3764,JNSLDZPPB,FANYJYUVI,84875HPXTOKWHLZZY,,AIUKC,WP,13259
74/15/0398,UQVUJOHSL,DIGUOYSLK,71257WVSMZBSTFFOA,,FSPSK,KS,70407
76/06/7146,XFSJJTARJ,PBKGPIRHX,17332LGSRVOWRKRXR,,ZZAGJ,OV,73806
39/15/2038,QAFCAWRAE,TNXUYIVCH,14230RHECPZUEMDDA,,TMJZE,XA,48708
16/90/2230,COKIAMDSR,HROQJMMZP,68388HPFWIUOOHHXA,,CSZDB,DQ,79845
77/99/8618,OXSSBZJPF,FXDPTWQMX,63099PBQLVMTCKOUQ,,WDYUR,FT,21266
01/85/5012,AOWUBDGGW,ZBXBIIUTP,96925BECCAIJLLPCK,,QAUDL,SL,65668
12/22/6002,JZEPYIGWL,RZFZLLOKV,86618AUZCDQGMCKSA,,FRQLN,LN,08862
83/78/5252,SJNNPRMPB,EFSFNLASW,63095YKEHVENOXFCQ,,BKSIY,YT,32341
64/43/2220,AIJDHPSAP,SKOVIPUDY,06382YXGUHWTOYLIU,,PAHPW,FZ,72000
07/92/5198,JRMMKABBN,EYOWHIGXG,62793SZUBJVKQMVLW,,MBROI,HM,14325
99/97/5103,MMGANQGDI,KEGZUTNQP,97105MEIPFKDDDBGS,,HGKIU,XF,82658
55/48/9644,UUDUUVIEK,XVFCKAIEA,07829KJGEUIGIXFKC,,DVFJY,XE,46436
88/64/4789,EZDSKRYSW,TCWAMZNAE,97951ZVXGLDMPSXIT,,VFCZJ,FC,06561
75/33/4010,KFBTPRKVF,BKCXCQLBE,55260KXTJXECAHGVX,,UAXZC,CU,37260
76/63/7817,PDTTONCZH,GYCUPIXVE,86900FKQNQTQXUUEA,,DGXPR,LB,88606
28/73/1160,TCKKKURKM,ICONKLTCP,66758RTBRHDWKWJAJ,,MSLJH,UI,82506
80/04/0577,PGZGDTQAQ,NJSWQLWLN,77830IKZOPBWBDUSY,,DDJOB,NG,50296
28/59/7127,TIWSJWJAJ,DWYPQYYUS,13721ZBNZGHHQFIZI,,NGMLZ,AB,30763
82/36/5270,DBIBUOVQP,WXMEVIOCO,78556UVLKMEKXCBVW,,DJEZM,IT,08333
85/40/1883,RGIIPEHXK,KQCSYRHOE,12091RDQGTNSTBBFZ,,IKHUX,AC,15455
30/74/4808,SUZMRADAE,IWYTFNQSU,74586YBQKUHKYUZCQ,,WPBII,OB,63384
40/23/6643,HRYYUHZLZ,UBRNDNONT,06614WKUIEVBZVZQR,,TSOAU,CY,94785
75/25/9500,OEAASYXNW,SGGEUNHXY,16045FXWDYLYVBRUE,,SQSPO,XD,80496
50/42/4529,NHYKKSWVE,BFEZKIISQ,41946VOQSMYTTQGVM,,BJQKI,IK,69610
30/50/4514,FVXEZJWIZ,QOLZNICNM,02652FWLFJVFAHRUP,,GPEBH,CV,08819
42/74/2279,GGIXMDDFO,XKDMINSZE,09488BGJQXDURIQCR,,TZJGT,AQ,98419
44/40/1854,WGNWOXGKO,IBGIPVQCW,45571OVRIMSZCBLYM,,CRQNF,ZM,95313
39/79/5833,RWVNHTKQA,VZXPUUWBN,92410AMQZIDSWAPRF,,MSXEG,PZ,03417
36/04/2217,XMOKHDELB,JVZFZGOVM,41394IOYYELDNRTQB,,QZJHT,AD,68338
18/66/4042,PNXWWOXFS,LBKDZCBII,32101PECOVSLLWOIY,,OVJMA,NU,09419
41/73/8560,VWUXUPZNK,SLBALGFEB,57285INOLCQOYXAEE,,OVNWP,KG,92954
82/44/2463,EBXAMSXKA,EIJPJFKOF,47031XBFTJLBHIVIK,,CYTKP,MV,59009
88/62/5131,OIRQKGOYN,SSLQBCORD,15727ZPYVEXZGKCRB,,HSCIZ,CE,95648
40/96/7893,UEYOMIILW,XKUSAATYS,93981UIIBNMMERPYF,,VMMTV,KE,21068
12/35/4550,WQYCYHXTP,NYDJUHZVK,79479TGWOJHSOBAGI,,ZIZEG,EP,08928
75/83/3330,LQVABAVNV,MPPLZJXUQ,37388IVAQKJKSMMIX,,EVWIA,RS,70472
59/31/0791,CMAWTCRKE,NDKNZYYER,86551QRWNVRQYSCFL,,GALJO,ZA,64882
77/41/1083,RAJUOPOAD,NLPHCIYNK,39196JPVZUOBRCCSO,,AAWPW,TF,85882
20/88/1618,GBLLHIDOM,ZAFDLCJHA,52039IGXAYLHVPNXH,,WEYMB,AB,97751
17/03/4769,EGWKGTMKL,CULCIFIEM,71271EQAWHXYOSNFZ,,DCKRL,CE,29297
72/90/9925,KGNZOGVMG,JMOYGOHBG,49621UOMVAWGAOPRX,,VTZHB,CA,36507
48/70/9623,JTPUCBYML,FQNBRVDWK,63361AMUJNRPXOMAQ,,HHZAY,MU,16156
94/67/2134,SPYQIMPAT,FMVLHEGWQ,59215VKOPVOVZYWJY,,JOHDA,RN,27796
65/07/7233,EDMUGASYA,UKQFYYHTU,75437CYWZDESROUUB,,BLCBE,SN,66270
59/75/1311,LVTZKTZAT,KBPHEZZHD,84016AYGOFBKXAZKZ,,NYHHI,OJ,50691
80/11/2696,JWVONHZOS,GHMYGLUZQ,53107CMGLNBVEZVVF,,DUSQD,RT,76344
66/90/3982,JRFFMFHEX,UNUNGVAUV,04000HGLWBMWXHUKK,,TQGLV,TJ,28010
91/53/5739,OGDINLHUC,BMGGFQAQV,04804MJSCMJKLCXPI,,ULZKT,BP,04904
35/82/0096,JLUQXNWGF,GJTINCJOM,78423YONGKNSXZAJV,,JVLWR,PG,84086
92/01/8061,GDXLUZBQY,JMQXWKTHY,73702EQYQJHWAUQMP,,FOYAR,KU,94371
80/73/3487,CGKFDYPEV,WGLYYWVJN,04759CIDDMWURDSHI,,AVRCF,XP,55588
15/55/4513,WEHAMILVW,YZOXVRMZB,23144TURXZSOAKEFC,,TESGH,YB,88250
22/92/0611,ZKHZBWPSK,FCHUXDJSW,22270QYZRDYZLXPTT,,XHBOJ,RY,03971
91/10/9207,ZSAMMRPCO,QPAIWKDGE,60209UTDIOEAGSVIL,,EYBHR,PL,64114
38/91/5535,MESUNRNUM,OUEHQFVJD,04504NSEWQCFPZGKM,,LKFJX,OP,67577
86/33/1842,ZXRLODPQY,TEGLTNNKP,22685EQKAUGBDBGVD,,NNPDR,FT,29940
03/12/8512,LOXUIIQNR,VVXGSDTBW,55322WSINNLQIHKTU,,IGGFV,HQ,26882
12/03/5351,JTQPMVDYU,TSBMXIENK,58150QQBLLSCHWLND,,CWJWX,TZ,20221
48/12/1690,JYQVIYGEI,GMVPTFLBL,56945WYSGFCJJDZJP,,OXGMC,VS,35142
13/88/6564,YJIPLDWLP,XSFRUEKSJ,25634GTNODULGIAFF,,IROZV,PP,89462
76/50/2307,YAAINVZGP,ZPKYLHYMK,11473IJIOPSXWYZXK,,RRUZG,YE,71673
72/11/1347,DIUJUXURO,FSDJIRNLT,55097URGBQBIJGXLX,,UUIGZ,UG,46424
60/69/9887,JSOYNXQLI,FBVHFTZEO,84223OGJTESKJUKPM,,HJRVE,WI,14134
88/63/2511,ZBDCMKQGW,POAYTIUFH,68633WJTEXVVWLEVC,,JABTZ,CC,18364
60/32/4609,DNQCZTVLT,WLZOGPJFG,34991UKJAUGPJEMRG,,JALEC,CH,73405
01/48/6132,FRHTSQBEI,KJQLRMIMM,90585YTWZTGEKCCIG,,ZVROP,ZO,43042
69/60/9544,MLJDTCLIR,UHZVXNEDC,71037UCMYZJZTURIE,,BAAUC,QH,66601
66/05/6579,ZOCOTMHQO,ZEWOQZUXV,67840BLRBOPCTSOOP,,FYXCD,UF,34717
24/48/3569,TSANWBRWA,SNQBERJUK,14443JOZOCZCZALCQ,,AVWFU,SH,41033
71/56/0256,UVRUACSWK,XXSBACPWF,88330NRGEKPHADGJK,,VJTEX,GL,19218
33/98/8084,KGKXGWQZP,KVMFRBOVF,87180NARSMNTHAWOR,,YZVAG,TM,02156
68/73/5843,CRWLUTVZG,NLITKAGFL,01387IPDKZMGNCKPK,,ECLKW,ZM,41338
35/94/1091,YBLCJHKVZ,SKLGWAMCZ,08611UGZKCETCWJNW,,JPJGB,AW,57703
83/94/1369,APSNVLCYF,DJGRLXIJU,14001JWLWMQHTDZCO,,RXQYF,CV,97258
79/50/6105,VIVQIOYMY,WEOVOVTLC,99971QUXMBAWJKJEU,,CKKVC,JQ,08710
57/38/5890,HTUPJGLUJ,YXHCQFLTW,34008ZKSYHFHRABDK,,XKMXR,SH,87240
81/06/6097,LNUTDMSYX,NLDAXAUCH,37942WIPQLJWKBSHJ,,ZMFSY,AQ,04504
59/95/9886,PSSUPEVIQ,DCRRRZIYM,07000KJDNEFODSVEW,,WDIAU,GB,98317
69/86/2901,CGALHPNRL,DAFAADZIS,14615GUFATKFJYNRI,,YWLAA,LN,54207
96/28/1915,ZLVMJFQKD,PGIBKTNPI,13495EGHBKECFHZMM,,MHKNO,OT,31253
71/75/5322,QLDYWCPOC,FGIPDRSKS,28019ALXUKYPXUFHM,,JWMGH,EH,45366
43/04/9032,QOAJNQSTE,MKHROSLGV,35051LBOOOKCEXHOZ,,AWHWW,ED,11974
44/96/6301,DTEZVVUFE,NHNSUSMVK,47803NEFQJCDXOJJD,,FYIYT,QX,12717
19/74/9508,VMGRVTTHW,CXBURLTCH,11462ZPBAJEOZFXDG,,MQRFW,VC,04773
21/37/4996,HLMKFPURR,KLFZUUJCM,14766YNXIBXCRIROI,,OXWHW,TE,14099
45/69/3367,MSACOFSLB,FUKSHQRBJ,17791YBIBIXPWUCMF,,IGSZM,ZH,05111
36/65/9343,LKSHHDQTX,AIWECJGCI,54976FUGWUNDGYGSC,,BQBRN,NG,55090
94/62/3715,HKNBJGKDR,MMIXFWWDS,03349YULDCXFMFQWE,,BCVIG,NF,67657
16/59/8320,ZUNNDMYEE,TPWBDGAYS,59220JXBMVEIMEQCM,,EWDEU,MQ,52498
15/06/9214,KHVQZONQK,PMJATAEUB,31351XWXIDEDFSPXZ,,CICKT,LL,18287
11/11/1953,AIFNOFOZS,NJOKFXVSX,52959KLUJYPHFXBOR,,MBEAO,FT,89320
06/18/8865,VPGREQHOG,DTXDHFXXG,88959YJYJJCYJELNR,,JGWDZ,GE,05587
63/89/7592,KOQNAIFAW,LMLYNOKBL,58466SGBUBDWWERMN,,LJXDF,LY,59542
18/64/2506,YOAKJRIZT,REEFIDBCG,35238LYRRGGQRHVNU,,ZZCBB,EG,04049
31/13/0843,JMZRPTWHY,ENFEZORDT,43198TGXRZKKKLQCP,,LPJIS,NS,28402
32/27/1201,JBWDFDEGH,OZSTLRJSM,95763CWWTSYIJUAXQ,,XOCBH,KB,28079
58/15/4872,JQKIRNAPC,HWGWZSSVU,95833BBNUXADPOLXS,,NURYI,HY,19576
93/60/0195,CXSGIUOFL,WDSIJJLCU,22265KQKAVVEBWGTG,,FOLTK,PG,90592
65/41/5892,WRPSSOPWV,JLNXZBWVJ,46144OOPWMFXAWGII,,OUZOK,ZR,63555
30/89/8931,JRQKNTPMQ,WXCTEXVGO,19204HKAEBHTGFYDC,,SEGLH,US,47603
16/99/6520,DWGPOLUKW,ZSOOKAEHJ,08188OOUKJKJAKOYT,,VLRCY,JB,40680
96/42/7346,VSYZLTMFT,QEUWMAEBJ,31792JWCEHBQHHCLP,,ANVYZ,UN,80350
52/55/1250,KFFGGTZHX,PAKEVJXGD,60512XQMHJALVBDSS,,PLIUM,NE,83659
78/48/0758,KYIPGOWJB,KWNZGRUUE,65833YSXNCJPVNCJE,,PXHDN,MZ,12967
11/14/7715,UTEAWEVON,CYBILOKCQ,66575MVOPKZJIESFH,,ZMRDZ,VH,37211
37/73/1740,LOEPWTMXY,TBVTYCRXL,96152SLHXDADPLTGF,,LRCGI,EB,82417
95/86/3996,OBBPKBOPI,TGOECVKSF,82971TZGSFGZQEKSJ,,OUBNV,EZ,21297
89/77/1918,MHLVVZYAI,MYWOTAJRF,16387PUKQPXIFSOTF,,FJOMF,IG,26723
51/82/3701,BJOAGYCPB,UFXHROVUK,24631KAJGSIZTPSCL,,GIEIX,WN,53725
60/78/3403,XHRYKXCKI,IYHAZKIWQ,82841SYZRHBXPYGQQ,,CBJGC,YH,70604
08/02/0648,EISXEFRJH,QXARJARUA,14076DBERZSHKDQUT,,LGETO,HD,72737
88/03/6653,QUPILFRTB,RQJELIJKE,38310JRUKIBUAUWON,,WQUSD,LE,25867
97/98/5146,PIAIGALFY,CHKYGMQQI,69585IBMMWQJREXZO,,ZHNPQ,GG,93352
44/83/2490,TESIVLZPP,GBYEAUCMJ,92590TPGPNYTRBZCL,,VQUNH,TG,89710
05/41/6161,TKOBEODVC,BVKXINLNK,60798HKYNZAYJEFWP,,VGONT,QR,63738
98/34/2289,JJQQYQXNE,WMBRQTOCV,25133DOWOXAPKEKML,,JNTEI,YJ,03589
82/81/8360,MWFAOQTUA,BMUANZWYS,48833WNJGXRLCNFTB,,NBXGX,ZR,34333
55/73/5716,BRQCYOZET,CYHOTUJQR,40193DDFOOHCCSPTT,,EEFOB,XT,01544
96/27/2411,DWUYWUTFI,NGNULOTFH,85355DNXQGBFOHHKD,,GNYRC,ZX,72149
18/06/2831,ZUYSTJMTV,DBDSCBNLD,63787GXQSDRXSVMKD,,GOOZZ,UG,78163
15/43/9097,CGCHLLYHL,VQLCYVHEV,81544EIBRSKYWFQXP,,ECGLS,KI,50471
14/33/9347,PYUFSHMNV,ISCUSGEHO,71548EKAUPGZAOFHS,,BKJEA,GR,69904
63/64/4819,EXHJPWEJP,OGPZETBPS,54449UAXSWTHUEJWI,,MKCEF,WR,81493
49/37/7022,GUMKKONQZ,LLKHEUXUT,91248GMAIMXRAMFDA,,YRBSB,BJ,13512
29/30/4387,TUSNUJSJU,CJOVDQZVW,15858MJIEDWPFDNRI,,TBNYS,TD,46066
22/46/9023,ESLHMYNBA,XAAMQMWFT,89467AZSIBGVXQEKS,,OCXSU,MT,80982
27/51/3521,NZMCGYGDZ,ROPJTBJCK,10955UENIVMQDWOBZ,,JELOS,EX,91144
93/28/4685,UNKRVJBUH,CONVUBDAW,27055RUBJZEMLUCMM,,XHMNY,LX,40186
89/60/5420,IAKJDHQMZ,WVHTJGYBK,34020HEHLHFAPAXQP,,NHZOE,WX,86373
01/22/6758,RMPKTDVUA,UPVENDCQF,51666QGVMZLOQIWPK,,XGINI,IR,81048
34/52/3687,SJAQKPWVM,TETMEFZYY,60720QJJIUARUAPQD,,YCFRY,KU,06693
42/97/2947,IWZBPBAQQ,IUBPILKKV,87379PTDSTHLXPXRR,,JKWEI,SU,66945
76/47/7924,BBKLPWBYZ,ISCDEMLFM,81917VRKTOOLDLDRM,,EELFA,UH,33491
57/53/5190,VTUHCUFYT,CSLGBUMYN,72193PECTBDXIJLPI,,RDGJE,KI,49034
90/83/4981,HTABRVFXO,VASDOGSXF,36261EAPSUIIOTIZD,,UHXUY,UT,78208
79/15/0950,XBAOIYJXH,UEEWLBJZG,54122RDBEZJFEJBTA,,TQUHR,TE,53828
01/18/8007,UZTFFTPOS,NEPQDAQNT,90319FRJXAAAABCMO,,VEJIF,PT,37057
38/33/6273,OXKKAYBOP,KALJWBFXL,92596SNPVWCSIJZFI,,YAXTT,FV,79279
89/31/2913,UOSQTFOWD,RBVYDRAUC,43328FULUXBMMHPQR,,GNOSR,OK,47076
13/27/8500,BUOLDFEQK,MTUXGNQFQ,87365ZEXSUYORMFBB,,NFFIQ,UD,66209
58/18/6138,DMIQCFKXP,ERAARGZUQ,38136TEOWSYMHUZUQ,,BWDGE,EW,19511
51/19/4582,ZVZUMRYMD,SMOYIJUZB,42090VEPXPUFJBJSZ,,OBJUV,CJ,33644
30/62/0631,INTOHZPTP,KGVJGLEEX,23350JKXVIZRSKGLH,,ROEAQ,JQ,87917
43/18/9409,TVFKMEUTO,IPALKPJHY,05820TZBRCVHXMRIB,,MYWUG,LC,30974
35/15/1451,OPKXHEZXI,IQYEPAGZM,00282AHUNFZMBMERY,,QXKDF,LS,26013
94/44/3584,TTIFVFJAT,YNVHJLPOK,58682XVMATMKTICHP,,OIASU,MC,63550
91/49/0298,SAMUWGGOE,OKJKFLHXD,53031WYWRXCYHOMHN,,FFSEF,IZ,43605
06/43/2255,NAHLSXLGI,SUSENTNJR,25857RWAQMRZIFFVR,,JJDAI,OR,02311
66/98/2370,LCGCJHFVS,NTMETXMAM,62712TAFNBZDBQXGD,,GKWWI,JC,18167
05/10/3210,RRVDQHEZK,IQHJNZUBG,65309WBOOQQEMEMUV,,RQEFL,RA,43290
32/00/1940,EEYGYQMXM,BEINEXNSK,03506WNBQNCGBJNJT,,VSSEH,IJ,80692
14/73/0693,SHWQWIRBE,KIGCWRZOO,55265VNFHKIAPVRJZ,,IEKPS,JK,67802
42/77/8066,ICOVGMVUS,DDJEEFMEA,31245QNCWRJGTADZG,,CYGXP,QG,07869
57/02/9904,IFSFPXZMA,GOUTXOUOO,05751MHIWCZRFSAOY,,FDBQJ,UI,08800
34/19/4088,PKOBLPFBW,SEBFRJIBH,13087CIKXTOKCZKTQ,,YBPHT,RZ,88902
48/55/4337,VBMCPJRNZ,RENFUPYOL,05554BXDVZYHSSARH,,GNBLH,AU,51120
93/08/0781,GNASHKZRX,BIYHWKLWN,77874GYVPMPMUZTFC,,TYVFD,CX,43216
34/24/5716,RPXZXCOZA,LIFRTVSVA,48733KGZDRMKWFPZC,,TTCWY,NL,90314
42/48/4113,GCVYBMNKG,LWTDPQHZZ,80072EPBINJUWKMGZ,,BCYJA,ZA,07613
04/53/9701,XGXCREIPG,AMDHJIQCU,11281SZSTDJHVXIVQ,,LZCHJ,GK,36240
17/26/5395,OGHZCUEMW,XVAVUQSJO,65053IQVZHSPGXJIF,,TVMUC,IT,94713
38/83/7541,FDRQBKPQN,TVGAIDUJL,60548LFEEONFYGFEZ,,HJKUJ,IM,71570
59/84/6727,HZMEANQGN,GZCOEXILE,44082JKGNCYTFRFUR,,FXWTD,ST,77509
75/37/2841,UVPFJINPG,KWZTBADIH,79145TDTGBEIPJELZ,,HWKSU,CH,47250
09/05/6668,EKMMEJZJL,VMJPVZNJL,15381DVDMNZUZCYDB,,KYNYO,TE,27238
48/60/3486,NJKUPXDMU,IBJJSQISZ,40819XOWRZSTCERCV,,INBSG,RM,97891
79/25/7670,GGDYTWXPU,HSVNGLRJW,40426DATUVXHOXCUR,,HNKRU,US,96450
04/05/4656,EFVCKUULN,HOATOUWCN,38221CWFJEXPIOTLO,,AHTBN,DR,51080
06/97/8063,PKCELXTUC,JLUREIINA,55366BMWPLXUFZNIM,,WNWCH,KE,78606
97/52/0866,YQULKCRKA,ZIECMLAKN,40997RZQLUMQWCCIT,,CIUCI,AU,01599
35/05/0397,EXTUKJHWO,GTIPHRZIS,18780DQBXJYLRMEDU,,NAFOT,IH,87857
46/08/8713,XAIKCLHGR,ZCWDUGRUL,11032NDSBBPSYPMPY,,EQKTE,ED,43089
27/43/2966,DQAFIRLQB,DDIFVKCPG,53615SBSRMRMUAMIE,,IXMXH,JU,83672
35/13/4880,EZKGVEXUL,XDGLGWNWY,52700MKMHMYFKCTXO,,JODID,JA,04575
09/75/8844,ADWXLSUOI,JSLTGNIFB,63432ETIPPUKUWAXO,,PQZOL,SQ,36376
32/70/8694,UBVJVDGSK,MEKZHNNQE,28896TEJFWGGMOOHB,,FMPQP,CC,68390
33/68/6081,INYMLWTJM,AWWPWYRMP,10417JFRSALJQULYN,,HBOSW,NY,34100
99/05/5608,NAQQFSECA,EOUDMZFBS,33985LXVLKXTRNXOR,,UCTZT,JT,48743
30/41/6376,ROAIHTPYM,LNDWSOJLW,89194YEHVKLYZWGTL,,RJUCN,JC,30167
27/11/9909,WGSZTCHYX,TFVEEJARX,93411ITPQMCVEMENK,,MSSWZ,MH,20896
19/86/7989,TQQPCQWHS,WKFALGSGB,19887RBTFPHABBHVZ,,IAFRA,JD,51550
41/65/3028,JOGSGBFMQ,OOICESVUN,32552GZNAJYQSKJQS,,TMOKQ,VP,47044
34/76/3978,GHJCKUKBX,OGKPCPYRN,91962UVSPYGKYBINF,,AGHKL,WU,60459
27/35/1393,XDPFXQWMB,LHGHYBVLV,97565MLACVASRCYAU,,EYGEH,SP,05287
47/42/1633,JFMVMFKYB,KVUOADRQT,22173EXTOILUONDKH,,ASHGP,PI,01318
03/76/6746,EAWEEPWOR,USELORUWR,54098MJBDGTIRZJJH,,TWPHT,NY,72629
62/40/3486,YYGCTTRDL,BIPAITYVH,36930VVBUPOXWSQLG,,DDZTI,RT,25997
71/70/4821,HCOZANKIR,UMYYOIUWW,23445WWLOBMJXIJOJ,,BMUGM,PP,17002
99/53/2823,MRDVSAGJF,ZWBBQEHRI,04004OTZMLZIJMTNF,,UUYNG,RU,55298
37/67/8099,XGPHBMEBX,LCBWJWBEO,40938ZCCDUOWJLWGS,,MKUIA,TK,53404
78/32/5448,OPMWLTHPC,VXOTHACHP,53435EGKVEXILPXVL,,LFSSG,UP,94628
39/33/4165,DAEZEAQME,NEYSOENJQ,79843MTGMLGXBDUUH,,MHJSK,BJ,81839
27/22/2200,JYLSKKCPC,AZAMIIYZT,80449DWQHWTZUDZKS,,TJVTJ,XI,06703
54/22/1143,MTTIZERQJ,HLTQUYJQK,46507QPGZGTAGPXWN,,CTYUF,ES,16435
49/11/7191,VPRKTNZHF,MKSLDGVLP,92243NHGXCULCQJTZ,,SWJOD,VO,01596
28/37/5729,TCREHSELL,DFFDLQWJX,14148VURIARCUQFOM,,PBQYF,PM,97449
62/16/4476,DQUDGIJRF,KMJRPAMQH,83208QEZEZJXYNEWR,,ZPLLL,VK,42076
58/52/5270,IHSBVAHPH,GOTEJOBBX,62027FGCIQJXVMVBV,,AYWJP,VG,96139
27/70/5464,HQKRDFRAA,LMAEPBJAM,18095SFWQJXQUOVRH,,AXKFF,GB,07990
31/62/4538,LSTCKWVEJ,HRBOZYNFV,28478QVBMABZOJXVW,,KQXID,ZE,70261
53/60/7246,GFPJGHZZT,PTNVGEVUF,00278IFWZOXAKWPOT,,GUCSR,QP,17892
49/30/7180,BTZBKSYCO,VSXYJJSSJ,61169FKRKGJNTHPLZ,,IARCZ,SH,27086
76/90/1059,ZOEXLMAAN,YJBWUABYP,82006ZFLCNZIJGMGH,,VATLV,VZ,08706
11/95/1978,OZGTBOPLG,EZCOZAPWJ,18009CTIMMCVZBMWT,,JOHVE,KV,26418
79/70/2524,ZBTGBWRZJ,CXQINYRQJ,82010XQQGZJQPHKWE,,ZCZKF,HJ,74083
01/37/9679,XJQFDGDMR,ACWILEVMA,82191HKCRGJGDWUBB,,QBWPA,SA,96121
59/65/2650,QNXUMCINW,RXFKNDPGD,76859FIBTOJESYHDT,,EYOTB,BC,64038
48/12/1559,OJXKHHETC,BLRIPJJUA,32276DXNSHHFJSBFF,,GKBVW,OZ,05036
13/39/2803,RSINGJDOR,ICYIYXYZG,75977ZGAPIHJPMRMJ,,LNINY,WO,05382
56/23/3082,TNYCDMKSZ,LOHXQRYKE,35051XHDZSLUPTVBY,,KLMPV,CA,13623
45/29/5297,FOSYWNYHA,HKBCWDXWV,62646UQPIMLPDLYNY,,EDNHH,UO,03523
29/64/6725,OHTZHHELV,FJDJCGJCJ,61665KMIHFDQLITXL,,BPAOJ,WA,94983
47/41/7530,NQHMQXUKW,NKTHFKTTJ,78601QLTQSNOOVEFH,,KWBQM,US,82369
77/26/4795,UYNRJJJVL,BPAGIYEHR,44647USUIOBJIAGJO,,XWIEX,AZ,60117
49/24/1084,ABMUTKAHD,HVZONCYTM,44298XXZMDKNZDQZD,,CFPIX,ZR,28962
53/03/0864,YOUMKELHD,HIEPELCJO,82472YZAQUSKYVVRS,,DAXYG,GX,05699
36/83/0349,JJAACELPM,ZBYYQHLDW,48586GOVAQADZMIYX,,IXIIG,QW,75939
16/32/3539,TTTIOWLEK,XCJUZHNIK,98906BGKEWMDIOSMG,,MFRHN,NB,05244
75/64/0428,ZHKSFJECS,VSEWUHGLB,57935CNLRWTCDEGOL,,MLEBR,RD,88844
15/15/5641,GKFOGWYOR,TZVDCBRVN,71979RFUAVNNUGUUE,,DSBUM,QE,58692
46/84/5694,EYZNWVTRO,PBBNWRWAR,53801TPKWJRCBZEUN,,YGTMV,PC,01754
88/46/8775,OBGHBUQSQ,UHFPDZZUB,97617FREGQTVXKOAX,,WFYWR,OC,40026
88/36/2339,EAKODBVCT,COFOZXYMM,00428HTONVDHZYVWS,,VRAHU,MZ,34648
94/55/9676,ZPIZVPFWB,QEDLUPIGU,31906JEQIRETHCUDJ,,IHLFP,XO,43413
27/93/9685,XNGEFYMLI,ZLQTBVLHN,05314IBQBJJWHZXLH,,YRMNB,ES,65971
00/57/0432,JKODBFYXY,TIMTQYCIH,75261BGOQAWCDOORJ,,MIHHT,EO,44234
38/99/1454,IFIQPRRBZ,SVBNRYREH,63615CFZGXBRRXQFA,,PKOUL,SE,87027
10/03/0467,UXBFOOCRC,QHTEYMXHY,80116XEFNOJZEYRJS,,BJXAP,WX,19652
73/52/8767,ASPHXFJFA,RURYQSYXC,14768BDXLDBXTBPIO,,IWXJF,MI,46862
60/69/2232,NKBVQNTZG,RJAKAFARQ,07374ZNHGNAWLZLXK,,EUGNF,RN,97510
39/06/1303,ZMNRWYKNE,KBGZFEHMA,56903NZNSLDQYEOVQ,,TXSXN,UZ,34388
71/99/9390,BLPXLEPKU,ROCVYWFBL,32784WCDEHCKIGWWN,,SYAFZ,LM,37933
91/78/0782,CGNTHZYWJ,FXMUCVTLY,65066YVFBWPZEXNYI,,DNGVV,IP,80062
11/80/1038,GLBWHTMBY,HBNIKIPKJ,62699VAMHVBMAVISY,,XSYRL,UE,25531
97/05/5366,DHYWAYPUU,FELEVACHG,11837RBYEKCSMPMQC,,PKXHP,YQ,31689
91/30/4108,BZBFHUXOO,CRUEHPCBK,76053OPDPCYCMTOWU,,ZRAQK,WQ,94940
12/54/5192,KINLPCETG,IHAHAKKNK,42983UCWHJPGWIFXV,,WFHYV,WQ,31804
59/69/2121,KPIOWUWPK,GNIPSQSKE,31336HKXCANOTHIVU,,HXKGS,ET,75933
24/40/1691,OZITKATXY,WCVBYBXHS,00296XROFTDIRSSDJ,,XVQDK,YF,80753
04/51/9617,JIARCNWDA,PERUPYBXR,91888DAMLNXJPIWPU,,JDTYQ,QP,70770
34/72/1817,ZEHWCBYDR,OOYPEOYHO,50977SRQRAFMVWNSC,,BCGYP,WB,40751
95/18/5178,TUNKOXLBF,XFRWJXNZM,89684PSEBYTOYJTYF,,XACYI,TZ,48558
75/19/6305,ZEDEJYZLO,KDKVMFJND,65624ORNSEDGWZIXF,,BGJUV,TA,50991
05/97/2165,IJSXXGXBN,OMUTJBIJU,61134PLVQXRHZCQCA,,OVKAE,KO,89864
99/65/2651,VKFVWWKGV,HZFEHVFHO,23116ANVPOBUXOUTD,,VUFQB,YY,68371
52/10/0053,YQKRGAPAI,WEIDFKOAH,73372WAPGSBXNKIDW,,FBHHF,EL,52987
77/46/9207,CHPMJUJVX,ONYHFBXTS,51199ZEGLSYVMCOZN,,OYTOX,CO,90034
00/74/3424,AQPLAOJSM,OMNQHOEZR,65051PDSYEMSLLYWG,,UFYKE,VZ,11734
18/07/1498,SBIIANDLJ,VJNWAQGQD,35231FWZFWNYNXRRL,,NLRDZ,WN,49494
30/28/6227,XIPQBPQKQ,YJDDRDUSE,63339RFZHDDKXEELK,,QRRHX,BV,84673
41/03/8955,FBFEUYFEK,QBEDQVMCM,33130KKLKHMELOMQY,,EGLRX,HF,06918
72/20/2274,ABQJSEZEM,VGLWSXOVP,55350ZDVYKAMWUNIT,,BMTJU,KT,43950
27/31/2633,NCBSNJZAR,YMVMWOAXH,76597PFWDJYCBGYJR,,VVAPT,LC,88836
64/40/4294,AXPDLCKMP,KZGFAFOPP,84927IUAPRXVXULBD,,HHSNI,EL,55818
60/00/2637,XDDCRIOPV,IFRHLDCFD,91899AIRCXMREXIOI,,SZGSC,VM,78638
19/25/8316,AABBMCZZK,QJKIKCBYP,65377KSNWTCDHGJYL,,UCWBT,AP,74500
65/13/2607,XNETZVCNA,YWVSLPDTD,01602WQMGUQVNZBSJ,,MJREY,EE,59566
67/65/9021,KBWKTFBTB,WORVUZLLO,58332HMGAWERAWATK,,WGCOE,NP,02045
84/15/6405,XCFZBDMHC,NSFFTICSZ,49006HJTHXBJBBKYP,,NXKMC,VI,49312
60/51/3514,ZUSMPKOXM,HYORNUOXN,76672FSMZWJMUWAPQ,,ORIQV,WU,63485
46/60/2935,OBLXNKUMA,RXZADQXCQ,64904KUXEEYQQZJBU,,XTVWO,EF,20521
99/08/1792,KCZSVQTQQ,YUOIPTNFR,50573MITYZFUFWJDJ,,KXZUT,ZX,06748
44/94/0454,QGDUBPDZV,QWFCUAJNS,45645QUIEGEUTNQZA,,AOOKE,HD,31838
03/04/6915,RGSSYGJUG,HXGEMJPMO,66125LTHXCTACTISI,,OSZWE,US,47221
79/34/8014,NCKDOOMLU,KKVVRFWIC,08172TWRDSFOSNFNY,,JEWMY,SF,75764
59/69/8355,GRXBTFSNG,OBMCGZUTL,35676YNMRNWNULOWD,,KHXHC,AD,45282
94/10/1526,PBPVZFVXL,CGTWADCJM,58777DIFMOILIZAGK,,ZUWUC,TF,83032
12/79/7454,TLGFZPZGL,ICRUISVVS,62057RYRWCIGPFJDF,,TQYLM,LU,82788
28/44/3107,MBXUKEDZP,HMPJQABFR,31605UPJLWKCGKOLH,,GMZNX,PX,52114
20/54/7165,ISNQIAPEZ,JHRALJFAY,69199UUCAXVIOUEZF,,TJWNN,UQ,82276
38/98/5273,AAAOZIKTW,BGFUBIUTT,29147WBVVBKPKCHUU,,IOGJL,IV,98744
55/85/8733,CJNBRKAVF,ESDXCOCBL,51445LXZSRFAHVFWD,,XJQHB,RH,08115
65/47/4687,UMABALGRS,IQJWGIEIY,97476OGCRGDJYRAWH,,JITPN,UO,45816
25/10/5250,GIWFHZYML,WPFIRFARO,27914ABITYXIALDXM,,XEHGX,GS,70652
68/26/8308,YLILXSUMD,JXWCHJVAR,28953BECBMGOAFIRE,,IOZIN,OC,23770
38/60/1230,QWYKPJFVO,UOGSXQPHR,12011MSOEFAOPKCTS,,VGXST,MJ,05833
56/34/6319,QQHQSZOOU,VUIQJHEWN,19773FAKNFALVSJPC,,MLRJH,OL,72661
75/35/8459,XWCIBGELQ,LTBWGGMPD,14345KLPJVHCGJMCZ,,UICKE,PP,00991
28/10/6330,PXBCOPNRV,WSZIBHPXC,13430RXERRBRDMLSP,,VCZTR,YG,00125
94/55/8505,BYRCSRIEW,UPZKNTEZV,63455XDZRBHRYDMES,,ZTBSG,YS,59782
60/19/3570,MSSCVNCLC,QESORGNFP,38855QZSPPOZZKAIS,,TBAOJ,AS,17199
85/75/8976,LSAGCEYYV,GLJVLVYSH,29994VSXTOCSTHTKU,,HWRUQ,EP,75126
83/54/9155,WYHLNOGVT,ZJZQVJVWA,85301WKAXZZYSZXSJ,,UGXJM,OJ,28732
30/53/0040,HLKIYTYUL,GMTGARBWD,78643JOSOEJFXUUUA,,NOKUB,JW,01080
65/72/0943,GUDWSADWM,AJVAZDVSY,79187XZFOZECMLSXJ,,NEFLT,IO,28671
90/53/7555,KUBAMGBIJ,ETFVOGKHL,55628WZUEPNIUOLDX,,ZHMZJ,OE,44845
98/96/9538,NSXKXGLTC,QVVFTJDTG,47647USXFXTWVILST,,XHJAN,OR,65599
47/26/6863,PSBELYMUF,ZQBAMODMT,45144FHNHNAZTFAHE,,OZYKP,BB,50652
58/58/5776,QCRGHHTBX,EKBVESMYT,87634UOYACKRYJNBF,,YYLPC,UV,51808
61/04/0071,FCPWCPGLF,QNWDDXLCY,10520TSOMGNZDQWFM,,OCKNQ,BY,95266
24/92/7426,GEOJPSLQB,CAJPSQJNC,97513RKNEWHHDNYIS,,TUXOS,PU,39140
72/77/8863,BUMQQHARU,VFBEECGHZ,13768HVXXVJZDHYUF,,BWCPV,OX,72402
99/22/9060,JIKTSJBOZ,VMCZQCXZS,09799ABAQFCULGYMN,,HYZHI,FW,24395
87/07/6666,CVTJFOJNR,NPHKVYVQK,42835PWURWABMRRCK,,VHKHD,AD,25735
19/10/0838,QAPQESZWP,QKNVIMIDY,69546TEJJDKHXUQJP,,QZIWP,DI,02002
07/58/4507,PQDTHGNYL,LPRVCTZIT,22071NOSTDCXRFMVC,,FLXEP,ZU,41451
98/50/2374,WCXMXAWDX,FOCAITNEF,29811CFPHTUGCYXMY,,FAXZS,CQ,65047
68/86/0370,WMUWZNMEE,BPJCBXTUE,70755PSQGPYHCEJTD,,JHYDK,TS,44512
39/15/4761,SJUPJLYKJ,PLYZGOSMI,47366RPIERUOGNUMN,,IQSRP,MR,80153
76/30/2703,AVERRJICL,QLHFQBPCX,60422UEXUDJUACUXH,,WNXHK,SR,57777
08/25/3134,HOFYFDXLO,CQROOTCJN,16102AOARRDYWXDYX,,MIYIS,EO,87768
61/60/3661,ZYQEYEORA,BTTIDKEVZ,86839JCXYAZDZYPKD,,LMJMX,MR,63858
89/82/0014,LRHSFWFDB,MNABUBDIP,60890PZUOZWZQXULI,,PDVRN,LA,93440
80/20/7167,FFNCMTUUM,NBDCFJQIR,46790OPASFSRSMCEJ,,EMIQZ,CE,04601
91/23/9001,AFIFTTPSN,TMUTIAQDP,43243BWNIVTTVMXET,,OBEEV,LG,21267
94/18/9110,GUNYNLRCH,YIHSHJCFP,92639DFCLAJLYQSNB,,DZVPF,UL,94003
30/02/9142,CQKUCOHZN,HDIJORXXK,68317BOAHCZUQYAZM,,OVUSL,TG,90543
11/43/0464,FHFFRZJMH,TFTYJBPBZ,59019IKKYTMAEHOVM,,NGACA,DA,57253
45/89/9554,PGVFBRLKG,VEJIRLNTY,94863URQUXHVAVJPI,,KBOVG,WN,14184
94/20/8647,EWCGWGFZB,XBBJLVDWN,33074JMHRJPGQUODQ,,ZCWOI,WK,01220
98/17/9719,DDWVUFOPR,ZUPVTPWRF,11996BRAVSFRHPGZO,,APQEY,ID,05576
36/78/1725,VCTAQCDRR,ZAIVKRWMD,56525JMNOFZTAWOJW,,USDSW,SI,05108
08/38/2687,EIPRFUQIR,VTFGWQXNQ,04365NLIYCXNJQIAY,,HDJEU,XD,64089
92/23/5403,OQWACSNLK,FBSGVZEYN,82545GJMCMSVCCKGS,,ZIPEH,DC,02049
50/23/4654,UGXKIJNXR,MFQFSCMCG,86225XNTMHEKMRKFM,,JQBOM,RC,06066
41/56/3989,PCUJCFGHF,TWDZMHLVJ,34720RXLPGLVVKUNV,,OMHBY,PE,36398
25/65/9743,OXEIDVJIJ,OGAXDSTQK,16510LTAZHDYCNVLO,,LSFSR,GS,10637
92/04/6498,OIURSFAGH,QOCKHHSTI,13449WEWPIXFWFBCD,,CHHCP,MH,79793
53/29/2678,RYKPGAAZL,NRMKNEFQR,59459GNNEDCFFIYNY,,FWDMZ,BX,13321
60/83/8397,BHRYOUHOQ,OUWFBUSZL,73681LJOLZNSSLLJR,,GQIXQ,IB,03772
94/93/5621,QAXSESWFF,UOMRYMOOO,73001PCQGOIJXTTRI,,AALNS,RH,24025
29/68/9482,MHMAAHUKN,RIDVOFIFS,13916IZWQXREAAVXH,,CDANQ,GH,04556
73/31/0812,WIICVNSBH,PGUWHTMCQ,76458MOCKARILRFSM,,XNLEJ,FI,91855
37/16/3709,LCVMLODWP,YCLPLQNPV,00664ARVBZBGOWALT,,SCMID,TQ,94169
50/63/8079,MLFBXYOMF,WJEOMCYQF,13482TEYOSAOHASPE,,FEVDR,IO,31284
66/49/9467,VHOQLEBAH,MLOEXZJBC,54535AKKKTONFCQWL,,THFPO,HN,56327
50/70/5049,MOYRDKPZO,LKNWSNAGN,49451ZUPWGSEHBYJP,,QDGJE,ZN,60086
72/47/0668,LYRHOZRMQ,PDZOOQSAJ,69076NTFTEHGFRZII,,GSLLD,OU,05922
49/93/2693,NDGSXHWDA,VFDIJTJWX,73901UKRYFTNVMXID,,TFXDV,HU,21610
24/66/4582,RZLAQPDIU,HQUOURNRR,27800OCWYXNYKDPYN,,SKPTC,AC,52143
74/22/6946,UCTDZBFDO,XKKSDFTQV,51413TWIAKQTOJTGL,,PDHZX,YS,94321
63/05/4434,WTKOYVQFB,LACTKCIXJ,36460GFDNABJOZUYM,,BRDHP,RJ,16819
19/77/8174,FGWTEPSXG,HRVPMWFPK,31924KDVICMZNGAPA,,BZDMQ,FA,95628
62/41/8004,AFJXSEGIL,DMPSSGPLL,16670YCHNTTHXWWFT,,SJWJC,NT,89947
71/51/0639,TASHRCHVY,FEMCONMLG,56575HZFOJVZBDCDV,,CLQCS,CP,43904
09/74/4005,RVIQHYGQW,BRBNMBOVT,82162FPUATMSUVBHG,,JQKCW,HW,01381
92/79/5110,LWHBJZOBE,OCRBAFSNV,91565BJNELQTBBJIJ,,YDWGG,OK,93326
50/09/2220,LMMZHNXJD,CSNRYUSRF,78521XOMHULBDUYKA,,YDEMG,KQ,74611
27/40/7847,YCPUYELTK,PLUMBUOIX,82886DNIERTDOWJNE,,JMIKC,GY,68539
71/14/8890,NJFVPSVQS,DASLOUTQP,92378RFDOQPMZEAHP,,MZGUW,NC,49021
57/01/9453,MRVEEFDIJ,KLWDBASGI,17336RKAQTCSCHTHK,,EPCID,ZS,17537
05/62/2666,HHIOXMSEM,YKWXPNGCK,10805JAZXUKPVLYYE,,KATBE,YE,16718
85/43/7934,KGWKTGJQO,LNRBLVNZG,44728VUMVTOJTQSLM,,FTDYT,PL,90830
82/36/3529,RLFTMHXGW,KIGPCJKTI,19847CUSZFKYKJOCP,,OXTDI,ZD,22258
18/49/1315,EFBMOSDWK,DXJXXZCKP,93370OIETPQDCXSBB,,SAEKM,WM,45115
28/33/0702,DMYPJJAGB,NUBVOAQWL,58449QDHULCUJAVMN,,QHSFC,AR,06605
62/81/2949,HEOIEGCDU,BRSTPBGPP,87649ZQBMXLJBFQJV,,QOABE,KS,54024
09/67/2048,RMHZKMYGS,DJIQGXIJN,60008XPIRWPXBZGTC,,XUKFV,UY,82126
95/57/0358,GQEWZPMSQ,HWPWFIFAG,38633ZZFUIIKYJGRY,,USKFF,SU,71742
26/09/7508,MRREESXEK,TUTLHNVIH,58775QNKMALFMUGYM,,LORWH,LL,39134
60/00/2457,PPDWTCFME,ZJXPIORYB,35682NKQBCKMJUBOU,,VYDYE,SB,61700
89/48/2167,GJMCKJDUI,VCYNBNALK,96126EZSRTTNYQPEZ,,VAPTX,AE,64426
22/32/4033,WAKEBRNIH,NDMXGYTNW,89085GKVDOKVMUJKC,,VDRJJ,EF,41958
74/99/9135,WQZSEOXSM,ABDXJXCLH,63867PILRSEZZUYEW,,FEYSA,FM,35970
12/61/7745,XHGTTICXV,BHYDHCYVK,12271VKAGVANOKRXI,,UMDXE,EZ,71859
56/03/7286,DBVKFYSCQ,OTEXARWLZ,08258YKSCEPRKAGTS,,WGHFZ,RA,11644
93/66/8980,SJTVGUQPF,XOMSEZUEC,12289GKCFCGRFZTHW,,GJYGC,LQ,74217
09/64/5832,WVKZSMZVQ,CUMPRTCDX,25274MWHEGIFCWJRK,,OFLUS,ZC,43659
46/99/1130,KNVREUKPY,JXWSMUGHB,88839TICRFZYFXSPW,,THWWC,LK,83988
15/73/6886,ITJCVEHPA,PIBFJHPAP,32739PSRGOXKUPQVF,,RONWO,HR,68173
93/47/7606,DIXRDXCYM,CDEJDLGXH,22924KTOEQRCFLGZW,,VVFJE,MG,73182
23/19/2763,MGCWBBQLA,XASPNSQFA,89309HHQSBNGUGKYS,,CBQMY,LL,23703
96/30/8967,IFBDDYXHT,MSOUEIWDD,88460EGRXTJGOJIMY,,WNXZY,JF,12444
27/59/8768,IRAOHOGKP,PTZCVXLKW,54185HGVDPZZSEOHO,,LWJRF,GQ,79708
27/43/0414,ZILDVCXHP,MQWBKYNJT,33007OPNLJFZSATXE,,LDNHN,IZ,21153
82/93/4457,DEOQUVPSB,HRCHEQHJU,35676RZHKEBJFZEQC,,CESSG,GH,30631
58/75/6206,PRTWODVJU,GDQJLVDWE,53591GKLNGFSLNBMC,,YOPGI,MV,25685
69/89/6849,KDZEPWAGY,KRLDEMZUC,89033JUDGKXCIYDOA,,MJTCX,TP,57635
13/50/6531,GKCXLEMKP,OPHIJSFFT,49944QCFBQRKTSIHI,,BZOQV,EL,74258
32/22/2435,CAJFTYXIC,FAWZSZZAJ,58414VKDVHLBKLYTZ,,OAJVD,AX,43470
94/89/1235,GMYTMQKXV,WIOEMUHHH,34993TRONMASRXHEF,,VBUZO,OI,28214
55/54/2720,IQAFCXVOP,XXCOTYXKV,95935GHYSJVPKPWMM,,VWRIX,KO,50017
36/64/0680,YSRFIZOQV,EPAUEOSAU,94105PXMTHACSSHIQ,,QLXBZ,KJ,96496
69/28/8183,CGQBJPRWK,POTCCETMO,77288PHLZQOJOJKPX,,KYHAT,JS,29260
62/80/3591,TKICYXIJV,CAHEKQKUP,28115RTGZYFDNXVCI,,ADNXW,DA,95655
17/52/7564,CLVJSWGJE,BUNINLCYP,04125YQOOYYWVYCMI,,PJMFF,NM,53868
03/06/6016,GIKJUAXGU,MFGPDSGTH,96013QBSPJVITUMRY,,HXJOZ,RR,53276
40/14/4276,SISFPLAWE,ODXTQMPCP,04687NXQAMARUCAOV,,PYXOK,UR,12405
43/89/6684,RBEMHWQEK,SAGXSHHZU,73708QGKWJBUFGAFC,,FFYCX,FU,21715
78/04/5053,FPDWCVKMG,TEIIAEKWI,54894KLYKRXOPHNQQ,,BFKFE,GQ,23593
59/17/8129,ZGLXCBAXY,LPMSTEDCQ,74862VAXESPHBNZIF,,OANQR,ZT,70371
93/55/7276,WSSMFIAHJ,ZVFYMAXEQ,30291XUQEPWNZZWCK,,JMWRC,UB,21018
61/98/2694,QGTQLEGZW,RWPPXDVAJ,48320AZXKVSTWEEJV,,LIVOT,QD,05279
54/60/3996,LRXWVMIWJ,MDNBKJIFX,26183FYEPUNXWDIIP,,CECIF,YV,11503
88/04/3694,TGACSKYAC,YSCMCIFEA,67892PTBNVEYFLYCW,,WWLKF,GG,25598
70/70/6374,LKCEFXSYY,MHJFSHOGJ,97333XFCQCQJKREFK,,OGRPR,GD,42588
81/50/4536,PMNJRWSBR,XYNZQLBTZ,77005OCEYUBYERAFJ,,WLCXB,WC,58716
67/81/7269,TTUEVHIOO,OAZCRDCXZ,04492IQHVSVHVDXXL,,CDWAI,IB,61052
20/67/9946,NZORANRBU,QTEGOKVAP,69945NIXTGZIXHZMW,,HHFXD,GM,22197
28/89/4119,FVBREWVLV,GFKACZBTV,52046MYFBOIRYKAJF,,UDACO,JY,38412
88/53/1313,NYWMXOPNM,KFJMFWIVC,04807FXZEOCTZXDPB,,UEKFM,XR,84535
12/00/3549,XOBCTFFIW,IKZONERFZ,76186NGFHLEVTLZGE,,IFQLE,CK,52266
81/96/2596,KRNBKMQZB,CZKCVXGWY,19899AHRBHRGBSMTP,,ZPGGN,NE,03770
47/66/9931,JYNZKTAGO,WVEGWFBYD,51206OAWBKSFWOLRW,,BYZHM,BL,99598
55/68/9057,BGRTRZQBN,WZLFVQDFX,91504PLCQSZTVBKQX,,JOUZA,NW,90797
96/74/4401,GSEDIUKXU,MZPRQYUAQ,96902SEVSBSHRIUBE,,HQLMP,ZS,33736
00/45/3724,DAUJSPEKZ,CVONYLKBG,76944BXQYFFIVLOSJ,,XGWQS,FQ,13313
08/69/7075,ORFQVCROV,IECCQFHCX,14125FXEBIWNIHHQM,,LDFPE,PA,62917
12/91/8337,PRCQUNPIJ,GLNMDGXBT,06056UTAQJEFNCUAB,,FSXDS,HK,00645
57/48/9083,EPCTCWRXS,GBJTYPSSN,78946MUOGRPYODHSR,,ONVJU,LH,80157
15/05/4447,ZPLZHXUVD,KPHOLRLWR,28867CHJXKGCIWVYB,,GXASV,FZ,58443
25/19/1745,UBUZLSRNB,YZQNYXWHN,75557AYZAVUJDKVVK,,YCIZR,IG,34927
49/07/4792,ULSXFIOXT,DUWQPWJCV,70556CLPEVEIDKGEX,,IHEYC,AQ,89759
78/69/8936,TYAGDIGRX,VAVFLIBKI,73890FPTIKHVHUGTS,,LECMJ,DU,46718
99/82/7412,CTUKZLCHP,MCQNQPFGE,25079PUEMKCLREQLH,,PXXGC,HD,04062
62/81/3724,MFAYRLCWT,JYXNDCWXJ,89377OSIUWGYSKYPH,,RQKCG,EF,55623
71/27/8524,KHVWOVUXR,HNPDPAPXF,30315PLWNCTUTUWHI,,MMWFD,JN,41825
69/55/3113,ONYTFSKDZ,VASNRPALB,52964DZHFUDZSHMTP,,KZQEU,RS,56125
01/44/4970,GMVRIPKPW,HXINUSEYN,75431CHOJOBGXQXSZ,,VSJRY,RS,08830
82/64/7701,ADEFDDTWE,JLRPCKOWR,02310AMRXXZWIZFPR,,ADXTR,RU,22855
23/46/3019,OBDOZKQYU,SBLIXFESS,43124IPPHBVPOFAHZ,,KWAQM,UJ,87647
49/77/5213,LESIBPCDY,FXGJBVNBV,34067CDVFINJJDSMB,,OKINS,FR,86206
59/13/2341,HIACDWPPL,KBVRDJVFS,89251EUAZGHUVVNZP,,OELCB,TI,34626
02/23/3520,YKEYTLIDJ,NCYYYIIYB,49306JHXZBQKGUUWC,,XKNDA,UR,49102
78/71/8284,MRHSJJEFI,DSIWWLFFL,95731ENOFBEDHYHGQ,,EOIQI,BO,02323
73/28/8325,WIRPHQVFT,BICGUBWPQ,08177BFDUXYZWZAUH,,TXHCF,PH,85260
09/75/6715,JKYEEZKDP,YTLVQLDME,61746BSQZEKULZHEY,,JAKUI,LN,67741
74/67/6932,ITBZFGDEK,PVSXJPXOK,11764CRDSLXURQKFY,,LBAMG,OP,96080
17/59/4555,GHJVANNJO,KKMKZZHLY,18940XSQLUKYUYOGU,,JDKVF,XJ,37427
29/66/1558,RPFFBBLNZ,OIBYKVBUH,90765YRRTJKBNKGZS,,IGGUY,ED,94754
94/80/0734,QBBMSNBGV,GOHQWLYRN,47538YJOEJGVIJJFU,,FDOEY,AF,54751
46/32/6389,OIQEYWRTE,CXOZWFKKQ,37996UOLCLHVUOXLU,,UAFVP,VI,23799
20/77/3245,JVSFIXCXI,ZXZFAYLCN,35726NIVSPZFJZJPD,,KFXJJ,TX,42964
17/63/7188,TXCDGAMXH,IOQQVEXLH,48752DUITHEKKRVFX,,GMSFL,NC,44309
60/26/0882,ECMHWCKFF,SFJNTVWKW,47089CADJLNKDVLPD,,AYRZR,ZK,17273
37/74/3064,QWZWZGXWL,LJUSAHINU,43488BOGRBMGGXNQU,,LIKUN,AG,87378
01/03/1960,ZFVABDPDR,QLXEWUNYW,54257QJZUVKKJJULA,,JZCVS,FI,45630
83/58/3691,ZJMFGYHEQ,RHWQJLIKN,60266HACSYSNJGDES,,XJVLV,WI,32361
80/15/2883,HHSDBWIKF,NIWYOGNXP,65707ZFOMBNSNKEJV,,MPWRF,VW,30126
16/61/3390,SDVGEEOZM,QBQXSHDRU,24984SGNFZPRVSOTV,,CYIIY,BD,32614
38/59/5038,KJFPZSLPI,ZWTFXQKLJ,53492XKVXBOTJTJOA,,GWVJK,UV,24604
39/03/0012,RDNAYCOHQ,NUEZWFAVV,57834GOVHJJGDVQNT,,EOCKB,CB,60402
19/01/1377,CHIJCDTPL,CQNGKRDNG,30461JFUHFCPBSZDV,,IIGXQ,ZS,66526
88/68/1827,ITORJBWPL,AGGUOBPDS,21851UORBPWRFCEWJ,,UBPEC,FN,73909
66/38/0753,KIIAMXUNS,KKCVVCXFT,18263LHMSAEHUUAHT,,USOMF,VO,89004
47/94/0512,EXEJAGPDH,VFSLKFYJE,25794WTGDKDKIDNLX,,VZEXB,ZB,78390
46/92/2445,AKEPDBRLI,WYLDJSMNJ,25041SVYJDMMPTLEY,,KKFRY,QE,59682
12/67/3155,WNSLAQEFJ,YAVSPQOIB,85055CZUOZFNIAVAD,,HESAR,SV,39566
84/29/4700,LEISNDTBU,WSNYFYPNH,75397MEIRWEBVWOAB,,RBJAA,BJ,09781
99/32/2078,EOEPZEMBE,JFVXCPTBX,63601QESDAMLULZVC,,DKEQD,AU,81350
97/27/1055,MTBUGONHY,GBKNCIVMH,74252UPCEBAMEENPS,,XWJTT,BI,73185
05/50/2275,UPTLNUATW,RZWIUYNFF,07191YGIRNPNLTMLX,,VEQSA,WN,06486
07/24/2844,SWIKBAJPT,NUKASTRVB,18503BHXDIYMTAOIN,,GZYTZ,JW,67848
99/61/7910,UXFBBSAJX,OQVOUNHSO,39964MZLQOPCPTIWA,,SSLGY,KA,74110
52/61/4484,ZUPHBISPP,ZQINBGHOW,95271HSQQAGSQTPGP,,AMDRH,ZS,97956
19/81/8216,LZKAWEXPJ,XCRRMJHTS,18800FMDQQWUPKXUR,,YAVJG,WT,67897
18/79/0855,IYNGJWGNT,VSSTBLXFD,46954GKZCVKNMDCSO,,ZGOFQ,VW,80920
98/68/8344,PWYIVAZAX,KTFPIAJYS,89592JSZBGVCLFLUQ,,QXOPU,NA,27712
02/30/4610,OFLCQTUPH,YUYTGEZBW,75226JENBJGYCCGQT,,GQZAX,VP,42453
51/91/0904,OWQZVEKNS,MBHBTAGWG,07627FJCIUAXMVXHA,,HZYMY,AY,63618
65/06/1604,IPQFBAPCT,NDRTTCVDB,02339USWNZVNGKXUQ,,NNNNO,BM,31646
79/85/4048,ONEQAGXYD,UUFCJWIKV,46280JSIFWKCCZFDP,,NPLBI,FY,16071
98/45/5346,ASRYYYADK,VCESRHJWO,93542WULREUZGHSNT,,LXVEG,XK,16753
27/61/4978,FXNZYKMLH,WHBKMWXFE,85643SCJSKTPPLVAY,,IGHXN,NM,22745
32/26/3401,LDBMWWOST,IWNNGWYNM,66637MLSXXURVZHFQ,,GPDKY,OK,88865
42/64/7218,WOUATTQMT,FJPBZRKUZ,80697OJWAAOLXAGKT,,MVNZU,GF,33432
99/88/4648,DCAPKKEMW,IXGYNGAWA,83133DOLZOUGGQXTD,,YCVSF,GC,13095
39/02/0937,ZJXJCWVVO,JXYMKSFSJ,61536FRAWTWNMWTZV,,WLRDX,NV,14487
64/29/1118,BMCCYBXTT,IFZDRLJJZ,95141YITHJMZIDGUS,,WDVMH,UG,43549
01/03/1671,JANCBHZZB,DDALVKZKI,37604JEDFFDAEGNHO,,SMMWV,NG,12758
73/45/6496,TYTUATAWR,DIQLFDRUK,49170VCAOVKKNHVSQ,,VZJGR,RW,98975
32/40/8533,KMKYPVWJA,USAZOUMHG,76549AKDNNPXXROQX,,HLTJE,XB,32719
51/80/1574,DIMJDKHXL,VFDTJDINY,08773AKXNKTOMLMSI,,XHGCZ,ZO,91207
08/49/5285,NRONZKRUM,OXOJKFVZS,82843LHQTZYEFOWGE,,KQISM,EB,78879
42/59/9819,WSWAUOPSV,ZVYGTQTSO,04516MEBAMAVBVZGM,,GMWUV,VJ,85443
34/38/7612,NUFEHRWSA,WCFJITLXV,19277NSSYQGIGXYAM,,MJCSD,TY,09943
39/40/3984,SICCVNLYQ,EZLMPXYTG,91965BWJGIYAHAGGQ,,FXRBI,EZ,48479
12/68/0527,OAFFXRVPI,BCRQUYNAS,63346OPVMMCENTVGG,,HFDAP,VP,87653
50/34/7402,YGNVGDXJF,HITRVYLYX,87132EBPXXZLYTNTV,,LLOLA,WS,75548
17/89/4770,DCJHYRMSY,WSHROFZAC,65693XUIXDGOOEWCQ,,YTBSJ,ND,55145
21/42/3750,BQTFMZMKR,IPAOPUCAA,31810CSIFHCVYTTPT,,GKCLK,KX,84259
41/24/6781,BLKGMIPRW,HZFLVUBVR,58993QSNAMMSLRWFU,,LGAHA,FY,02846
44/69/8328,DAWIDBVLC,SOMOSSEYF,81845TLONQTPJFRZL,,AYUBC,RW,56808
04/31/5306,BLCIEYZMZ,GKHNIYULG,38378OTYTAEAPCBFH,,NPEWA,GS,35515
23/64/4002,XJXKJRONO,GDKJUSJBH,65385ITWYTLLQZRHW,,MVXRQ,HF,21244
92/43/9944,DGMOHGBGN,BQZEJXOAU,74261ZQRVCLPGGSXZ,,NINDL,AF,26826
87/74/7594,VHVMMVNWL,QHPFRVBJD,95834DRVRWXLUGJXR,,UCVXF,PC,90910
08/96/0672,XDASTXJCD,GBGYIYKKY,13553ZXBRNOSNDSFG,,SOBQS,UY,42168
87/91/1127,KOXIUNBJL,ZZDMLDMNS,12191XEKVWDHLOJJY,,XZPSQ,PQ,11995
89/98/5098,UFGUVYHGT,AEWOPBVCZ,07622KKKDDANRLHGB,,NISFK,UW,91456
92/14/3581,SCRJCTAFJ,KFLZUCYGD,72868NDBVGEJONPQM,,PNYFJ,KC,82545
36/18/5230,CIAPLKHKY,SBXXFVNJI,60983YXWTNRIUKGBN,,CRZUN,WW,26988
93/65/3990,BQARPWGJY,NFIOISWJP,79570VDLKGCLVHZRF,,VZZSP,XO,88595
24/83/6310,XBZVUCEKV,SSBQJCBML,62322RMQHCKCBYTVZ,,UEFLN,DB,41416
00/12/7026,RFBBRDZZF,LUSTDKPSI,00132DQIIXSKIUXHL,,CLSNN,CO,34343
93/56/0875,FXDHHMYDF,XOPGDSBFV,63338FQMFULGXIJRP,,FQTET,AL,88610
77/37/6158,GXYCFVUZN,XRKUVLJGH,18627JBXYGGCQFJUS,,IAJEC,ZH,47455
15/72/3002,BPOQWPCUZ,KDMOAKBKR,82666KHDTKJBJKNQC,,ZMPXB,DJ,46994
19/57/2951,VFNENVTDY,RKTYIOXEC,50551KTSNTIVRLSRB,,MKRZI,EI,31439
95/19/5485,KRBKOUHLT,XQPLECUOQ,23424GAMNUPQXRWRE,,CCWJH,WL,70118
39/76/2128,RZPISYCQO,TXOMIEKUJ,98146EQAWRTWZNXUD,,EGACD,EU,00681
33/81/2181,ZRWKWYBZR,APXAXZXOM,01620LALIEXNHKTQE,,DNUTK,JW,75136
87/88/0079,WJLPMSCZP,ACXQGZSAS,75885OXPOONUFQIWW,,OJAHT,JL,62496
50/64/2488,UIATWKOKE,EQULZZJBI,59758JZIWXLMCCAJH,,JOKXJ,OS,78631
51/84/6515,MSFFFTFXO,FNVDYQFOV,88283YSLSWWMZQAKX,,HYIYH,OP,59705
23/94/8198,NUZARCXXN,QUWUCILMH,58484SWKBMLNRWYXP,,XLDMZ,SA,94505
32/57/6892,AIAAFLNEH,OZAEJDQUK,44112UEUKTTMQXASV,,DUHVU,TF,83878
13/22/7511,BZNVYZXZG,NPYPLHGNL,82410LIBBMOJHADTK,,RUPOY,MJ,14771
71/28/1462,QAKTFPOXB,SRGGYZCKR,82169BPXSQIJSFMYS,,XMEMW,XS,85921
62/37/1930,WCPTLYGNV,MOPMCCCDS,66639YHRTPRAAAIMR,,FNZFU,QV,43515
40/00/1259,TKJKIOXJI,JQBONRDWB,50551ARULMQMPYKUH,,YZOKE,EJ,97967
09/87/6148,MGTPATHXA,HSVIBEKSK,63990IXXFPGSONLOJ,,TCFXF,DO,66163
38/27/5533,ZAUOWRCRU,ZAZBORDYK,79648HOSWDFGDLOFI,,MYZVY,HR,62853
51/16/8172,MCIORJBOH,ENVVWNFML,16225SRATOOYYZHYG,,SGMDL,FB,40768
67/52/9882,GFTRWOGWC,QZEGYYFEC,63383EGPYTRQDDNJJ,,WCTIV,SB,78569
64/10/4980,RLSRKUOIM,QPOFIABUA,05930NZSCCNPULXXS,,DDWPY,BB,70487
53/59/8241,MCHWWBBQN,MGZLNIAJY,08440ICEJFDPADIXJ,,JNZFY,TU,46557
25/32/7090,YFITMZGDG,XPTREXMHY,01684ZPTUZXDQUNTM,,OJVNS,LJ,59318
44/84/4742,HMYVYMWXP,HESGFUMLW,79331SXFBGJQVUQJV,,ZKIYK,JK,95845
90/15/8797,OKTZVEZXG,DEGDXWDFM,01327XLEQWJVROZEZ,,QGGHT,QU,93400
99/50/7231,RSTBKWORQ,XZZRFZSQZ,13233ELILIQONVGXL,,KBCMQ,FJ,97230
51/64/9939,OWDSUOPQF,KCPJATPEX,66180WQJAPNPQDLIL,,FKOEJ,BA,73168
53/07/5547,HTMTAMTVC,QMPZZPKDO,24802FBWZQDOXIMMD,,ASHHR,CG,30324
85/69/7522,UKNMHKZSQ,MDWGCTCJR,93205EAYLRIYXOMAP,,MWEDR,OR,87753
40/20/4928,IVBYUYNHF,XVZSSBQJV,75047AQKRHSRGZQHO,,GHZGL,GC,14529
35/94/7508,NLTEATNIQ,AZNBMJCHF,50134ZSIIVEETERKS,,XDFGU,XG,46895
68/10/4863,PEYVQHQEU,TZMIFMCPD,87827QGAMYLMCOHFY,,IPEMV,DV,98103
90/47/6444,CONYXJAGN,UFDMHYXUW,98728HQVUHTRIDGEW,,IBTQT,ZC,44233
62/02/5022,EOYGSEZMC,TQQLFMQMX,49082KMORBFJDAFGE,,CHOZC,OT,53794
03/89/5723,GGCKTGMNG,PJJRYGXTY,36404RKKIIOGCIFLE,,XJSLM,VW,09981
39/84/0251,JUQSTMYEU,RQQBABACZ,51427BFPDSXDVFZVQ,,UKVYV,BF,47289
41/73/9941,DYWKHXZHS,VWQJSMHJM,35892EEIQPQFLRDNN,,KDETB,YW,26714
70/87/4857,LABKRQEDP,IARPDMBET,95492SSCRMECXXPBB,,FHGJC,RR,92950
30/12/0799,WMGFTHNNL,FQEUWQYSC,63511SIVGZXVHPZUC,,BUYEX,XU,13871
51/43/8026,KRSVETCNQ,BEXMBVCSS,40686HFXVRMWUWKFP,,DEALL,QJ,76865
18/94/4368,YRZBDFRSG,DDZMFUBIZ,75355KOWJLIDXIUNA,,GLZUY,FY,20224
56/00/2424,KWCJEHGBB,TBMQYNCSH,06115HYXOZMOPWLCB,,VTOMS,HB,06837
37/39/2823,KJRBMBVAX,BMOTMLDUE,31364OWGMVXOOOSDD,,EUWSP,OY,36920
47/51/4792,SJWIBHYBF,IAUIYZZCB,57207DOPJIQIUPLHT,,WTXKT,RF,63066
16/88/1626,USPVCQECN,LGOGMXJAM,03160DDDAYOUJPXWB,,JOGIZ,TR,52563
48/93/4507,ZBQHFLYJH,XSVKOBQAI,41054BODYCZOOCDJS,,SYIIS,IU,70892
22/54/1467,RDWYZNXOM,XGOOAZLWB,62532UEWUWFGPDYHL,,KARWG,CG,79160
71/45/9829,LWINYPPCM,PIMACBGDC,51453EFWNSOWQWBDK,,MPRKT,WU,82202
93/31/0634,IJWHNLBGF,CLFMZGTTK,73622DIPFENRPPFQE,,YCUVT,AU,07376
43/09/1941,HHOLIBYRU,DTDUMTDBV,29315UCDXXXOKHCVS,,DTIZI,AW,81459
82/76/8121,GXKKRMOLH,HTFANGKBB,94954CVRTNHDYWJTX,,GOKBH,ZW,20597
03/40/7551,YJZQJZWHY,UXCJJTPZF,93481XBWYYJEQNBBK,,TBQCM,ZD,77951
37/44/8576,GPSFQLWNP,DGPCIJLXX,30722AKDJSLPNJDJV,,QXWQT,SR,28232
40/72/6391,RJDGBECMG,HOVYAMNJS,82078HMXEHXEDZKXZ,,KVPGU,UB,24203
77/31/0549,VBRUCTJJU,CWZSMMVPQ,26504AUWPMBBCAGLS,,FBCQO,LC,94353
33/56/9018,UZNJVBPOO,YSBRCMJMU,32267IDRQLGDSIAJT,,DWBKA,SB,68717
96/09/6927,QIUFSSHHD,BEUJYOCET,39604CVOUJUPYMIVZ,,AWFSR,AH,88727
67/20/7853,WCTWEVPXT,EMGBCALPJ,63184FBWLMYGMAXPE,,JPYFT,TE,85475
65/52/7967,YQZZPDLRT,BDOQFPVEO,02515MDGJHSDPUENN,,WTPWQ,BO,58694
15/45/2998,VOSNTATSR,GPRYVRQSP,45025UTXBNRWLFFRB,,JVTEH,NZ,80010
37/18/0861,BEXADCUVV,FZKFSRQPC,12762JCQWDWHWMCUX,,XOJIC,OI,15491
76/56/4545,KHOIOBUPZ,VYZESVKNA,92908QAAITUVRELBB,,TIRNA,GO,64881
72/82/7441,LFSFPRTYD,ZIVPFRBMD,54316TVVPVTWQFJAG,,MVALM,JR,89330
42/07/5933,ZDFZTJEGM,SQHDCDLWV,89328WXTHFGUOPKVT,,OEEXS,RU,70056
81/41/1676,ALXXWNNNA,WHUKEBKAW,78524NLJCLLIOPNMW,,ONXUX,NY,28746
46/63/8915,PPQZNULVZ,HEQYEJKSZ,61320ZQLGCLAJZIDR,,ELWGD,DU,18174
17/23/6685,QJANLLYGJ,DEZWFLKBY,68283QDPQUVTUEFHV,,CHMVP,WH,34690
44/50/0967,LLUNWMMTH,UZNWGBHXA,06964PKJEUNPNPVET,,XJWKS,UD,25749
41/81/0434,NKQYDWPQO,FPMODOGRZ,77697BRDPCABUODVP,,COCTR,NW,27015
40/09/7256,KADYUSVDB,QPQQVTBCR,71616PDHZPGWQWTMH,,WVNXR,ME,98643
35/59/9599,IPSRZCXWW,IYLIAFUVH,73011CVEDZEXJVTJH,,MROWF,AD,91506
34/93/6763,FFQKSSCTP,CJOAXMXKP,00612GUFOGXCSMRIF,,GZSMD,EC,67800
17/73/0210,QTXXHXXCA,GUJKOZGGD,56217KYWXQGNOUNKN,,WBALU,VP,46778
94/44/2367,IMTYVCBCD,WLCNTDMVQ,51065IIJSZTQHPZPX,,CWHKZ,JT,33088
28/97/0256,WBKHZYFYW,QSBUZYBSQ,27573ZMNQAKEKSKCD,,TOERI,JL,51731
64/06/1288,AJYPZZFFI,BTHQFFJGA,96422XRBUIVQQEEZS,,ALYLG,GW,07681
29/39/1430,CZGSWNVYZ,KPHWILGOQ,28572QBEHGFSMUPFN,,LQLSU,QY,23454
14/89/5579,AWHNCXECC,TUYXJVVAC,06794EJOTFUHIQLVP,,UOCRF,UD,04446
57/28/5856,ISFQKPRUY,ZITLCBSAY,32609KAXIMWGBISSJ,,ISTUS,IU,87304
98/31/7673,RXKEOFXNM,CTZHCWIGL,29366PRZQMUVGJBYQ,,LZFGN,CY,97632
32/73/1865,IOMRFNTTL,DIDQBQGHG,39356DJGBICUXHOTV,,LBCCA,WF,91496
72/50/9666,JMIIRLSLQ,UJXSFCIOL,45720CLPDQKJWNSFS,,NJJQF,OD,95128
69/51/8858,SJKYOTORA,RLVEKDHVC,25186FKOIWNHAZNHR,,ZCAIV,VI,02704
01/85/3595,JHZECJSHU,DCAGUOWNW,76345QOKFPTLJPQET,,LOBEK,JC,22496
84/23/5304,QXPAPIHZA,LSWGUOGGI,12436QVAIEDIWJJWM,,ALPRS,QY,15912
59/42/3926,CDBFGDXLM,DITGGZBHX,58251CSPEQZIDWYAW,,QMJGZ,OD,16185
20/57/3318,TWFTPNMXD,TMMLOJHUG,79501NTECQPJOQCIA,,KZQYH,RC,45697
26/07/1760,MPVWAZWYJ,LDSAHXBGM,16968EJSBOBUGQLKM,,JUJMV,NY,62077
00/54/3509,YBXSNXPLH,BOZPWESPK,24784QQKKGEVTALOJ,,QUYVZ,VV,93469
74/14/6754,BSMRJBTDH,RRJPYHAYM,82582GDUSWEAPHXRF,,ASMOQ,UR,32888
81/58/4984,JAMCURONH,XQQMCZFKQ,13189BITJKVFXCKRR,,HMQEG,JQ,49260
03/63/0435,HIRWAGJWH,CTCOIFZBZ,51296CZZQIEMXIFJP,,HIXIV,FB,88110
16/32/0110,CXDJPQZZZ,JCBZCVBVU,97528MYYUNDIAKKNV,,QTVSW,WQ,98870
26/27/3226,KDRKXORMO,GEHNMURGN,88698GEYWOSZZUTGM,,XUMPA,FN,86292
75/59/9337,UQZSUEBHD,AUEOGPELI,04031JHBNRBQZMFHM,,JLGUO,QD,83939
85/92/6556,TCANTPYDB,EQWKQWNSK,10114PDHGXIXYLPVZ,,IYZGT,VD,59774
43/78/4964,LUCWHNBGW,TEOGLUYHX,71249NMIQLDHWJJXI,,VVQXJ,SC,88950
55/32/0692,CPKXFTYMT,HZHHBTJMW,04505PIAPAXYMLBVR,,WCTPJ,JZ,93365
95/31/6110,NVZZVULMB,NGKNLXPJI,25663MBQIFAWVFTTF,,IQAAZ,FQ,41015
65/08/0646,ZKCJQLDNJ,JULEJSMMH,31428MLPDFTHUXLOB,,MONBU,TF,68480
69/11/5350,MAXWYOPKW,TQCTHZQUN,70834XZIKAUMPEFFA,,AMPQQ,RL,33882
34/38/4807,AKZYMWEPT,GOXHSOWIK,18812GORUNZALCDGD,,CKTXI,LS,54282
77/53/5840,RXUBGVUOW,GQFZPTNJY,64466JFCEOBBHWILM,,IPOUU,VQ,34419
99/60/9589,KCPRGDQDU,AJFSJRZMI,44541YKKQWSWBVVSY,,PBJKI,ZI,16277
84/12/6598,UDNTFJUCT,QGUOTYPGK,61839PAPBFTHOFNWE,,CDGNJ,NL,27005
00/33/5903,GFQTQARNM,WNZDWWMPF,73648HDOVHRXOBJFN,,DWDUO,DY,68788
51/56/8167,KVJVEHMJP,UHDWAWEJK,38419SJDDINEOKVXD,,ZLFUZ,CK,48092
56/80/0947,RJZRTUZVU,ULPJIBAGU,95242OVWCVUUBMCSV,,UTUBU,RJ,97105
92/63/2618,NHGAACEQZ,AVWMRHPMG,88299JDGZPCBDYWJI,,XCSGQ,IT,87519
78/43/2023,YCFFLBMLR,UKSRWJKQQ,36354PDHEJJZMDJSR,,XCEKF,PE,79462
88/09/3266,MRFWYYNIU,JWXHZVUVU,52556NHXASWESEMAV,,RUDDZ,VR,08124
83/14/8929,IOCOITGWF,OPNQKOQMI,81370KAKYUWMRVNST,,QTGEE,DD,68572
83/23/9760,FBZADRINO,HDZRZUOTU,71501TDAGBDKTKYIX,,FSYIC,BX,87979
66/32/6676,HLRRMCCOO,STNWRYJPI,25880BGBJYGYZIJLK,,BQNDY,SH,19307
75/47/1592,PSOXOUEGZ,MHFLRKSBW,66207BRTHJOTTSFBK,,WQEVG,ZC,79672
23/74/5074,ODCMHITSO,URWBEQDXI,96583RCEAEWMRWLKR,,BQCCE,DW,31877
95/46/6063,DNYEPFJNO,HPFIXPGGT,07419DZKZHPRNWWEV,,KUPZN,ZR,48509
92/83/9005,KNCUGLJSH,KCQMQWMGJ,08879OIFCBANTIXCV,,PKWWY,IG,71370
24/99/9171,OURPUSTMT,CCSRTLIFU,66886KPTSXAZWLRFZ,,SRHCC,RF,96663
77/15/6468,NJQAJPGNL,YKWFCSBQH,00220PVAZEEZDQZTP,,HESMX,ZK,19231
24/94/5210,EYVUJBEWY,VIYJHOLPF,21491INAAAEIOJWML,,UGKOY,OC,38060
92/60/9161,PXHTAJJYD,DMSAXGHGK,93496LMZBOJLBEPSD,,IKQQD,JV,55972
48/54/6460,IGIAPYRGS,MJITKWGLK,91603MYCZIXBZCFFM,,RMLVB,CW,60646
76/79/6095,RWYDGHJOM,USJLORZLP,63694DHPLSTPJTIPY,,AWJNY,JW,32766
10/58/3692,VRIKADJDT,SRUTMEXBQ,11920MPFXGLHZKZCS,,FFHDP,TE,56213
32/77/6138,LLNEHBBRY,KOUAPEZAA,11770XYKPXUYDBDYZ,,YWLHV,CI,88075
64/93/2238,TABPBXLMT,GNNCYPTRB,45586GNFIQSFHMOMR,,UGAUV,PQ,44210
77/87/9905,MMDNCJWDM,SBVYIYLTM,62511AEMKOXFWZXDG,,XDACP,DK,21618
55/80/1897,MMJUFNAIJ,OCEMQUVAG,86950PGPJEGYVBGDP,,XMCPI,FM,87661
33/45/7151,DWWEVISLX,EMLZSNVDV,59998FGQXPGMPEQTN,,FXTNV,PR,34815
63/39/3246,UKEWFUMII,HYKJWWPLM,13114LDTLTMMCSBBQ,,XEUGV,HL,57400
02/83/7768,ZKDTCLTQP,OQDPVZQNB,01259UXCSRGERSJLX,,KKPSH,EN,74261
87/46/7799,BQXDAUOQV,TIGXUSECW,86830MSSXWHIXWCLZ,,FUWHC,TF,30390
19/68/1699,BJVPJFRZM,MSWYKRLSU,72336MEGUSIDEASNW,,QVZPU,WR,63806
26/47/5771,ZOBGBDWAP,NJUPUJNRB,92206JJCEFQKMACUT,,GLMXE,FI,80255
49/79/2038,KVMKUYILF,ELYGVQNIG,61591CUAJHHREMPSV,,EZSJG,WK,63522
75/95/3408,PCUVTMTDB,PQJRHMWYJ,91958LSJQJFODNHSV,,AHOPW,CW,56892
33/59/4906,UYHWAQDXT,TFKRBFXAR,86659TYOSPNDLVOQI,,IPTMU,OW,52942
46/31/8389,DWYHEDFNT,VOQSVQPNX,19847RMPDSETLPDOZ,,POCNC,PQ,89377
73/61/9536,UOYHHCJRE,FCTBCRKPT,55394NBQUOOVPVHJP,,PAXIC,FA,16197
42/68/0520,AHJRZMYUG,CGLYMKDVC,81939KJMYNYOANEFW,,LWAZH,OZ,24217
68/01/9416,PQZVOFQMA,PYVCLWBAY,52025QDCIKFJKGARI,,AMPQW,OB,88110
30/50/8027,GHKUAKHYQ,CBQZJIZUD,91967ZWEWFSGTXHJE,,HNLII,CJ,97034
59/00/4288,HWEVULFST,SWUYQWRVQ,42000DYKSZFYSZIMX,,FJSAO,FC,94757
15/69/6816,PEISEFKLE,RQGVGEIJB,06723NEOTHJELLCWH,,VJAXK,MD,14218
75/48/3794,WDVKCIJQN,PDZPMGNUY,69134UQYKFSZACTQS,,UCOCM,IT,54632
14/96/2770,EEDCLFEJE,UKRRUVHSS,38958ZRALLEFEDEMI,,XDMXX,AV,94635
62/48/5003,LWOZNGIEG,BPRLZGALA,74365PBKXYILPWDXF,,XKTKR,IX,55543
87/98/2481,VXCOHVHYW,STPBQXWBU,60598NFAUROQDITLV,,XOJJM,EO,46467
31/21/2704,JPYIEJRWV,ALPUCVAWG,29533HKLUVIDAJYIS,,GSOEA,PB,11841
89/59/5390,OAFMFUWAA,CQIIZCAUP,89357GDGHCENPGWGC,,MVNZH,NG,29228
34/93/4042,JWRLHBOHU,JHRQVDOKO,80392NNDPWOXYSDVF,,GXWON,MZ,82487
31/86/0429,ODDLKJFCE,NIPDHVVAX,61025AVOXCHQLKCZH,,SAPBQ,FT,61575
89/04/0297,LKEBKRRTU,WSVERGQCY,50062SYHLNZLWDGDR,,MTKMS,JV,17673
06/62/3402,PWYPIXFCJ,JVSCEJCPW,08947TQQXBHLHSSTT,,YVEUR,HO,40620
49/59/8421,WNNGHLPFM,JXPKNSXZN,20857TJLIBWXVTCKI,,CYWER,KR,42041
92/30/7508,FTWPYNXRN,PETEPLEUO,37519WZCTIXUWXKEL,,WFNDJ,RQ,29322
35/59/9138,FQXGQIQAF,AUZQTMZMR,41962ZZYPGZUQOBKH,,HKHFB,DU,71571
01/98/8850,ANSELPQVH,JOLISNGRF,81910VZJPNJAALXCI,,RMRJY,XN,69426
20/91/5012,YEPQEEPOE,CELYXPFUS,42963WLEUITKXZADE,,IFIPA,FD,46826
66/04/7703,OEVNWOWHB,EIZADMCJS,79739AEHNSDUQPNBM,,CGIXM,YF,72821
98/53/5873,TBTECFPXZ,YKEGSCSUH,54259ENAAWCBUCSPQ,,QYSVQ,IL,30830
97/88/2538,ZSAGZGTLO,CUURNMAVI,09912UULDRWXIGOAO,,NYAZL,CO,13926
86/55/1508,EEWIRRJHY,LZJKUZFMR,02400DOVJQUQONUTP,,XDSYH,FL,69723
28/32/4632,HGUONWVVO,NZUPUHXKO,68622TGIEQMGBBDXM,,LRDLV,CD,53653
41/85/7305,ZXERUTGKQ,UEOABADIS,64721VBMPZRQSCPIY,,QUBUG,WC,69848
83/28/6620,PBAIWXGVM,JEAXRFQGM,59663DVRRCLGUWBHO,,QBNYH,TL,38142
74/24/4231,DCDKJWUTM,PHJWJFPZU,76349HCJITEGYPBGQ,,OJLSL,XZ,22496
57/37/0487,CTDRBFLDD,GQKRQHMBK,09677JGECSAOSUBZZ,,ZDIPT,GL,45563
44/20/0042,ERIEGYFHT,DEZROTAQU,41337IQCCDJMOGORG,,CASZS,EE,35967
95/41/6102,ZVODMGRXQ,SITNQHBPO,21988CFMDVFTJGLVZ,,IWEFQ,TF,93422
95/71/9866,LYYESYZHJ,URXVATRJZ,12742YMXAHUMFZKOB,,UNNGI,SV,54826
65/57/5410,DSCHKMSEM,RUINXZECR,16273OLPWXJFDNGCH,,PVPEA,XY,15779
67/80/0579,DTBTAKLSK,MYMIJNHJG,73607LWWGWSEPUGLC,,KCSOD,JP,64126
09/99/9066,ZHSUGBGFJ,YLWCCYYDV,92017SKFLBXOOUYFA,,SBWUI,MZ,69532
40/97/2888,CFKBNVYQO,DRXVRUHGK,76166QENOCOVZQFVC,,QQZDJ,HP,27699
20/06/9167,LIMMWOPXC,OENKGITKV,37575ICGNUAEOMHHL,,HEUWI,TK,17925
65/74/1274,VEJKJCQEW,IYWROVQLM,48464ANBHZRRMZNRG,,GPSCD,GK,41815
81/90/3939,SWLUDWSPS,HGQUXFLMN,67002FCTHYCWUZXEC,,BZMBV,GL,19874
37/84/9589,XNEOXYBRD,WWHQXJHOO,23376RTJIVAIYEHVV,,LUUYZ,AL,44673
30/98/1074,BQKPBEDGA,WNFZUBQOM,74386FOYNFNCXWWII,,AUXCO,SF,18835
96/43/0489,OXMRMMVYJ,HLXNPRSUH,89510AVGIYDOOAISI,,TNUZD,EG,52080
56/12/4201,YDAWUFWDY,NECCLZGIM,84886VPMLGFKKTSSI,,SVBHR,TA,05231
47/27/2962,HQFULXWHS,MTNJSFHQS,97502WVOPMRRKRNWB,,SBUHE,HA,46893
76/66/8849,CNASMQWMH,KQSGKYEPT,50553UQYWMOKNHIOM,,PQRIV,LH,66548
40/86/9456,GNGTKRFLP,SPJVCGUHO,36140QIIRNVPAJNRN,,QNJYX,AT,55701
70/41/2905,ZUCQWTZZL,LDYUMVJLW,71002QIOSRDTCUTSY,,KALIC,FO,92331
65/27/7395,YBFXZCCFM,JXSYQLRXZ,09970BFYHDDHZRFWD,,TGPVQ,LP,34049
73/89/2670,LXIGNFIUF,IZHDJAMRG,49518ELUMMJHBIURX,,JAHRU,RJ,55029
61/46/7513,TLMAIPMLH,CRFNZCNWL,17819XMVKDNQSALZN,,PREYC,BO,43063
63/77/0615,KJXELIFAU,DGLVAUNHI,55721SOAYCWFZGTVX,,ZTWJK,AQ,60845
46/82/3129,XJDPTYKSV,MXVKUNHGY,43998IZJVBQGLLPZL,,BYNCS,ZB,88275
55/65/2866,CWZMARYHZ,IHCYPMVKH,33006KPHTXEYRNLGX,,CLVTY,NO,15562
89/94/1203,KEFJJUEHR,HGKZOLAWF,32025AUIJEIJTTFPT,,TNSMY,EE,26459
90/11/8985,SUFKOMMIZ,DPTWQIHBJ,53521VPPXCCQCCWRD,,XHWTO,FL,80532
77/14/1285,EHNMWMIDU,LTZLGVSCE,52746NIJTHNYKETUN,,QCCNE,MN,65044
32/44/0473,VOGXRNVXS,XGEJNIFYG,33623FPAMJAJEVTEZ,,KBMYL,AB,46873
15/02/8167,VVVHGWSHM,ZHNAACVQU,83280CTMGWOUBMMCS,,POHZL,RO,67578
64/96/2994,FTMWIAMKR,LIIJQVBDW,88943EXPHPWPWPIOH,,MKKQF,DI,11053
69/73/5919,ALZMUBWHH,ZFRDNKPZX,33094TVRVVVLYPYCP,,YBBKZ,ZJ,14406
13/57/8940,GHYDGDUSM,XMLBJMMFB,02957NYYJTCYEECNK,,ASBAO,KB,10592
74/75/7696,MHGYGDQHP,HYOXESETQ,66329NYXWARZAEYTA,,ULPLF,YB,47015
34/36/3105,MWGOCOOMG,HTCRJFGRE,63381DPBFVCPVCDKE,,JLXAD,ZE,18128
32/20/7452,BQUWXIVED,DRXKRLKBP,17287ZCXOEOHCFZNO,,ITMZP,EI,36182
38/52/7064,PVCMTRJRW,NIQZMEHTZ,74378HHRTZHOPRMNP,,HTROR,WE,24931
96/20/7034,EUPTFYNZC,XQAQVPDEB,15395UTBYYIMIGGXW,,KOFNO,LD,79368
49/79/6066,XCNUAWRJZ,YOKPBHYKY,33652WZAQWCKPYAJC,,LGXGC,WZ,17997
73/24/1460,KJRJQDXMQ,KIBEVZTAQ,58284UGVSTZEUDKXG,,ZHIVL,GO,91410
38/14/3823,BETWHSNGE,LQAIXDKTI,39655ZEFTTXCYGPJK,,FTOMP,JH,44842
92/94/3036,YXILJRFWG,TDMKJRMPN,37469QMMTYXUJVLMW,,UDNZX,NU,92361
45/77/0564,EFVVMPPPE,PBGHIOPQF,34408OEJLHVCNEUOZ,,SUKXC,VH,24396
12/42/1474,KNJVSSJQC,NJBKYAWZA,14429FTPDRNAEXEKL,,YYZYF,SR,30743
01/69/8710,ATTSBCIOW,TITLHYDLW,65844BWFCBXDWFWCQ,,KDASI,PF,20837
25/69/7976,BSMQUHKWG,ASINBIYCN,70697UANHTWGDTBAK,,BPHRP,CE,35114
98/75/7190,NSQBOUZKD,GEKFEWMRC,07908LULRGNYQRDMP,,XIHCE,RQ,31854
07/43/3214,UZXKSISUT,RUTTILDXO,09899SDGAUBVEVGLF,,XDMHY,QJ,91072
81/89/5015,OSWJJASAF,DKCTURFVJ,87987ADWVTIRNXEIB,,WDSVU,SA,46474
78/85/2022,KBINRDIUV,QZXAKTGLT,34818SNIVCCTGLMLL,,KCTRY,ZJ,41948
57/79/3956,UIEIXFFBJ,NLMRHZFZA,27333BDJDFEXQMRIN,,FZSKI,TU,30231
63/18/2499,RXOODMVKY,YNBIFBCOW,26994FPBKHECSETMH,,TQYWZ,ZR,05036
12/22/1390,CFITOXTDT,RAGPNEFDB,34204YADJWJKBOVRC,,TVMHX,EH,59559
54/14/5910,QFQMOCPXM,XUEBBJFAL,08470PRECLWLZEKTG,,FLCJR,XF,80335
72/36/1197,CLZPYSTMD,VLUJMFXQJ,70636RMDSIJKIJIOO,,VOEYR,NM,57557
79/78/8534,LXFEORJEX,BEFHGBMWG,51831CNNCWTBBGOZS,,WHXOL,TA,97988
36/33/7335,WGGRZOSNM,KZCTIMBTL,27976VBMAXQVWATOB,,RRYNO,QZ,41895
04/79/9518,EMSLPKQHI,LZAKDBRXW,98446AUROTXFCGITR,,GGOGY,JP,01651
68/25/2509,OTOCRTMJV,QMWAYIKND,00426QMJSYQTWLWLT,,GEUHB,UR,34675
11/67/0808,MVQXUXEOA,BMHILFHEK,14368EPKDKTCOQBTC,,DXNLF,PY,88004
33/38/1361,MNILRDFDN,XMVYGTKKI,11201FBQHEIXLKUZY,,VOJNB,DS,69133
44/70/3664,QRCVDYCJO,LHXDOCEIP,87770BJBMPOXGJXNH,,DPURX,NM,57310
42/51/4917,PPWMIXINT,AKELBGMLC,78182XXZLHIOMDJYK,,CKYUG,NO,95795
28/79/9754,ODGFXJDMC,ARDYQSOHN,81957NIKRYMDAVFPE,,OXCLN,WR,72538
93/24/6958,ACHEHRPVU,SBJHRLZJU,92763GDUJVRIVFBTE,,YBADH,AO,36273
41/86/6534,ETUPQTKLB,CSCWJCJYX,21157VMCDTFGEQZQF,,AGOGC,YV,89438
52/55/3348,FXFUPNTMX,SKLDICDTD,46895UMGYJMQEBGWY,,VRIIK,GJ,51102
30/56/6456,OVWSBYLGK,RGJLIBEMF,37192OMKBFYLQCTNI,,CNIGA,CU,30031
98/17/1839,MQHEKYJFQ,BBCYLUMKE,97531TDFOWIEJXTXL,,ZACDW,SB,84422
95/80/7201,DMIOTVNVP,ADGCQKIZT,92864QCEYAPIZFLCY,,DHIXM,FV,91190
70/84/9004,SNDZNLNHP,BSJPAXLIT,40914NKMYPTHBAGWM,,IRYAV,AF,66507
60/58/7648,MEFXYQZHQ,KERWZLTFW,82203UORSIPBVLITL,,JDPNP,ZY,44759
80/62/4790,YOWQMARSR,RTNMMYKIX,55201ONRSCGKJYQAG,,YPDEJ,PJ,07652
37/43/1743,ZBBRFHBWY,ZLOHFSPBB,19308TBGEWQNFBZBG,,YCZVC,PW,22169
53/31/4122,BITMTLXVJ,HMXSWCYQW,84975ULUMSRINNDDD,,BCZTL,NW,13887
83/75/1290,TTNEUZEVV,DAEPKVYGC,40104NTVNGLCSUZDB,,BZVWM,RF,55756
69/89/9353,QRCSFHNVK,VXRHESHCP,19632WGFWOJLYQTUO,,OARFQ,JT,26696
96/95/0509,NBVHXQMLP,ZDXBJCUYG,08972SBIBUTAQTNVR,,AKOWT,FP,59978
74/72/2512,MAOPPWAXA,XUKLXSAEN,89278JIQWSYNOOYHH,,PSTIS,CY,75031
97/53/9980,BLCBKVVYW,NQEADAWTP,91133EIFWTCLEHNXM,,UAKPJ,KT,19051
80/25/4954,OMOLZXRMA,QEVCNHFXB,44201IQEHHRJSJZAV,,EJHTW,HR,91739
27/17/7848,XFVTEOJTP,CCYVCBANW,52546KLAJYALFATET,,HPJHR,RZ,47916
39/58/5947,FNJRIWVUV,KPBKDQRRD,92199GDLJPGGFURFA,,FTBTU,XW,74121
36/49/4511,CLRISOBPT,ZUMHVKBJN,48371AOCMIHKXOZBZ,,NRPPZ,VK,35015
83/15/7067,WKGNOVPHE,NCYYNLUJB,23260WTETBJLHQXBP,,JOQVQ,OY,50198
20/16/5535,CJTJSWYGC,LRFTCMGIC,68420SCHKGFYFEMJB,,TIPCI,MV,72765
66/77/4051,DXZJNBFIS,UXRAHGMGC,32806YXCZNCOTYBBY,,PBEXJ,NL,70491
76/67/6646,GEDRRMJZK,PDUJPNUUK,51535KDDZOGRYVWNE,,IKFIF,JY,08118
76/15/5738,VNVFKRDSY,NUIVCCPSU,08356SKJAPMDBKUXD,,HVKBT,AK,48682
06/97/5994,VJVKJUNUV,MVOYMCPYD,62546RMROURBWBKNJ,,MQJZJ,XS,98284
49/97/4578,BDVIFWTNU,GGKGJQZSS,02576OPPKJOMDSODM,,QMHVT,KA,61633
98/95/6231,TGRKOMKAY,BIALJLIMF,57462BELAVGJWNVQO,,ELRQD,EA,62985
42/53/2777,HGLOIGNXN,KBVFGSZBT,20599QCFQBCCQCMLJ,,MERHW,UU,01094
79/41/8120,PPXYWGAGY,MLYYLVJPR,74284DWPSBOQPUDWD,,ZSGUJ,MU,24562
68/85/6952,CSJXUWPQU,DJXPAJTYQ,29917JSPEUXTMAUCY,,XZBQX,IL,85308
06/00/5827,KCQRCHKUV,WKVVZOETE,82641SOGPECXAVKKA,,TUMVF,EV,96609
66/89/7631,DUEXWWKBP,BZWCPTYTS,64110BZAHCBREKMOO,,TWQQW,HD,11390
59/38/3167,DTSYDOEZC,DJGIZBTLF,93658WUKGJBBGCSOS,,LGLFR,LH,77722
01/89/6166,FABYGIKNN,MFPJVHZPR,27594QEDSTGIYQKEC,,QNPGV,PP,07870
65/32/6801,GYJQBTZOB,XZFBTNMTU,88631DYWECUBHEEVU,,WWJCK,XG,94625
04/95/8391,RLAYLRKLO,NRQOJAQJB,45021EEVMMSUWFRQY,,FNSLX,UV,04733
38/12/0865,GFDROSTGK,JSCUXFPXH,24329SVYDTVGJVVUU,,IWAQL,DB,07766
86/05/1474,IJVQNKTTE,UXLBGRVRR,08631OJMZNKJVFDGL,,BNRJC,OO,54813
58/86/6073,ONFUSIWWS,IOTSXJIJV,17755MGQVDZTMEMAJ,,CIFRA,CF,74860
83/36/4627,EKKWALGAY,XWPOBRAGQ,99231SFJLIBBXQEXW,,VZSNJ,WP,45635
99/10/8864,LUBBNUHQJ,FFXCORMOM,42011FFFPWFEIIOUW,,VEDPV,IS,34097
71/36/8268,WMDOWGLIQ,REACWVSHO,34442VDSKITUZXXRF,,GTDDC,NY,25258
30/86/3120,NIRZNZQLP,RPVXGWCYJ,08795BGMEIQGSLBDZ,,IRYXY,WE,21150
55/86/0452,SAQPZVCJB,LPQDHXBPN,39413JFWYXSGRBUKG,,RHHHK,BA,69652
86/68/6893,WANOLEDKQ,CDJMBMWPY,39031UIJIJTKGVJTG,,VXFBQ,GM,93241
27/28/1194,QZEVYNSTC,MAQEPBRMP,53965YQDIVDWLEKRE,,IPQQE,BC,19081
62/89/6073,JMKHXIJWK,TVEULTFFY,92029XQWWMIFPSRAU,,IHVXT,AP,18681
36/01/4963,GHXCMDBEK,GFTDHBTLW,30654ZWRTVWFPMHQK,,ZSCLA,FG,40008
95/39/3908,JHPTHYFXR,LIWECAUGA,23178DAOEXMBATJKX,,YJDJV,EO,03449
66/12/4761,VXFENYALY,GAFHOHQFI,70236QSNQFYKQHOKV,,JUVNK,JD,83695
23/17/3590,HLUJCXQFM,HWLZWEVJK,04471TJSCUFSGHTMU,,HSPHY,FO,93963
85/60/2697,CAZJEFUNB,UHBOQSDTF,86873UACGWSPKQSGQ,,OQYQS,DA,38926
87/45/7600,JSVXMAAKC,UTSEYJFME,32212XQYYULAPVBXE,,MNOCV,HL,21901
55/89/7983,MDVJGFPYA,HTVZBFHIK,85607WMZSELIDADWD,,MDOIR,CH,99896
07/93/0131,IDTFGFLGE,MXUSAITNC,64179JHPHPUJFOOIU,,JLHHJ,LO,84378
76/45/6639,EENJLUKML,TXGDEHEIB,98502YRFVMMEWCLHI,,MZZLU,CZ,28578
87/38/3845,LTSBIBVUS,MWYBAZMMW,82624ZDTHZVBOCFKM,,JULCD,CW,11964
51/33/4713,HEAONXAQO,VAPFMLDHD,15774IEMUNDKCZRZK,,RUGRH,GW,03916
64/78/9502,KNMPCDJJC,BRNKCCGKL,83513EGSTTFPMDSPT,,RBCRW,JR,09213
18/71/1965,ODQOEOIEQ,CQXJMIVCB,40138RJKGHQGCCNRO,,PPYUA,FJ,75342
60/61/9230,FWRKUFNJY,ZAZYVMTEQ,25160EEMIRNEEODVL,,DCTYF,GH,27405
03/63/5485,DTBUKPYTU,PEMEQHTAV,21335BNQHAHNFJCND,,EVTOJ,DV,40962
21/66/8236,MZQXMXCFR,LWEHWXEQB,94733NJXFVRQGAJNS,,WENWQ,FH,13672
10/93/6311,UFYZOEEFC,QWJERVGMB,70570EOTLYUNUTYLR,,EYYRQ,JZ,63494
09/26/6954,VVAKIUZSZ,MRBNRIJJQ,35184MLZUYIBZCGRX,,KDJFE,MV,49278
21/99/4757,XTZEJVRYG,RDZADZAPQ,72441JNYBCSANMDTJ,,OJMER,XG,99738
05/97/1844,EDIPCACKZ,PKMUWDCQE,68762SXQMMKNVMOGR,,ILKGU,PE,66009
20/22/0531,WUXDDDMIJ,SMZQQBGUP,95304AAQAOKLRUEBV,,EJRLJ,ZI,22455
40/56/4275,POVUNBXZI,USGTGKXNU,57605FGCJICOLISMU,,WXYZA,ZH,70861
97/19/4850,QASBHYDOO,NQLHBNYNF,57024NUBYVXGEGITR,,XAALL,QY,43940
79/15/7425,EJYOZELDY,EDTQIUWJM,75044DYIBYNIWUSJB,,JWWCM,ZM,51840
43/39/5854,PLMMPXRZD,YPHVSHBZR,81284MABQFGILHZZG,,YLBPA,UK,27577
78/55/9204,RLTRPCTAU,HJFBBEVBW,34381NHQDNPUIJKMA,,NYKLA,UB,60362
18/97/7357,YVYPZYZBA,HJCXPWLTX,60914YFLYRDMFUNZM,,TMOML,JU,87736
07/09/0800,NWNLOQMRS,JURTIAFRB,99072WHARRBCIMFTD,,MGXMX,SG,76397
53/97/3345,VMBRHKUFL,QKZWGUTFV,30305JSARTYBMNLNU,,DIRSS,LM,62384
79/83/9290,JGJHVCFTP,EEXQBLUNA,02103HARDRJQMDZQU,,HDZSE,MG,73333
94/22/7735,GWXIGNMKO,YQQRHFYBY,98222PSDVDQPDXXJD,,WBCCC,FR,49158
34/63/6791,OBPSVDZTL,MYMOCFRKB,72531SOQWRSCKUZLX,,HKGWI,NK,05372
05/60/6176,FXFFPIGZG,AUKYUCZPZ,65802XMMFIQZGTZDJ,,GBOMW,CA,99478
98/89/5065,VQRCLFLEE,DURRQQNUY,45334XFPXBILEHEGX,,QXQRJ,GD,02845
95/81/8973,GFCLAVCOE,UNHSCWLQH,66366KQSISHUCLTDD,,HVMIE,LD,30233
99/15/0995,CTFXKWGAW,JBEGVGCGF,19084SUSOYLQNGZPX,,QKVTJ,TP,95070
00/03/5217,DQGNPRCTS,IZSMGYUYN,84994QHESKEHRVGJC,,APIGL,JB,99328
50/80/8393,OEAQCOPKU,KSVLLLFYJ,36861DHOYGSMTCOKA,,NRHNY,LQ,15951
96/88/8901,FJCNTBNOF,STJAMXWNX,23209MNAEHBXDBHBC,,KYBAF,SB,20893
00/92/2909,MDKLOQCYW,UXYXWKPRO,97928JBQPSWRHPIDA,,IMVRQ,SI,76992
94/37/0579,BBBYCCIIL,DTTWCMGRU,66894PELOSDNCKVHS,,XZNDX,MW,67972
43/32/3586,GMVDXXKVW,TAWEXKHZC,59854PWWKBOKOBHXJ,,XODWV,JT,76812
61/13/6821,CCOPXDUVQ,HYWICFNTS,18558AEQHKIBCGJWU,,NSDUS,AK,04116
15/15/0739,QTIVYXQMY,OMPDGAUZY,86065XJQDMIWVQAZN,,ALOEQ,YR,49373
14/10/9389,JZQLECRQJ,DVDBOURQT,00358DOVDFYSODPAD,,VLRQE,QK,87304
40/43/6318,OKGHDPVZK,SVMYKSRLH,12650CIUJDMCDCHTL,,NJHDF,AE,79055
01/56/1900,MTWIUHLNQ,AJFCISXJS,36851HCZQCSYLGQYI,,GMEHR,HZ,88846
54/87/4904,DPAKLFKYA,MNVYGPHST,62624IFJWEXKKBGBZ,,TCHQP,NC,33178
94/48/8653,YGUBXUKWK,ECBPSNSLY,30103VIIJSPGSXBAS,,ILOCB,MO,27974
28/63/7846,BBYCTHBAH,BJQHIQOXT,32065UHYJWCOOTCPQ,,HOTTP,CL,85813
42/15/2203,AKAWSYLUX,EQYWPXNHV,31123CDBWXOZCXVKU,,MKZWG,GO,92404
68/53/1309,LWHJXFJMO,XWZAXJCMY,76906CPGSJODIFBLX,,KMAVC,EJ,71698
62/58/5272,PERERIMID,MUURKPKZC,34855CQUXURNFWQWD,,CAJPP,NP,88036
13/03/0653,VRIJPSGEK,NMMKVCSLB,70709OUTOMRQXDAPX,,SLSXO,AI,17856
43/02/2494,UMWRNFTXK,IUBEXNPRJ,69177QRYXBZDXYMHU,,URMIG,WJ,94255
61/00/2229,YBOMIJXIK,NLJSELEDW,23814UYMDVQFZOAEB,,ZXLDS,ZY,15643
35/11/2259,GXKKJWTCD,QDTKAUUKM,78993WJVIXXKDTBSE,,YLTOB,YY,51906
37/04/8021,IUBPSFBQQ,CVRMURIGN,47104LYNVGDFRZGES,,LKDQD,HU,57424
19/34/8865,ZXYURQIBC,ROKDZKHKQ,48089TREEZCJQOUSY,,QFMTD,QA,40969
40/82/1766,QVGLWXHUD,VZBKVJUYH,01293LWUSJXYNOTLB,,IJODZ,QA,29249
24/66/8887,FFYRNFUOZ,FYXARIGOH,50871OXOWIWFJCIUB,,CLWTW,ZS,38541
92/60/7536,KJBDMCEDB,YQXHPZCRS,22453HIXZEESTJCIR,,ENYOC,HF,06889
67/52/9506,VCTMHMWCV,MQZGLDRYS,96599BQCHDWCBRSFC,,AXDXN,SI,23847
71/15/5768,QLOBCONQG,LYGRMCIKW,53882RJREJLLURAUU,,TQAOX,EG,66466
44/98/2707,IMEFHDVRS,XGGBHSMYZ,61483ULZJKNRCQGKC,,PJBKO,EU,74140
90/46/8822,IYKWVCBQK,CPPKOABZL,79096CHNGGQTFDMZZ,,LSIVW,FC,41782
55/28/8395,VULXUABMD,ZKPRDJMFC,73365RTGRMCUPDKAG,,DBPIT,BE,20169
00/61/3603,PLXGJBUNV,KPZDQQKSP,27737EXRIXWWNWJNH,,QYPOU,UU,35656
60/69/0128,FNDETIQIO,YGVCYTXWM,72057JCPBIDYXQFDV,,WBHZF,FX,70860
19/55/5258,RISFMDPYZ,MCVJUAQTA,72749WKQYEPTQXIAH,,LPYDC,DB,82707
63/71/4868,OGFBFSGKN,XSFCDGTZJ,51729QUQMHSPVLJDC,,GUCVI,XX,51535
89/64/3972,GGXQSMJEB,DJPNWCUKC,71154VQLGCBZYNHFA,,LUVNW,DG,88074
21/48/0290,RJHWGJWOC,USYVRNTXF,29320VRYHTDLUXJWM,,AHUIT,IN,59241
12/18/5569,FRXASEWQF,TMLRGOQTW,70188SEZBYBZXQUVQ,,NADXC,NS,27979
36/92/0476,PKSFFQKQJ,XUMQVPZKS,82538XHMFXRYYHBQD,,PNRLU,AV,85024
11/59/3412,FHLXHMMYY,KPJOUKDGO,04299OFAIFIWTFBBR,,QXQLD,FN,44882
57/22/7956,BBVGVXXKB,HBIORVFZL,88603MCWPEMFHXIYP,,AAPOU,BR,80136
46/79/4896,UTODECLIG,RHERIYCZV,98389MZONEIBZYKIS,,XHYXT,PI,09819
60/68/6943,JVFSRBOOU,ARIFQBGDX,24980OVJCLZAAHWHG,,SPYNT,CE,95429
39/52/4310,RZIBLPYQT,TWSLLAUPY,24299IBWGSUVGUKZM,,ACJKT,TN,90520
68/33/3227,HJHHWZRLR,UAGEZIKRX,45047XCEBUKZAUQTM,,BGFIU,OH,23789
96/56/5468,YABIJDFYV,GRQBWQABW,03019XBXOAEDAYHXU,,OMFII,LH,68751
03/09/0161,PAAUKAOJN,FZQMCKWMH,90178KTDOPMHSNSBD,,VMYXI,KA,28935
48/20/5082,SQCADVXHO,MSDIZXSCF,60355AAENGUZXJVNE,,CVNWL,UK,09401
42/92/7680,LBOVFMMEA,FRFGEKHZJ,73464FEZNHBDKLXHI,,AKMON,JQ,88943
48/56/6067,ADUATKYAB,OWRKKHJVC,05716UKEMHJRLMGDE,,MEKIA,XD,52088
57/12/1324,SAMBIYGIE,OENGPMBXB,82609YVYQLTDTVDVY,,VEKMN,RY,87104
01/58/8909,ESHNJLPMB,TMCXUNRGA,19337APNKIGUXJDUJ,,LJDZC,BS,16252
49/89/3862,GANPZERXO,LBWEKCIHI,91279NAZUISXWRBTN,,SBEVL,AM,90661
00/32/5476,NJRPASJXY,POQQZNWPO,80148YGNFQIUSYZRI,,HWRVU,IR,57666
87/55/8752,JKNACJYPS,YXRERTJTL,95549SAJXQHYQHAUL,,PUOZR,VP,19238
04/57/7269,SSLYYPPMN,MZTEKROOH,11790RBCBPWMTPNJW,,KGSUO,SD,99730
72/51/4320,KSUVSGILR,FQPOMRDTZ,31280YIPHWICNSONZ,,BEFXQ,BZ,26956
15/87/8644,HCZSBPBIX,IFWSNLPGK,29882QAJLNKRNTOPI,,KFVQV,US,52976
46/33/2961,OHNYEAPIQ,KBVFCLDZP,60639MGYSUOICRWAQ,,SHSNI,CC,62484
69/73/0710,QJZLOKFDS,IPUHTFWNC,30182OHVKUKSYGION,,IBKYB,MD,43164
66/93/3762,AKMGWMPFY,NBXOCHKBY,70060QQUPJDPAXWQU,,ACOQZ,AA,92880
76/00/8180,XFREVWIXN,JTRPZBFFX,14624ZKLQPUTLPBFZ,,BPJNX,FZ,36289
86/49/4135,OPXCRKQYU,BMGOTRAZO,84213FCOGQMOOUMUB,,BZZFW,AP,99789
10/87/6674,WAKZOAGHE,GEAVGLTRO,04358ULLXTPOIKEFL,,EPPDD,LV,44226
86/77/6348,RJDMTAEYQ,YNMNMBYPF,93808YHFKOJQMNIFM,,ZRIHP,FP,79294
10/62/8928,NTNVIEDVZ,WKLXEJZKZ,38861ZSQIMHJHKWAX,,FYUJD,CX,00390
37/65/5615,YKADAHNNQ,UMPQULUYM,97528ADVJQHTNFYRQ,,EDLYS,ZF,52105
43/99/9324,EQNNQOEDH,DLRANUMJY,16567SJELYJHKVPFC,,AJVRY,QH,37988
55/15/1557,CGXZSDKBQ,FTGPAOJZP,21379PNULJLZAGNPR,,JBMWF,SS,18488
21/24/4838,JULJUSWGI,LXKRCSWRE,46098HJPBNIEGYMBQ,,ANSKA,NM,58128
70/08/1025,DESRBIEVN,XVZNZUJMA,95882JFUCPLTTPSOM,,KAUGK,SR,92976
82/81/7956,FJMQUJZCZ,WICDMQUCB,03804GBGRKLFJNPZN,,NASBB,RH,65866
92/58/6746,VTQCEUJRW,JNMYLDNAV,87259PPJAKDLIIUCR,,QXFTE,XE,11543
62/71/2257,XYXFYDDEH,PSTWMRYHX,55133PTRULKIYQURZ,,LXAPL,AZ,85376
49/26/1877,VPAWZGDGE,PSHARIEIK,17191TLEJCCZKIMAG,,YAMXF,WN,87869
01/07/7899,BMTKZOKBA,LRWHXUWMH,20541HLJPLLPZVLUR,,ZVATU,OQ,97942
51/55/2516,XPNNNLEIX,KZVXANPIP,11465ZFAMEGTWHOQK,,BRSDK,WT,88076
04/83/3489,LCATWYFGA,IAVGDILYM,67308MYYRAGMCMIXK,,ZKKQA,MN,56270
16/72/5848,JGMRTGOQV,NWMZNEKIT,02377HHPWMVTWSPSJ,,MCZSI,HO,41003
32/24/5529,ASTYJLOGY,FBOZWKRSM,21429LOIERGOUSFGZ,,SPAHG,GS,38866
81/21/0546,CBVTEHMSF,WMAPYISGK,46556TOOJEWUHLMAL,,XIDRG,XU,73376
17/63/9281,WZBESPLZZ,JYUGXXPEY,44175NLTISVLOJGXW,,XAVIP,EQ,27270
08/61/5242,RYRXWTXFY,JYVZQLAZN,19991OHKJTWSEQEBL,,QHBFB,US,38273
39/99/8912,TXMDBBNJT,BBNVOBSWQ,18890CWZBNAEDUJDV,,TWUNQ,OD,34111
46/01/0598,UPFPIZYVW,QWLQHSJKH,76999QOGDNQANKBZK,,FRDRH,KH,66160
57/84/6475,ALPXSIVHD,ZGHPHKFCK,60110RHEDAYCQPJWF,,COFPF,RF,75956
85/59/1549,SODRPUACD,OHKVEHXJL,27107LBBRQKOAWVDR,,BINKV,AY,74847
81/75/8037,EMJBXNIGW,WWEZVDSWN,45208BQXQNXXLXBCR,,CBEMN,WW,78711
03/86/8247,XARACXDPV,WSYNKFFOL,90688OFNIAEZALJOB,,GCZBS,OX,38880
66/41/5437,AEUMUNQWZ,FZHNHWLJU,05898SORVIBEKVVXZ,,IUELY,LT,64468
84/75/7099,PSJJMJKTC,AIFNHZYRU,51303MPAQXHFAIXRM,,RJJHO,IC,04977
27/19/5601,AJIFJVTJH,EDSTNTGTM,45392QZHMWCXDLTGU,,HWLSI,QC,65738
48/21/2584,ODSVYSHIE,JQMBUULOK,86854OBBRKSXEJBVX,,KXZTO,ZU,92689
36/65/2935,SBOSIEFVP,LKVSANZQB,38259VRAAWCNNKJCM,,FTTZT,WZ,53439
78/47/7480,XOPLFGYJN,YXDXSWAWG,96934NEGXGJNEFNTJ,,IIHMM,MW,51144
03/04/2269,FHJLZRISM,DGYEBSWOK,21568DZVPGQRZYQYY,,OMTBH,VO,13984
83/24/6330,HNUSIKEDQ,GFYAUJZUH,57467SJLAJTHJLKME,,MWBKN,EE,66238
93/85/8118,SICDKTPPM,SERRLDFEA,22546OOHZDBOEPZLY,,DGRYI,FB,64044
89/94/5900,XKDJEPCTB,TYCSEALWA,73359UBKJRYHAPGOX,,CQLOE,MV,81540
55/73/9846,QMXXKCXGB,ONSYNVZAX,50696RVDVHEPPQKUF,,XUTPY,RI,27241
80/28/9001,OUMWDPMVJ,REWWHFHDX,49071BROVZBNJOBTC,,ZZOCE,QS,06092
73/35/6430,RNXYCSODT,CLCPSUVUP,78059RQGFJUWOYMWR,,EZAMG,OX,83083
95/07/3193,CUQNEFGRN,GMDQKIPMA,89104MHBSIPVNAKBN,,MPFIH,XR,64987
13/57/6194,MQQKLQRAE,PVMTCSFUS,98645YPXXPVZSVLDJ,,XEPEV,AJ,87524
48/08/4029,QDUKUWINI,KFROMVCIQ,70492MCYZCTAJENHD,,PPOUQ,UU,71291
11/31/5889,GBPYUEEEB,GZBKHUHIX,44685HJIEURAAUOKE,,BEHNK,MM,11078
55/24/5822,PCOUTLSZY,JRFJPLXYH,10499DOLFTBTLYEHK,,LZWAU,WQ,09568
06/73/6374,OHXWUPGBT,RFOZCFATY,23747VKGSIQDQOYMR,,ISTUG,LW,93765
44/88/3549,DGZENWCNP,HKWLQRMHJ,19952QMAGCOWPIHQN,,OHDUT,EN,90445
01/12/7847,CJHGTGXLL,MQBYAUJWT,85152YXQQVSSLIQHT,,KOYMY,OP,21448
22/58/0515,PKNPCDPIH,ZAXTFDHDD,99056UDSNANXFZPVV,,ZSMPV,UR,28685
04/63/2270,UCGYQCELY,OXCNZDEXO,48238WHNAIIUAZUEE,,SAZHJ,ND,93931
94/17/0253,WOEWJZKKO,MTJPXXUZX,09520YOTAFJXPPMVI,,YHSKS,SD,11176
42/90/3928,SBHVBKJPJ,NBNUIKMPQ,49365DLONAFVFZRQF,,KHNEZ,BU,16331
86/37/4917,HDPXAKQGV,SAKEAKSBC,19167STIOSYDHLKUA,,OSUUN,OO,97582
70/31/4222,NOHTLXQUG,WAOBNJPYR,12627MWQWYMAUXXSY,,MHHOK,XJ,35136
47/97/2844,FILMTSKCY,NESYBCVQG,85300XKTUKCWIJSPW,,DJSLB,FD,23145
31/93/7495,HGMPEEYPR,JYELKAGFK,86218BWVOIJOXVCLE,,JXXAS,RO,62197
15/88/1356,LFKJKRUAS,VRMOREZFP,96311OTQLJYIHOGVU,,MIYXY,KH,73846
08/40/4938,NJFNFODAY,AVNETSKOU,04718DOMQGWVJNOSJ,,FQGVI,UG,07670
83/50/3339,LLHKKGFIK,EHELIEEKY,07708RSCMDPVTTQKX,,PFLHR,BO,25502
72/70/1147,OXSZIJAWY,ECMNLWAWE,76881GVUIECGQIRQE,,WPQWD,GF,17322
52/71/9806,VYXXVLPHE,RSCPDRSDQ,70711NCAHOTVEOMMB,,HAYFU,UI,52746
62/16/6035,QKGNGRHBQ,AGPSEKVDW,09571JJWLJOZHCLFX,,AMFAP,EU,52329
77/97/2601,RKKPZZJME,VNKAGLAHH,89266DIBKOSXJTIWS,,IXSRV,ZP,08740
91/05/2874,BADIWGEEO,VBGOBNJDD,99552HAZTIBKZHLRV,,HUXUK,UY,23943
67/92/7068,VADTDKVVV,NHYRUUDKG,48463ETEDVXUSICKY,,QDFMC,PW,76157
12/06/4350,WYSNASMFE,LFWPLHOXJ,95852FAIVVEBHOCFL,,JJTSK,KN,41952
88/65/1399,FKYWQLSJS,YANPGSEUC,02551DHELXFHAQSBV,,FLMER,XH,94191
49/16/7190,ZFAXZUAQA,MRNORRNHA,70435XYWDWOXWSHUZ,,PEFZI,VZ,24476
51/26/4106,CQHCJCZIS,QWKTZRFBV,01482QNFLJHRLTITQ,,VAKVN,ML,05680
34/69/0738,KBOGUWUYF,SISGFWTJJ,00166ZQCXKVXCZUZP,,FTIPC,NV,66448
67/26/8261,PQDCBFNGM,LLABHZEDU,53214QFUBDVRSGCQY,,XYATD,GE,56991
77/93/4128,HJTKJUTTZ,KBMLTMOTO,81429BYKVJNNEHTQM,,RIJQF,QC,09272
60/39/0624,JKQMRIPYX,DRRMWRTMR,88690AQVCHRJXBRBG,,TOLOJ,KF,87129
10/89/5781,QWATWDZBF,DSQESKHGT,58275TSQLLATYCRWO,,USMVL,FI,67142
00/51/5512,DRAAHKVAX,VUMZTRZFV,83519LNVVUSINTAKQ,,IXVPP,ZO,54138
30/50/9659,WBSAIEFQI,FTNNWHPMU,57286LNKDPSRKJONT,,HMCYY,GF,70475
55/42/5284,GUTDBWTPZ,MIVCMMOIN,26448XROCBEFTGGSY,,UJHVX,FP,47514
37/57/0127,ZBXQBRWEQ,DVVXJDEAQ,18191PRMDAKRIECLX,,BMZFZ,UO,15980
18/79/7046,HDSKOEWQR,UYSAMOVLP,04675REJNJJWJBQMG,,BTHTF,YK,98328
06/04/3737,RDYYOSZUV,BWXUFVXWG,13473YOMALOBXFNUP,,DIJCA,KM,32979
93/41/5828,VLROQVMGT,XJGBPNYMR,95373BAVPDGYAJBVB,,EPSRE,SQ,83601
80/27/6572,LQSOSCIVJ,SLCKISOXT,78257QIHMWPZGJAXP,,VMKZE,FT,18633
57/96/9992,ATYXDLJRF,WSBLPSZSX,10819XKARYSXPADJO,,VNPQI,EJ,66488
87/65/5093,RSRZEGRNK,LPHUANWVN,57097YFMMFCNRFDPF,,RXHPH,MP,78483
37/02/5982,WJQSYADFU,ELBOGWRVU,03224JQTFNYAQWNPZ,,CTWDH,TL,45671
24/90/6924,YGFQCLJMA,TZNATTQPU,52717LYXEFDUBEHMS,,QHTLV,LA,83788
74/09/1896,UCGRESQNP,FNPMMHWNZ,11694CNJZWMTOERCR,,ZMBKH,BY,53765
80/25/9892,OVWZJDKQN,PMUKSCLQC,12885NFDJWQGOPMTW,,LZWFB,IM,10079
66/74/1963,QFWKXPFTD,HTRQHRPJN,97081ILYBSJPSTZYN,,JUUHF,CS,46196
12/84/5652,BJHSXNLOS,YWDBHZGXO,83532FNITXBMEPTJV,,SVIIH,BP,09374
08/86/7208,CIFFRBGBU,WFPBIVGYJ,02850CUKRDOMYFWAA,,KITZV,AN,42410
88/82/4451,WGCSBAJRF,EWPCCZDII,10892IWCBBZPEUVNN,,XFGEN,NY,92078
71/40/7350,LVKVEGTOP,GJSGCJIUG,67133GPYPYNDUBZSS,,HWDXE,XH,82568
22/67/8351,CPGOIUQYW,DXNUVSIST,68435UNYHTSPWURWL,,JBDLK,UP,66166
61/86/4752,NPDKLOPPC,QHVECFMYF,43162UGQTQSHJIATR,,JGVZL,GT,40090
81/95/1414,RREPJPQNV,RBDMBUGYI,51890VFOKKCLBBMQG,,MBUXB,YP,04314
80/85/2788,SWCBGWPLT,BIIETTTZR,81948YKWSCLRZTVLG,,OXKHQ,QB,12740
36/82/6428,NTBKKIMRX,IOAUNWAQR,59973LVILVMMEVFGB,,HUURE,OA,22685
14/06/7763,PDXWRXRPM,TGOINFKDN,97099JPDFISKZURGV,,ZHEDH,UQ,22543
37/71/2329,HLSQQUCMC,SSHRGVTNA,93405ZSGBFGKCOLFP,,DEVAL,KN,47330
65/70/1301,WDOROEKJM,SHEWZDWVZ,22273PJXSIKSZCXGH,,SJGFN,EP,66473
64/22/9111,XLAAFCLIY,VOWKRYYSY,11159DUONWAMYKVER,,THSFQ,SL,20670
96/75/2053,VPCBXWIJH,EWCBXHQQQ,36044ZCWUXWITZBVZ,,ZRRFZ,EQ,91371
31/46/8669,LMSGYDIPS,TSCPGMJKV,82410NAJBEUGSWQEG,,ZXZTG,WO,71123
85/17/4008,SHPRIVRGO,ANUYTOZNV,31649TOETPXYVJIXJ,,AETOD,GL,28336
07/64/4520,EFRVYUKMI,VBVKXESRX,30025UEXYHZMLSHIU,,TEHHR,JN,10962
55/11/5907,QCWEYZPQN,OSRQDKJGE,33740GXIEIJCRORLC,,SALCW,UY,19974
41/37/5997,EHIUWDMLX,HFHKPFUVB,54777OXCLYJMXXDKR,,FJDKT,OF,27548
96/72/9968,JYJNPIJYY,RPEWIBEKH,41228WSIEXJKJDHBD,,SERPS,DZ,02018
82/64/7794,JMGWGDDLJ,NUEQZLMWB,61129HCYVSYJBZPWZ,,OCWIX,MO,28666
44/09/2090,MAQJLPJMK,SHOIWGZMZ,31910WCPHQLINQIXQ,,RDDMK,ZZ,26041
79/10/5279,IDNOFISZM,JIXYEBAAA,37966KBJWNPFWPHKG,,UFPLZ,XM,36262
23/57/5953,BLLWBAVNI,GYYLLQORA,00235FFJSBSFPANGA,,COSEN,TQ,23777
34/82/9182,THUROGLRR,DUQWMSRJD,39923YEPZCUZYPIBD,,STKVO,OA,82921
57/27/9259,TVEBVNLPT,XZMDXALNR,34632FWUPUNGAJAVQ,,UGUOS,LB,70127
94/70/8658,PVGILWSCG,NTGVNZWAH,37219PEKEUZQDYZMF,,QAIZC,BA,97167
15/70/7265,YQDTYTCFK,CMWMDLYFD,79856PHIYPBQSEIYO,,TUUHZ,DP,08357
01/17/6077,AZBJCDLNE,BUOHHRGKI,88709YFVKPEVQLRPK,,EMTBL,PJ,34774
45/71/1758,DSUWTBMFV,GSEVVYTJG,12569YOSIUWGJNQTN,,AUYMA,AP,87244
16/15/8611,JLYMZWEVS,EIHCUEKKU,63243GQKKPKXWORGD,,RUNHS,EP,87818
45/16/6967,NWKIAHJJU,OVDDMTQEL,29375ZJLWZOVFTKAM,,PZBSZ,QC,64847
78/93/5719,LGPMXBYAR,XAQIIALCJ,13483SZKTLMMMFFJJ,,ZPINS,LX,89391
10/14/8706,UIRKURAYY,ZJEIYKVBQ,60648GEGKUFMYZKEM,,FQYOS,XC,51602
01/11/6181,GJEGVYHZZ,HZKSPXSBI,54643OTAKTUZZIBOV,,YXYVO,WW,22748
72/19/2979,PCEEPFPIT,SSWKZRRJS,57625XHDKVPDJOPLN,,DONGD,AE,92776
46/78/3350,FOXCNCAOH,XSOQQAHDD,88019HULAPINDZPFH,,DASHV,SG,34450
88/76/3639,QKKZNYUXG,ACTSBNXXA,73203NNFGWTQBXZXV,,RJTOF,SR,19419
36/53/6698,QXKVOUDDH,IIKNPKFRZ,41725VZQIPEZXAZJR,,ANJIK,YR,78934
43/36/1281,OJYKYFKHK,ZXAMKOYVO,68357ANVVPFWZMHUV,,GLRRF,AQ,98792
39/08/3770,ZNJOPOTJW,TVLCJJMUT,83871HOVDTTAPJZKW,,ZSTSE,ES,82501
11/06/1666,BGJIHCJUE,XHLBNDHSX,53330NKIGWXBHWPGF,,COSDN,CX,60918
69/48/1121,QBJUCZUOL,WLGFDOMHY,66638TACHWGMZLMOE,,CJUVL,QP,45586
22/89/9766,QVWQNATNX,KMOEJEFUC,87400RLZLVIIZXBDN,,IWJDX,UJ,90297
94/50/0922,OTWLXVIYA,SHBXNDXKU,87791EKEBVFYZOQEJ,,GAHUM,BV,20052
79/63/6849,GGVZNXBEU,ALDNLIRXI,35257OFGBXAPIVCBS,,COFQZ,CI,96759
72/78/6625,ARHPXEGDC,FBZCPAHYT,39948OVULSAYIDFEF,,JJCVO,KG,61565
18/35/7022,RJTOPLZOW,YOLLDLJGT,22482HCNNDKSGCBTB,,ENEUB,VY,68230
61/80/3430,QYVEQOIGD,PXKFQLQZT,23597FIJWZBTUHQXY,,OPAOF,BU,13043
62/65/6102,IGGIDGANM,PNMBMMQMB,39256BKIWGVAAYOSZ,,WKBRG,UF,72169
20/65/9861,UPFZNAOAA,SCUPBAMSL,63635UIBWKRGOQYBJ,,JAFZK,ON,58141
49/70/1435,EOJOOZDBC,MUZLYGBSW,32610VTYZHKZMUMQA,,UUKIC,FZ,27441
96/73/5271,SYPWVKVKD,THFMTWKYO,21757LXBFLNHVEDXW,,DIJFE,XN,29373
47/91/0919,WRVQFVGDZ,XGRJCIPGK,22093HWEOHTLZFWEB,,MQUZB,SR,48723
13/43/5117,SJJHMKVZH,YUCRBILHP,99078CPFFHOQQKGWM,,YXKDE,WW,99050
53/64/0461,UFQZGGSGC,AODWZZEHE,15361QMZWZGAAVPPL,,HOGOH,TN,68247
74/88/4549,RTLJVUUJS,WBJEOETXA,38033YXXIAKGHCXFW,,ZDVYS,VM,33363
33/34/9653,PKBFGHBRZ,HWOTWGEUQ,87122QAJEOIWDQAZT,,VCFJW,EQ,23945
36/78/5622,XXOBFJURL,CJLVFUITD,21343TEUAVMPLQHEN,,CPOVF,PW,54043
76/37/6689,BJHNYLZXP,UFEGEKIBJ,52295RDZKSEKJPCVF,,BNWOV,VP,66660
93/89/8991,HFIDWJFUS,BZQJJZEGA,25963NSDOHCIEJTZK,,WDLJQ,JS,76141
06/61/6364,WAEZRUZXV,NDVIVEOAC,01121VYOPCURJOHYC,,YFWOK,SK,09301
44/05/1208,SPFAGLTQL,MDXTPGYFS,77492GFFOLWCVTXNM,,XXSJR,MT,34521
99/51/1848,OLNRWUZUP,OXNGQLWTE,15325VNGYQWRYNOIW,,QCDHZ,FR,22653
56/24/9090,HACSIAWXV,AMLFBWOOF,65680ZNKQOWIQPWZX,,SFBEH,UD,69891
83/52/5945,DSAVIMAFC,SZIWBDCUP,86266EHKMWUHICTKJ,,NOIUD,PR,91376
79/16/1029,JQQIVPNPT,RMWOWDDIO,44572UWSMJEGZKZKK,,JOZFO,BW,71800
73/51/7771,EDDPDTZMR,QGFXVUEJL,38473KPMTIBHZYUAI,,GGIAJ,HW,98225
39/90/4186,INCRLJEHP,TEFMFXBAP,62025HJNHVBHEWJQD,,BAIPD,JG,61989
95/65/3078,YEJQSLFVN,VVJJBLLAV,55971YRUXZZRJDSFI,,RRACA,EQ,53020
35/73/2879,FPOIZDOWX,YVAAESCRN,93125INCOFFYGFYRO,,ZXLFV,OD,05571
44/78/7877,WKQZCQQDK,QXTVEPYZF,53728VDRTNRUXSETJ,,PUKMO,VO,06894
90/97/2959,PKESRJRXL,WCLTPTPRI,49831CMFYBCDFBPOU,,ZTUBT,HV,72363
53/46/4954,ZGTWMKTIM,XRHNQRIJR,54289ZXGFWIMLKDAW,,QDUSM,TJ,47585
43/71/6200,ROALTORNM,HUNFIRLCZ,90422PKVAWCTVGFQH,,QXMDL,CW,85468
85/27/8845,PVDMSJMFA,NUEJBZUNW,01928BWPKVTTNQRHD,,QEHMJ,MX,82849
99/18/3181,MIRHYNRZZ,ODZCQVTDX,52820UIDAABKFTLWR,,JBWWX,KV,32414
61/74/2473,CAPJJEOKZ,WSNDOZGRO,30360JIKYFZDTTWZC,,LDTFG,XQ,87215
07/58/8812,PAYEDGNSE,QGUCYLTIA,56906XXJIFITCSKFF,,WYDPV,TO,81199
12/82/6167,AAUGSRXYR,LSTGQVJIK,27892FKNOULMZQIOS,,MLEQX,NZ,57149
97/32/5466,REVGRMKRP,MJHCTVENC,92068AZPMAFBBYOAY,,TDXRU,ZJ,48797
20/61/3951,FLBYGZDPH,XGLQFJWSS,87639VJVTGEFTRLPU,,WSQML,WV,29492
18/16/4207,WKWFSBLOQ,VHQSVJWRX,34402TJVMPUWJEJSZ,,CEDCX,SJ,90077
14/37/3904,FPXDYAWTO,BBRVSGQQP,25862SINXKSQSSZXL,,DVISD,CQ,62505
38/88/1261,GSOPAZRBQ,PLMGNRNPG,96999DZHKRIWEKDZN,,GZZZZ,HC,33933
08/42/5163,JWRZBAGEK,AQPWSQQNA,75648HKDYISRHHDSV,,QGIWK,CA,01334
78/58/1457,PHPPOUWDI,JKHXIHOAH,71558IBBABYSQKUWY,,BBPUT,TB,69086
63/77/1767,CCKSFTANK,KQEURSNAG,40252HLZMUGUQKCCI,,GOEMX,ME,11448
93/39/5238,RMTAHCGZZ,KFUBDZKIT,05307WGWTCDNEKWUM,,NUNXR,PE,51461
03/97/3612,YAMPBKEFW,BEELEYDSN,11366JFSOFQMWRNCI,,MWDHE,CL,08851
09/85/3003,XNYNBGMUD,RYEIAHRNS,97922LELUWREGBHTY,,UUWAS,YH,60619
22/87/1474,CCZSWMBBI,EZQBNOUNG,83341RQWQBJWBDKUV,,JURAE,MI,83305
45/22/0276,UPBNHPZQA,DBKKEKJAJ,01579HFKVEOMGWZLL,,WNUBK,PS,66628
54/19/1178,NOAKWVOQE,FPPITDJYQ,78786NDIPCJJDBZHR,,JKEOO,KM,05158
58/13/2437,JBSNUDZLG,ZPRZJFRNJ,03733JMFFOCXTANOK,,RHDKL,SE,82393
49/35/4356,WBCFCFOOQ,SZUUITXRF,68220WKSUVLCSLAXN,,VVRSB,ZZ,52895
36/03/8481,WLDQDTFHB,QCLZEMBNB,05833CPFIPRDZIDEW,,IFPFY,WY,26757
44/26/1961,OGUSKPDUV,SLBRGNDTT,06007EYCLOIKVAAHI,,CUFWJ,NF,55255
20/01/2588,OUJBWALQC,DPHDGEPVL,90072ZWCKAVYPPBZB,,SOAVG,FG,59583
03/99/3622,NHXFAHBIS,WLSQPXDMN,97747UFQJPDDFBVFO,,AZJTM,PT,33316
93/15/9106,SXHQIMJUA,ECZFNRTGQ,39571XSISGQSYXFTD,,TXUMK,KT,00882
43/60/3386,GMTUKZKZZ,HALZRTYAM,05951IUBFSRNFFJLH,,MJFAR,GG,97288
15/38/5545,AAFBNMMQY,EMGDLFGES,07422QQKQLTNWKHMJ,,AVUCZ,UW,79137
91/90/4981,XIKQAXCGW,BXYVHQNZA,47363BKBMPXNODKFM,,ZIKII,HS,58908
90/08/7814,KXIDMPLTW,NWNLEIIOQ,65204TRVSHAZLTVES,,ONUOL,DI,99819
05/31/2937,GQBNJMKRS,CNKOVMDHO,95341ISPATIMNRHJC,,EVXSB,LQ,26405
86/70/5607,XMCFNOEIQ,ZPZUFHAKP,40180XJMMBRMJDXCU,,AGCXY,MM,79920
80/76/0930,IIQVCPERG,DHQZKTOKT,30354VQNQMMMGKMDX,,FELPR,FQ,88900
99/73/7808,DHTUTSXOS,PEEFHRNNW,49218VVQFXWYAWNLE,,RHZRV,XC,55800
61/74/0311,MEHTGDFPH,SZEOQBAIG,97067FDHTWHNOOQGX,,VUXBI,FC,51607
65/18/6659,TTRKJFQYM,MFWQLGQPC,03487OKTKMGTCYQTN,,RWEFE,MF,79178
48/73/7357,UADZVVCXM,XMNLNIZPU,82737WVOFIKMVSABL,,VSDVY,VA,71998
13/54/5966,IDLTMJKOK,NFJTYQNZG,67826VBESVQXKVSDR,,BLSKH,KC,39901
48/65/5983,IFTRYLDWO,ERGBWGNOV,71285ZODWOFJOIDXE,,OQKHC,DJ,08604
34/45/4335,SIDRTGWZF,ZAIQHOYSN,82595OGXNPRAIVZUJ,,OWQLN,KC,04030
59/51/7928,HOWRFWYOV,EURLZMVPH,70100QXMNPXMNKPEB,,XYURL,ME,23960
57/30/1209,TOUJZGSXJ,URZKOUHOM,70576BJDQYRVKRPLZ,,WIHFE,VA,45615
37/73/2726,GPVHAEKOE,HTUALDLSX,95594AXUSBHAOXJSI,,RSDSP,LZ,93972
50/39/6680,SNUBKHXFP,VHLKEWDMW,29174JSOGTWAKXLZS,,VDMXO,SJ,54279
01/14/2333,CAXEVKYLO,DXAZPGKIU,84456JOWMUROPZQAM,,EMINX,XR,15295
09/02/0269,XAXNMHPIR,EIQHXRCVQ,23478SFUQTKSRVCXN,,DAZBP,UK,68003
27/05/1294,YBHRUZQVO,EGVRRPOYQ,28547UDIRQJVRHWRO,,NPNOD,JW,95831
81/66/4463,MSVBPCMHL,GFBWDRWJT,10168XAWDPFYSHACA,,TPXIX,CU,59921
04/49/3036,FUNBFNNAW,AOSHWLJPN,97782FBMPVMDRUYGQ,,ZENFI,YQ,31238
55/10/1569,QFHLDKGAL,UMTGYZUIL,29872XOICVEWYKKKL,,UFEQX,GW,92397
49/16/3689,VHVSGQTUS,FUECMGOWT,59776WCSXWVLEGHMM,,YZLCQ,ME,93895
46/54/3727,SUSUTAQTQ,XDDGPKKBZ,36289GUOSXTQFZDBA,,ZHESX,MD,96834
57/10/3887,RKTRXAZRL,JWLKDPKZS,43274UTNHPHQVWKQV,,PCVSY,LD,36572
40/84/4621,PRKGVEKEQ,QKVPMRVTQ,28908SXKWBOBKBMCA,,HKZKT,HP,31372
16/05/2754,PSMHDIFZO,VIHFTQEWE,25420NWHLUNWFJYBZ,,TFUAZ,RJ,86792
53/67/4889,WOKXLTDGP,KDLFAQKWK,32834DBHWRAQDWOAA,,KRTGX,XW,51455
55/08/7109,GMAXEFMLT,DMCJBCQUN,15623KCVELYYUKHLA,,OSQQL,MW,93823
78/77/0982,IDLLKLPJJ,UTRVMVWMU,47182LCLXPUVVJMWZ,,TIRPK,PZ,86489
96/14/1514,TMVKXLCTB,DEIVRXPQM,20630PEVVMRXUDBKE,,EIVHA,UR,14062
96/19/9335,UXUPKFPVW,DFCSDDEXB,55910WBHOMRNZQWUG,,DTBLB,KA,94277
21/37/0584,IOTPOXFZZ,AIQBTCAOK,65313UTLNYUMKKOXH,,JDMMF,AE,10017
08/91/7537,KMBYLORUH,TEBAIYJVH,54912KYWDNSMPQGVC,,BMWDR,JB,91612
73/69/0835,EWUYOGOSQ,GGRIAPQOD,13991RNETGLCWWTCQ,,FPVLV,NW,14383
88/26/9838,QUBZTAUCT,EDVUSKOSA,36479SBRSSEZUWJSA,,OYSUP,JM,18967
40/12/7871,YSYLXAGFD,FHKEOWOWI,33775XEUDSMXRVLXL,,RQIGX,DF,53978
32/75/2198,XBOTKHTOJ,DTYIOZLTG,03583YOARZCUEGOIP,,YHMYF,YG,62552
16/64/7072,MICZGPCMR,YZZFBGLMJ,80594RAIYVOAAODGP,,KMYDW,NF,06460
46/71/5709,LXCKLUHIU,ZLYMOOSJD,97654QEFJAUROVPVU,,ABDRD,QZ,68270
30/93/3614,DIRQXTGUG,ZLBXFTFIF,39280TENBUDHOUHFI,,VDCXS,PT,78306
97/71/0472,VBKULJNQC,GHVFQSBRI,77702IEENTYEYQTXC,,IZXCI,PR,16200
27/42/7955,CEGIUSHMW,ATKYWQJFB,48973IYRWZIVJUQDK,,QYGFU,AS,62702
37/53/4602,LLELEJIRW,LPAJOLHCK,68766IWDAJNIHOQFU,,QJWCR,QP,61814
67/96/8137,LBOBQLGUL,NEKQBDSSV,82612LKNHRLWAQVTZ,,PGBTM,MA,60718
76/07/8332,WIENMTOHI,YFMHDOQMS,37655QCXJYFAUQORX,,UXPLK,FN,89128
08/57/8476,AKUXTDXQZ,XFLRNQDWR,97116JDMCTIEEDUEQ,,HNQGX,LG,05525
93/61/1761,HKDXAQSMJ,AWSUNOYAR,82490LLXMKMKNXUGM,,ZBMRA,XB,29386
02/04/5935,VQPSKOPYA,WPCEWMCSY,73783DXWIJXQFYXRX,,ERPAF,YR,10406
07/97/7235,TDSIFIJMG,YSQUPFODE,56878BUCOKGAUXYYG,,XSQGH,YZ,62649
33/70/6950,TZBUPQUFI,ZUDNEXYZQ,86164LTDRRLAZLIMU,,XBHYK,CA,17598
31/01/4800,MFHCOGLHJ,CURGAZTVJ,08432QZBHDSUPBVPS,,UYAQW,XT,26150
98/02/2079,PGHNGFCIX,SIZIAJHGJ,64108ZBEILMTBDYXF,,UYPHB,KH,90241
55/41/6787,JGNUSFYVU,XNBJPHAOS,28396SAMYRMHOHPYA,,MECJJ,BJ,77789
84/16/4293,JDTYZIBXV,IXWKVQWYF,82578WCKXIUYNFODG,,TMTKV,ED,64034
22/98/3794,QBYOPKXDS,BBTXMDXIW,44501OVCQDSVAHZCW,,FXYXP,NX,41293
45/89/9412,ENQQWHLCV,WUUIALWVW,53125JGSHMIRNGXPT,,XCPVK,XP,37252
23/10/9108,WOICHQQSD,JKGGNARTT,62124LXDYOKDZPJNZ,,MFGDE,JC,59475
74/39/3371,LKCDMKPOS,NCQJAIORZ,18509HZEFOZKPOFQE,,QGTXG,IS,98368
68/11/2302,LUGAMZNXQ,CIVCMKBFT,92759WSWYQOZLIDNQ,,VPHPB,MH,48331
07/80/5175,KKFHGTLUR,MTESHNUVQ,92333ZUFKEINOLUDN,,UPQUH,QZ,55769
59/61/8183,IRDUMCDLX,ZJFWOTNEX,06251DKDEUFGYWTVL,,RYMKG,AU,67502
74/46/0000,VKQIRPKCD,DPBBMUEMU,10190SQIQDCHQSNYN,,XYHOX,LF,31491
98/39/2528,CRDXBRKUY,SPTTWEWEU,69554IXXYGSXLFYUU,,UAFOH,WA,16624
02/61/5092,UEMOARFKO,DSGZURGAO,78090XSJAWQGMDDKU,,JINXD,NF,96739
78/03/9690,JQVZBQGUZ,OYSOMDIXW,87706TPPTCMSVXFWU,,BWFVH,PJ,34135
60/65/5961,IFTAYUYUH,GSRBILTIV,59203FNYWBPFTOESV,,FTIIR,RD,77444
14/51/0546,GRKMJZTJQ,IBURHSREI,17919HEVRRUQCRHSD,,HEMUC,MD,92551
77/41/6345,WTXGJJKCT,WFIQUZXWG,62707DOXKBBBQPWHP,,XKUEG,EO,49959
33/03/5748,SICZBTEOM,QYIAXFQXI,80786CHJTHZIHKYFO,,HBSUE,TO,22720
05/36/0681,LTRYEFHQX,OXYTLPJHG,71772DXUIKALWWPRN,,JXWGY,UM,15741
09/50/5887,WJWYNHMMZ,XVTETIVGN,63310QOIJBCLRWRGH,,XCZUC,FW,67679
51/81/3243,OIPNXFCIW,GSHRTVMJT,12709FKNPDJWGUKEK,,ABGZO,GO,92447
62/63/5658,IHCMJBYEU,PEXTKOLFN,58737DSXNUNZQMTDF,,SSGUI,DB,82804
75/70/3147,JRYGZPNSG,JHMEYNHRP,29947GRCXEJWWGDCU,,RSNZA,FO,74674
