DOB(DD-MM-YYYY),Last Name,First Name,Address 1,Address 2,City,State,Zip Code
16-03-1960,JVRWBIHLK,GRSIAIPWY,00299LNWNTIDTQLDC,,XRREQ,NX,69308
28-03-1976,RQFQLBKZB,UULNGDEMV,89659YCSVYYBFJLKO,,REBMK,CD,03386
10-05-2002,EYPWFOUVE,PEKKDXXML,93329KCBKFFFPACDB,,SKAWK,UN,12212
23-02-1998,UQOKVKEWU,BCBZFHJPY,17222OJVNZKVBFORZ,,TXZHA,QA,29179
26-08-1960,VHLDCIEOB,SBFHRPLZB,56220XXERTDLCXOJR,,ZGGHG,MO,08728
25-09-1995,IRVUVWOTM,GIUELKXZW,34791QRVXXAJYFFXY,,HRBKE,HT,28601
05-03-1969,EJHCUOLRE,VEYUOUIIF,62162OFIXPVVOEQRF,,DNOHI,JM,02712
08-03-1997,RSOAGCWDO,UXVIWQJMU,46428SEZJNJOVJMIP,,JUSMI,TS,52794
29-11-1972,RTROAWQAJ,UQQYNXCSA,02246RUNNJPKJLEXD,,QPNJK,UM,50245
07-02-1995,KHRXUVQXB,BGESWFAKY,88540TQRPCSUARNWA,,CBGKA,WV,34579
05-10-2002,ZDSPQDNKK,XOAHKTAWT,39535PVPZQTJORMZE,,POBCZ,CT,83948
01-03-1984,FNVLPQZCO,VAIJRBWGB,81458MCHPMALWVSSM,,QAWMZ,YO,81046
08-04-2008,DZAURSZQH,KABWSUPPB,25443WSXDOHXFWECX,,XKOAI,LY,25689
08-04-1972,LETPONTXS,DZWDSKRGS,61756GBWXWRVNXVHL,,ZPAQD,RS,03248
28-05-1976,OIOXKFBTR,GQBCHNHTD,64105OTDFUTXEKTKX,,ZXXHN,MZ,62051
30-01-2009,YVFJIWVGU,KQVKBHVVF,64312BFPJVHGEMZMJ,,HYTVZ,VT,08202
17-08-1977,ENALWAUPV,BTWTOIZWI,11053TBXBCZAJPGMT,,YUUDM,JK,34211
25-10-1978,CKKUAXLYC,ITQKUIEKX,94788ZAUWKSPQXSAE,,HUZYN,UX,21366
14-06-1982,CFIDNSFCO,VRKZZCMJC,21206CXLFNPJGTQLB,,DJOYE,YG,47586
31-01-1996,SQMDOMNKR,IDVZJHCLQ,66998AELYVDOCUDXK,,JMRPQ,DZ,24625
31-07-2006,LYDEIIJQZ,PTEASSPBZ,64716NFLJSEEAKECQ,,QREBA,JL,51104
27-04-1987,OOKIHHFID,YZEVSDMOR,32985VGHIGHHFEUPQ,,QIOHZ,AY,32868
04-01-1966,OYKBWZCDL,RSOLFGQIQ,32455CCQIHIKNRZXD,,ZHPKK,JR,26455
09-09-1990,XACIKPFOX,QOTMFYKEQ,86841MBGEVOWHUOLR,,PMTTP,UX,99667
20-04-1987,GREVPNFBU,IAAXEEDUG,43447KICQGQWFRQFF,,FXIKT,XL,28264
03-12-2019,TKNJVCMKR,WTNYEWYFX,92281VPHAKZPFTENW,,OYGSK,UH,25547
03-02-1954,CWQQVVUDB,ARHPNLWXW,64077TFKMSTOYBSRS,,EDHPS,JD,40565
15-07-1970,LEMVIEPCE,VGJFXETGU,27191FAIETBGCQLZU,,QNYTD,UW,45886
30-04-2003,EJZMPCCZX,RVYGTIGSH,81985WVKCIUNEOLZK,,BBQDI,SG,12160
18-02-2021,SLOBSSYAE,NTBVMZRGB,30611SGDOLEBGJWQH,,JBFFZ,XI,83141
16-05-1972,DWBIYVMIO,JFJYFQQQN,67689EXWOZNSMUQWY,,XHBKV,OI,35203
17-05-1956,VMWQVTENR,WZIADUYSX,10957CNAFCDTHGFMD,,AMSYN,FS,28237
25-09-1959,ADJLOWXDA,SOCPRTQMH,49896OHKPBDJNUKHG,,ABTCE,ID,01903
27-05-1961,AXZEJDAKV,KBWNTJTNT,55849HLQPHQOLLURM,,VDWCU,CK,95861
09-09-1989,IVMMBFDDZ,MKGJBNAWC,12145MEJQAIOVYISA,,QRHQN,PV,10339
18-04-1964,XESZWBSXV,MOGAGFSXV,83483ZVUBRMLMTVUD,,ZMAKZ,HH,56360
27-03-1953,NNZQHQIJP,WTIDOYLWJ,68764QZNDEGBUXKDH,,TMFXL,QE,32989
29-09-2014,XGTWAQVSU,KHQIDJJBK,54080HTPCKUZRQODL,,RHUUY,NZ,74892
02-05-1968,LMHSVQTND,NSQWSZFXG,56162CRASAYQLXRNG,,JNMQO,RJ,68568
14-04-1967,FAPGQSTOD,WTDOBYVFJ,55133MXXLIZRVPVYV,,WDECH,QQ,53221
28-10-1979,BDMLUOKYI,SJYLICJUK,43051ORSQADJYIDQI,,FYKJT,LM,01475
10-11-2012,HBBKFKXTJ,VFAUKDSQY,39096YFTVFWZFQIBZ,,NLEAI,MQ,92440
08-01-1981,CLBSGIJPB,IWLSVAMXL,91354AXUJLNHAEEIR,,OSECB,OI,13604
07-07-1956,BKOFZPBVR,RTYIRPWIJ,79871SOUZKLOJQSVQ,,AIUHO,YV,81808
06-06-2015,UZUJUPZLC,RCRFJWHMP,54902AHWBBAVXGDWP,,ZOXDU,XE,83829
18-02-1981,KWHYIBCMM,SBPCPZIQM,58045HCKXEXIAHJFR,,GRUUI,WW,81499
30-06-1987,GBPKFBHAC,JEKQBYTDR,23109NVJSGPRVAAWD,,IAYAW,PH,35493
03-05-1951,QUMPMTZLQ,NFRTNXLOY,61113ALLJGZJYJKNB,,XFANL,MB,04452
10-09-1978,XILFKDODS,QDTXIYFYT,00581WMUODVWGRUIP,,FURDQ,KJ,41933
13-04-2000,DYTFHDGZZ,HFJPWHSRW,60815FRSCXRBQBRRA,,BVWHB,DC,62265
16-10-1950,BIHCYPBCE,KWFAJMTFE,03778XKKYNQDTXEPI,,UWLKK,LM,86591
17-04-1976,XIPSOSILO,MBRJPVHQE,47413SIZQPETQLYWU,,AYDCG,DG,52292
02-05-2016,MOOCLYUAW,ODSEXGBAQ,03350MROHPIQRVYTR,,GEAKB,YT,63724
28-12-1961,MPKRNLMKW,XOZAOSCFW,97605ETDXARRSUUGP,,FZIZJ,DP,53419
27-02-2012,SPGINFDEE,UQDOIVOCH,27620KTBJASSQIBQL,,TWUNC,NF,16985
17-06-2006,AWMAVJRKQ,ASLEZPBUQ,35836STQGDCBKVZPS,,WWCWN,JX,08882
05-04-1991,TWKJCJPXR,ZBGAMSWZH,06720OEGLLNNRMOAW,,OTKUH,YN,30744
27-11-1981,QZTSGQVCZ,PCSJHZDMD,90055KXPWLXGJGYDV,,KSXRS,BA,42294
09-03-1990,ZFKCKTGFR,LHHXECVJV,57689SZSEIKCGRBDP,,LJRTB,HQ,75472
07-09-2004,JOGSXEZRU,IMVSXBIOF,29853LDPEGDGZTXIC,,SKCMK,BF,65510
11-07-1963,DARUDJXHA,ULNUOYTRZ,65578TCBIBCIESHFA,,PREIW,WI,61457
08-06-2004,FQKHSEPVP,YSPDSIZEI,23203XUCIRFNDVPML,,FYJIR,ZC,67335
21-01-1963,VSDOTLEOG,XIHDRJZGS,35216EYMPHILDSIBC,,FNDTX,VO,75274
25-02-2007,UADQQXJLZ,TESGBHNWU,35520ZOXYHYESDNEY,,QQBVV,UC,52374
19-10-2003,UOAKSSBIV,YKGRYSAHS,11908YYBPKXBQOIOR,,JGCVN,KG,34075
07-04-1973,OEMKAJFFI,PMMTPLPZW,84246AJUYETTCMFCG,,NNQKQ,ZW,90753
25-10-2010,BISFABXND,IQJBUREXN,21214DKQEWNGBRHTF,,ZQXSK,PY,75734
17-08-1999,AWRBMAZJK,IKQMEIODS,94199QQBCGOJBQYHO,,WZBHE,YY,30564
25-08-1975,KWQWNSKPA,JWRJCPQJY,03313GMKHXLCNQDCF,,VMKCZ,KJ,55152
26-08-1970,FLMWGCLET,XSPGQLIZK,99400DYSHOVLRJNQL,,HRJSU,AW,94881
27-02-1967,MTYSWPRPG,WAPMBJABB,35545LKKVMXSLGMJV,,UWANX,IN,21878
20-02-1998,IHWPPLXLC,GIHUUQVFE,64559LHLPDHPSAWWN,,VNPBR,WO,38233
24-11-2008,JWORJYEYK,TGFMFDNAI,21591AMHKAHYBHPNH,,VTFCU,LD,38828
23-04-1997,RDSKOBVZQ,YFSVGMBEL,81415IHBNBTRUXMUL,,JWZHF,XZ,20011
02-02-1987,WLTRETNSZ,PQACYSFOT,41205QUOTJOYZQVBN,,KMJGE,KR,61544
07-07-1959,XHZZQVQDS,GPUNDPACD,83884XKVYLYZKMMOH,,JZKHZ,MF,54936
06-10-1991,VLVZSFBRT,CXIZIIGFZ,91385IGSXWZLAKXPW,,PKLVD,DM,26121
21-12-2016,WQCYKOTPN,GTYUWFZAV,89518LGCXJAJDOCCQ,,UCGKI,GV,41489
06-01-1998,BBIZTVATB,THCMEQRAC,23364CTKDKJLXWUJD,,THBGW,OP,94073
27-09-1987,UTOEOWMHM,YXLZICMHL,63600CMQOFUCQUBCY,,MGGRO,TI,25743
16-08-1960,DCPYTBZIL,WTQDLDVTR,68167UVQKPFCKFRAO,,OKLFH,JI,32762
12-01-1960,GRCUCMBMU,FWOHKHMLF,10099JGWMVHSXABJL,,EWKKS,ZD,66963
06-05-1995,CTHIPMYER,AKCHDLATQ,32323CWTCQRVJBVAL,,FSFST,DG,07600
20-09-1975,QINJFSZDX,JKZONKVLZ,32486OLTNGEGGXWTQ,,MUBKO,WU,09382
13-10-1963,EXVZNJNGP,PKTSTZLGR,04442JABIPPIMSQNE,,LRHEX,OC,20648
04-09-1960,MVXPNVBTU,GVGAXOWOO,19820QAOBBVNWFNAP,,WGWUB,IZ,13106
29-12-1954,DTOQPGNBO,BRUHQGIDF,28814PFUOKFCHQMRC,,KSWBB,LD,87356
01-08-2015,HNGWXRRZU,TARNJCUXB,93047MCOWZLJTCRHJ,,FRIRV,VQ,58135
14-05-1966,LPTJYMFZC,JVIXWPXJM,28228CIVFFLQADFEO,,XVXKP,GO,10310
31-08-1997,CEYFLUWQM,ROKUMSBGS,66090IUYBVGTCXJLP,,ZEOMP,SX,18836
15-05-1963,MVGSIKQYP,FRGWXQAJW,56244SOJLVDIBZXQZ,,HHQML,AS,55970
24-05-2005,PFYJZDAWE,TEIRTWBMW,02378RJHATGBNKXGC,,IOMMZ,TE,05446
24-01-2018,HYFDFTRIA,TUNYZGOCU,31058HOIXIEGQEIAJ,,ZQNHZ,NQ,30705
08-11-1980,XLPCDBZFQ,EBSOFAIXN,67921JJZGDRYMGHMC,,GVWXG,NW,66590
31-12-1959,VDGKXXFAK,YXOBWVXLM,49572OUAZXCZWAWZG,,RQLPZ,UV,60057
04-09-1963,MZWEMYUGF,QSMRJVMNK,40048ICEEFZIKVSHM,,SICJD,IF,54671
11-07-1989,KGTASVQGL,DVVJQTTGA,88978PTBZCTJTJTNN,,YFDOJ,OT,11809
06-07-2004,XBJQFKSWH,GGRLJPCEJ,74337RWIMREKESESK,,ILBQF,XE,89600
10-11-2020,GSLGIWDCH,CMWTZDUOA,54104BZAWSRAEPRLF,,ITESZ,ZV,18603
19-05-1975,NPZOUHUSJ,GGQUBEULB,94273DNZIJBTGHCHJ,,WTXPD,XR,93685
09-04-1964,TQBXMRHNA,CNASLTIYT,24646RXSMHHCXFKIP,,XHUWK,VL,04715
07-11-1951,YQPLWCTJS,TEZJLAUXV,90990GZMQFRLSSPOY,,IBKJQ,YS,41291
13-09-2008,DLRMOQEYJ,TGKJWULVW,40692HQOIMYAGEGFW,,CJDZQ,KY,35380
25-11-1967,STDYRAXER,OHYVZZDAB,20876KUEJIJTPYYLB,,XTNXI,XO,75386
25-01-1976,HEYTUHWSV,WHQEOXHYZ,89781RELQWQLWBRBF,,BRYQM,HU,27718
05-12-1966,EBVKJHFOC,XXLINHQAE,91977QBLTRTKWXRZH,,WNWBY,ZL,64495
03-09-1990,ZPUJEYFZH,QUUXQGWTY,60421FVQEKJWNONWS,,KCQSH,XP,10551
19-06-1999,SSEEYKQDE,PCQZPIYXF,43945QEGPUUOFYVCY,,VMBFW,EE,11808
25-08-1990,CSQPXCFBK,RAJIPSLVI,82086GKPVATRKPLUY,,URDHK,ME,77591
02-09-1988,BTWVNPTIU,LGUPWFVAJ,09689KUTOUBNFMFLA,,WTOLC,ZN,67507
08-03-2003,PLDYOLASJ,PAMWHQAVL,71449QNYEQMNHXQZZ,,APDKX,IH,92280
31-08-1992,PSJIOVPQR,NFEMUYOQP,91294ZCYIVREUNYMZ,,ALYFC,CS,57440
09-06-1995,SMRJSJAWH,JVOZKFVKF,93233GBTWEWXSEFHY,,RRKDY,BE,72437
12-04-1969,JWPQGJQKK,BKUMSCYPS,30506CKCCSMUBYJLN,,PWJRL,WE,96272
15-11-2017,RZPBKWCDX,OHKEEYHFX,52537KAKEQESRXRRD,,MCJDD,VJ,00725
20-02-2005,RBIMOKQEK,YWQQNMKVI,43691NBIIROGFWPSQ,,KZRUQ,PD,69579
28-05-1955,MWJMCRDYK,OEQBXORFD,83697GCOBRIJMLZAY,,ERFRN,KZ,10396
11-01-1992,GKFSPCPMF,PLXDBTDPP,10102WPJGVTCLIJJZ,,OFKUV,JV,69453
25-07-1969,RRVPPDKTL,DTKBDIRZR,84319KELHWLGMIOKE,,OCNHI,MJ,69291
26-07-1982,DMUYUPJTD,PQWEGBAOF,64458VVSUMERFCQVS,,KTCWD,EY,04351
22-01-1985,EMPHSSDWT,WIYPIUCOR,06328IYAJYNEYZIYL,,WMTYZ,RB,91506
23-08-1959,LBAPFUBGK,MWXHMMZSL,81750OJICYSAROYYD,,JMBCJ,FI,28838
06-12-1982,KGDSTWJHF,FPGSGDHHS,33972OWCGCJFOCQTA,,UGIBG,WZ,28350
30-06-1997,DVMVOXBFU,HDJUZAPDP,31136OQAQDUWYAMDF,,LORBA,LI,08855
12-04-1988,GTZFSWJRY,AJUIMYCNG,36566NRHFHZNPPGDZ,,PYQCV,TX,76106
16-03-1977,FLWSTOPEU,JHREXJGBT,18991LDCOBFCLXGUJ,,DXOGQ,KP,74562
13-04-1975,GZATLHZMV,ZEFOMLJTK,50408XGGSZCSWNHPT,,QAHEA,TI,32079
11-03-1967,VZRMEKAOK,PWNHBQDNI,35432SPCDEJYNUKVB,,SQPEN,EF,85184
21-06-1956,JTOFQKPFJ,VXBYBZYKN,14525NXKZTWOIXIFB,,YZJML,PA,83342
10-11-1961,JFRLJCYCL,QEYZYIQVO,95004RYIXKITQJZQR,,VOLND,SO,00781
12-02-1998,VFWXMRDKL,EQJWXLOZK,55954ZHPHBTVFYYEA,,PGOFG,QZ,36658
10-06-2013,NOTGWCDBW,SWTMAWWZU,95635JXVKZXMUAXWR,,PDKMF,QQ,26230
27-06-1951,OAGLZTOZJ,KQBBAIBDS,82457IPXGEXBTKPRW,,JPRTX,YX,43631
16-07-1960,GLKSVTWNL,PQSZOYXWM,51614DYPXEJVGDGAM,,QKLIH,YV,29697
08-11-1961,XCEYRDOJX,DWNYGIBLC,95533SWPVHQERKOVS,,BHCJG,BA,78511
19-11-2020,FVLEFXYDQ,EHDYPPGHD,35537GMUNKLTULARK,,IBUBY,OI,85393
28-06-2019,YMKXBYAEJ,KUSGOADYS,26530KATDACTPEPIQ,,EFZXP,DG,23645
10-01-1972,QGIPVPTRW,PIEBHPWOJ,20202NKFONDFFTEDU,,YXOTN,TZ,73203
12-02-1958,VUAYGGCCF,MXXZXVDOM,79076ASRRHZNJFHNG,,CFSVV,XV,87545
13-03-1984,PKYQOHNHK,ZVYFENGRK,77142GTWRKBIZBNHK,,TUAGH,HA,13620
17-05-1967,XCKMHVWPN,KQHRYLGCT,45120XQVLBELEUGXP,,CZLDH,HV,96108
29-11-2008,CPEKOKOLI,PCYJXQWWZ,69868WFZVGFRQMBAT,,MZSMM,BG,45557
13-06-2013,HXEQQRWES,GWVOXPHTE,29305EKGDVLHMRBEG,,GLVWO,GL,92019
10-05-1982,VXDBGSJVJ,OHSTQTMAT,96250RVEXFTKDAPFJ,,JLKJB,WS,60893
19-10-1994,JRUNGAQIZ,DVRFOCGMX,98141FBJTDYGXABIB,,HQMCI,ZR,99023
23-05-2007,CZXSSYICC,YYDEDPLSR,33397DCDWLBEUKGXB,,THBFG,VS,74553
03-03-1972,OLAXZGFVX,LHXJNHHBI,68218RNFOAQOCHQIL,,XCZQI,VA,29280
21-03-1969,WBAIDIUYU,ATOUEYSJA,78216FAUIEFZWSFZD,,QWSFL,RH,22212
30-06-1950,SKIFSGKTA,DKYTUBSYS,81821IFLBHMOLTQUU,,QVAKI,WY,34865
28-08-1963,JPJYJNOWI,DMWMULLCX,76089BMMRYROPPWZA,,HTFCL,GV,91747
15-08-2017,FNJUYHMNQ,CNUBVPGVZ,80988LHXRRCTKCISW,,MPCVN,BR,77989
14-03-2004,XPSPJVPHM,PETCNUYIE,43991AVPHKIZSDCNC,,SAIQA,WQ,65316
01-08-1953,KUGNOZCQE,GBEKWKQPH,11080BDRBMLFYNQOB,,XPGXJ,VV,04325
28-06-1991,WQCOXBLHH,MBOHVDQQX,91155TKTWRWYJPWNM,,VELWC,PH,37584
26-07-1977,XVYBURNEZ,NUFEXKCZY,11105MXWTVFKGTUJX,,GNGHH,IU,08622
09-10-1982,LDNCKFAYM,GFMRYCJRS,80075FPZKWJWEFTSJ,,SFSUJ,EP,56319
10-01-1955,KITYGVEQA,NZAGWFQHD,84468RSQRRZHKFHYR,,TYZNW,JL,41191
13-06-1998,ZMCAYOQHM,INNVJMUOP,16113AKSRMXPADTXS,,YYXIL,YY,79582
20-02-1957,ELJATOADK,BQYRDBZGW,34888NDVESZYBLIAW,,WQOVK,GJ,16070
21-07-1980,JQZNXFBRS,PUIWBYFOJ,02865QBVFFNFMNASD,,VCQGM,DZ,19535
19-03-1988,GRHDBWTFW,ZCMEYBFJF,88513ZPEWRYMGBTYA,,BSFCL,WF,56136
10-10-1967,OWGZHKQNQ,FEHRFIMPR,34739BHNZQFFTTDVK,,FFJHY,UJ,15673
04-10-2003,EUGHADUXJ,MSLSKVDVU,96608NPBSQPWIIIMC,,ZIMGK,MF,69876
23-12-1972,AKTJJLJKS,VKFLHFWFE,20157VKLGBEMZNLYA,,GNYRJ,LO,56071
07-10-2000,SDIQRQHMN,ZGWRZCTAK,74880UOPBLWQTXNDY,,WMUXO,QY,95552
29-07-1964,ESVFCBOYW,JEPKJFWPT,14703YDKRSHQUGHWD,,BIPED,GK,06629
31-03-1984,UABQCEMMD,LMZFYVXLT,47918CXKKZMBQIIZC,,KCYTL,LE,47377
04-03-1978,TFIXAOMIX,DUCXSRZWZ,59345OABWXJHPFWYI,,XSCLT,IF,45345
29-11-1971,NTJGYQHXB,RZSIMQWKB,26857ZLENZYYZVSCS,,ETQTU,UZ,70217
02-04-1998,MZSRXJLPU,XYKCMIRZG,53229FFWBUXSNULLY,,HJNDC,AW,38693
14-09-1951,WUXKMGBBF,ZOOAJIHJA,33504ORGLYLIRBTXQ,,SBBWI,JF,65171
11-06-2001,HGKFWWWXS,AJAYJEFFQ,35726VAHPBXBPZKUW,,PTUZI,SP,11532
07-04-1980,RMPBKKCZT,PCUUUWJQX,91084ZGIJFYVDAQSJ,,GPHRK,JQ,66230
30-04-1984,FWICSMSRL,MHEZUZOAS,12482ISSGQLUISAZS,,JEAJA,CP,96882
10-05-1950,RVBCHPSLR,GZGVNYQHX,77545WXSCTOJWGHXO,,EAZKO,HU,65802
19-10-2015,ATODBIZOL,PZBCPZBTP,19689UPLXPSRPQJCH,,TSKZQ,FO,60491
17-03-1971,UZRBNMVIN,WVLWHYQFL,63566MXRJHHTNNCCV,,BAKLN,YA,80677
29-10-1970,BCDISXKWD,IIPBYNPND,52933CXGJPZMFGZNC,,BNRMR,GT,46616
21-04-1956,CFDIHDMKU,IJKMNFLTC,68670SCEROCYIZXBB,,XTZDD,JU,25623
23-12-1964,QNLUHIDNO,GSZHXLZCC,05475XMYKUARQOMPM,,OZBWT,LO,50281
30-01-1964,ISXIRNJWU,FJZKHZSUW,25330OCISCQJWZPRL,,ZKWOA,JA,38150
01-03-2013,BWLRUYJZO,GPNJIYEHB,81303ULFCFOLIXKMK,,JSMLL,YN,12418
12-04-1978,ERLDERRUC,JOOASPBME,38819TCGEENIWJOTH,,IJDJC,HQ,01230
09-10-1977,PUFUGLFMN,HKJFSTMCY,56771VUIBRJJWEZBA,,GTJXA,DP,00695
13-08-1987,HUFIIXCSB,OZDBULTVD,50798XNJZGDVJSNSP,,FTRFY,TK,15415
21-05-1967,YROZTUUOI,GXFQJRGQC,60728UERQXIYWGYCV,,JWKHU,AK,03893
09-08-2007,KBNRBXZGG,VRPSAEVHN,01805CKRSWBZJXWKO,,JBEHC,GG,32004
24-04-2007,QSSXOBEEU,ABRMSOVVN,94058GJFLFRSKJJAL,,AUYWY,XL,98199
10-02-1988,SWWHDHEOV,JRLDNUHUE,78495CWJWZWKUBQEA,,VFUZO,CK,69170
15-03-2004,OBOXOMOHV,NFFHQPMVA,64389HAOLUMSHPRAV,,SJYBI,IO,66290
26-03-1950,CUSMZGUEX,IDFDVIZST,69254GBZVSNMMUKWJ,,UERSQ,JZ,28720
04-01-1967,QSEYRGMLH,DFILHOVRA,56176CGXWLGYWEMMA,,OBVIK,BQ,37020
13-04-1981,JRJVLJZFR,INJPABSOG,18681NORSHABZDOEQ,,ZEFGS,TL,07073
18-08-1988,QKYPVBFDR,OSYRJWNGR,41162XBFAFIDWKMRR,,UKFLD,SF,51667
18-09-1971,PZTJXKEIS,WZLCLWICR,24243ZMGSGBBWGGPL,,GZAUV,PX,05093
26-11-1978,AFIKROVII,WUKMAPZPO,64702CIKPCABLHVAX,,JJDNT,YQ,19918
23-02-2021,NKNZTYSPR,QUTKMLDHI,05389GBPBURMSCLVI,,PYQAH,BY,29814
22-06-2008,UOXAWPNHC,SDFRJKNNU,46601HEOXPDBUDJHD,,MPXRL,BM,21630
17-09-1983,JKSUMHKJP,DUTWGMVFH,32897SRPLKVZPRWUG,,RFZLQ,HY,01319
11-03-1981,XQHYVDZWW,JDFRPKUMS,92850QDUDDOAFTKCX,,YNMUU,CU,47196
26-09-1967,LWYNOMVDC,TTEUSLKEF,60387JPYFIPDDSJJG,,GCMCW,IV,64623
13-05-1954,MYMVGPXBB,ZMSIMFFKG,21882DWPVIQQUHGYU,,PWOFT,LX,98345
18-08-1988,MKYMVSMWC,ELYBGQXYX,69492BDXIRWIHEEOK,,XHYZZ,LX,50775
30-11-1986,KLGNCUENS,HGZVRMZQJ,89293ZZWXGOAYPQGU,,LFZUK,YY,62218
15-07-1970,QKRUVANPT,UDBUQCHZU,46644UOMLPNAJUNAA,,IWMOA,TF,06232
24-01-2002,URNFXWYTS,XFZUINGEP,52236MJQUNKVDAUJY,,WKXGP,LK,29485
04-10-1969,SSCXTEWQD,HMLBEBCBQ,33029RPUOKTYFZCFZ,,TNRBJ,AY,61072
17-04-2003,GSRCWKAJT,XCMCOUJLI,88716YJNPYUPEPPQG,,BJIGH,EC,84835
17-08-1955,GDVOOXBEV,BBONABGED,08227YIYWSKIBMGVN,,QOOEK,KF,95653
02-12-2015,JKKOKQKYT,GQBUDXTDM,32588XLHFFMDFYFJV,,YBGJG,EH,38866
01-11-2009,QORFNTDVO,FFQXDJDKQ,12653JHDQUZOVTXMR,,OCSRQ,VF,24348
21-11-1994,NHZDEDEXB,RWWUQFKAQ,67383FTFHTOHEPSQA,,LGRQG,ZL,13316
13-07-2014,LBVLCYBRM,DOFJWFTUQ,69806IRLAPRGFRUDA,,RVVYM,ET,72525
05-02-2016,NQLNPMUYB,KNUQAJERQ,98597NIODOFHJQGJE,,ZIAWZ,KC,46854
03-03-1988,PUTZRTHXD,XVUAVWOMQ,51683AHZTTXGNHWKP,,IZRLJ,AK,53752
01-09-2007,XCEOOVNWN,GUNTTXKJE,36801SXZKFCGDBIRI,,PAPAI,KC,14905
27-05-1992,CASDQYLLE,BUABWPATS,60983UQZKAYTJFYFU,,KHRRD,XC,13205
27-05-2013,OZHQFPQPS,XUVFGPZTU,64064ENWRHAIRESCL,,KYMAZ,DZ,77237
17-12-1999,WYQONLOLV,KXOAIQSAF,08222MKPXFHSEJJCY,,ESEWH,WZ,07480
27-06-1965,SDCOMVBNC,ZMKUNQNGB,96224SRDYEDODNLFE,,MBCAY,NY,14279
03-03-2021,GIBMFIDYN,QGNYWJORX,67427FBJLUTUSBYUY,,YRVHS,VP,60229
05-05-1984,FJWRHRBUX,PITGULHZT,41675KMDGPFRPFCHW,,PUZNT,AW,62479
06-01-1973,UWYJKFLZU,NGVJJDFHT,24400HCMOFIVNKTZT,,EZLPT,GU,80084
11-10-1967,YWIRRCTLE,TLRABQCKA,66182ZUTBHEJEGOHO,,QXPAH,OA,08194
30-07-1999,UQFRKAGLT,MQXSNPWUD,88280RWKPMTQKZZUC,,EECHL,TN,80031
02-10-1951,VYYSCNVIC,SPNTKVVSP,38928DYQPPSWGRVDQ,,QREWB,XC,30363
28-06-1969,PUAVCBFJF,XWKUNNNWK,78723KSJSLEUTYZRW,,KOGAJ,US,64062
28-01-1962,GEVMSFTTZ,ZNTUMXODG,57817LLLUIRLIBZGB,,LSZVY,TH,14324
30-08-1976,QFAOWFZRM,ETIKEBQZJ,98039GKFFNHGOIWIS,,LZYZH,RC,07976
24-06-2005,IKRJHJXLZ,LFBMQSXLL,95074FNQMMROVJAII,,DXLOW,ZP,31129
29-09-1955,WUMMOVGYG,NUZCDXTSQ,17478TWFXCQCDDQRO,,PAVTY,TA,06026
22-01-2001,FXMUUQHSM,IOVNRGCMJ,89418EUETPGGRWFXM,,WADUQ,EN,46724
15-03-1989,HHKSOMQPZ,STBADKRRF,05028YMAXEABJUXGC,,GWVVD,PS,77302
01-02-2007,GFPTTRABU,WLTOLPMBH,22750AZHNBIWVLTIA,,KGUPH,LC,60839
22-09-1967,BLWCHKSBA,PNEJAZIZL,78082MXBCBWVOXUAQ,,ZPOQK,EG,14308
22-08-1995,CCMUQWGZA,SPJKKKNPP,78641OOTHKVKVISBZ,,PWCCN,KY,28534
14-11-1993,BHLRULSRQ,IZCBUPITI,97455KNBXXXENUCDB,,BYBMI,JG,23727
25-01-1979,ABTLIIGOJ,KBCPRSAYS,95368PFATADIKLDTP,,QCRUQ,ZT,26609
08-03-1972,SVBGXXLKK,AKYKMVICA,34022TMIPCTEFVMFO,,SBXTR,GW,33016
27-08-1953,THPFARMSH,QCVTYDVGC,11829OTXIXHYNLGGJ,,ZGQUQ,GK,94835
04-03-1988,XGPAGJEFR,KFVFYWFNE,00507GGQXHECQIZNJ,,MKAWX,TA,65472
22-09-2016,KKNVAQGEB,WWRKIRVSI,96071HEGWAWFBQWKP,,QARAI,QW,60851
12-07-1992,XKCEIRGRV,DTZROGIQT,85836WEAWGDMILOPU,,LKUTZ,SA,17473
12-08-2000,IGMRPDNPL,YZVFNXVVL,53060EPARGOOCKVMW,,STRYY,EV,17178
07-08-1963,PYNTADWWJ,FRQASSVZO,06816RAMGENKNFDUE,,AOLFX,HA,60919
25-02-1986,HVJAZODZY,LGHWCKZMJ,92948HBKMPBBZUPLS,,HXBWH,IB,32891
11-11-2002,ZEGPAHCFV,OCGPEKXCK,48669CONQJQXGIBVZ,,ZUMYD,MV,18516
18-02-1987,FNSZRUEFU,MJBBJUFRK,31993HOVCXQGXATYU,,ZWJCN,KE,82433
18-11-2002,YMJZQNCBE,YIEKWFFYF,62970GFNUJYIYTVWL,,JZYBO,BU,47288
04-05-1990,HCOUWDRUK,ABUFWXKFH,55212AASTKHLBYGJC,,PQXYP,YM,13591
06-08-1983,IGLRDFUSX,GGIKQOBGI,80491RSUQTXRJANLS,,YXIYZ,OC,72284
25-01-2009,DNUNNWDHP,DLTPVNXMU,34751IRWFUGKCPWKR,,WDYRA,CA,81156
04-11-1954,TYTRNLLAZ,CHUYIAEOX,60526GTEXGEJRUCGD,,CTROX,QR,67824
11-05-2011,WGIFLOUZE,MNANLBRZO,41815WUMUSCHXKVHM,,ZXEVL,SY,03233
25-07-1992,FWSNTKXET,APECHYEGZ,20739NBBUPWQBZKUL,,NGZLE,FD,69506
16-12-1998,CQPNEKZBP,JZQEBZSCD,68420NJSYCXACOSEB,,JONJG,WR,17050
04-01-1966,ATFYCZNKH,MGDWVEXKL,82507JHQFOMQAQUNB,,VBCBN,UI,05580
25-07-2011,RQMRAPOCX,NPYLSJPQZ,39635XGWMHBCRDJQO,,DWQNS,MN,35345
13-03-1966,HHAHXOCLJ,DUSTZLOPR,97601IYAQQWBPAOIV,,AFITV,TR,10610
15-02-1985,HYZSQNKZG,QJPWEBREE,37137ZZJIZXREWKKU,,NNJPI,QC,32964
21-02-2016,YGRITAVAR,VWXDBJIJA,44655WKRNPWBZNUWU,,JYMYO,LK,12949
28-03-2006,CMXXGLPDW,GXFDQGRQE,67892VOQOJMJMULCK,,NFUMM,BA,41854
25-10-1985,SMRWMRANG,XMZSPLGRC,49206DTQNYCWJCLVL,,WMSTI,MT,32420
20-08-2008,QZHSFKZDK,IYOSHCLVJ,63644UBVOWIWSJCVU,,URMII,AF,16242
06-01-2013,PFRUHSWLN,KKHMJKBKP,08657NOJNPKVCBWZG,,VKKIS,DI,17194
24-01-1984,SHOAFMFZT,JDEZXZUSS,15499CWFIMSSQEGEM,,ALKCV,KZ,74274
25-01-2011,MZSYDENCP,FLDOQCVVF,47268FDHVUMPVFELD,,BGOXY,IP,83433
19-10-1975,PYTLKMSYA,HPWFTTCRU,62443RSRMGQLSZIOF,,YAALJ,ER,02558
04-04-1974,IWXTWMLFR,LNJNSQGML,09257YICWPBHCRQGM,,OGTSE,UT,53665
21-06-2009,DSVODVYXN,TZEGTIROH,44109KQBQIUCCVKDC,,CRBZI,LU,44349
16-01-1972,FJGIOTZTS,DMWVQWFEP,93973LLRZSNXVSBGY,,PQNIE,LJ,47559
02-11-1972,WPPMWJAMB,KROTFUXVO,02277YNBUXBLVARCI,,EGFKK,FE,36487
12-10-2011,GGGFSTXWQ,LVWVUPWYX,67269WMAIKSXCOYOO,,FUPDQ,JM,35416
14-12-1984,NNWZAZANF,URUTYLDJM,72815PAVUHSYGWTCN,,KVVHQ,CU,44820
10-09-1952,EYHEVSHSO,IOMETBXWW,55385UIKGOCDDWSKK,,FSDOJ,OS,42198
22-12-2018,ACETHPZSP,UQKUNRCJZ,94152MVTYFRTCPOXR,,ILWBV,WC,71262
06-11-2014,SQVWDXEUU,KARTKPBQH,94592KEUZXJQZLSZC,,FXWHB,LS,12136
30-05-1995,ASVFZQXHU,HQUFYVNAT,38803KOHSNVGPTABX,,ACOWW,NA,79196
24-06-1954,UJHHVHZLZ,VBLJHFHBC,25853OGFTKCRIBODF,,HVVCR,GS,51666
01-07-1969,DPJYJYUBC,CUXQEDRKD,76862ZOEEWZEPAURQ,,THHDN,SJ,22340
26-09-1950,EQYAFRWHQ,SJRXQMYWP,61859HAWQJXUJERNZ,,JASSQ,WE,59043
08-05-1983,VAVKYTTKZ,CFCUNOCFC,94344ZXAYKLOSBUEX,,ZEBLS,EK,79487
07-04-1975,PSYHLWQDV,SKZCLJDYM,86376TPHBKUVYSIMO,,XUQDI,OH,79061
25-05-1958,HZLPRHCCZ,GIWJGCLYL,06333ENDBIQGLLHCU,,UYBEF,PY,96548
18-08-1995,JFINHIOMW,MITXQWTYU,55502WNKYJJWBECBE,,ALSEF,QV,01722
05-05-1963,QOVBWHLZM,EIZZSHTFY,78938OAADAIWFPZTY,,HUCYJ,FD,45820
24-11-1978,IXKDTEBAP,IBSXNGZXW,54599MVXCNHRKVDWO,,QZUOA,DY,49069
06-07-1976,VKKHROMZV,OFJEPBWWV,02813AFGKXUXIITLD,,XDYOV,MD,33484
05-11-1974,GWWSBDGNP,AXTVWFIIL,13828XTWTYPTMHMBD,,GPRBE,NE,54565
28-09-1956,JPTCICNZN,TRUXGFRVW,18245PMJSOANXJVSP,,XXWME,QO,09944
24-08-1987,IDVJETEZW,YXPVDKDGZ,42064LGTCYTRHVXIT,,AOGKI,XU,52429
30-11-1982,ZKRSLMLRV,GRYPEKACP,28015RQZYSESZEJRO,,QWDZS,LB,13543
03-01-1972,DRLWDNQUY,WCWVVBOZU,18379FEHZDIYELGRB,,BRAWJ,HQ,07222
09-11-1989,TQWTYELRZ,PLJDIMBTL,41483BMOZTBZLGPDY,,PUYUP,RH,98437
09-04-1979,DQQRUGUJI,DLCGJHXXG,99021FWEICKRRXWWF,,HWLTQ,OA,25284
23-10-1971,BYRJMZQCI,WLXVBFXCM,64410YTIJVYBASEBD,,BZSMX,FX,13263
31-03-1992,HVMCVUEKF,EZLWDAHKG,76615GVSQUYQFVPMW,,WTEXH,CU,08988
08-09-1985,WLKRVQHUW,VLXWDLCZD,58847AAICPSYCZEWR,,YWVIR,QI,54404
16-02-2021,GITYGGUWX,XNZDMMSZZ,14532UBWDPWRWODOT,,IVWUA,GO,39749
22-12-1986,GLWWBCKRV,DJTNXAZVA,33773CFTAKQLISUGI,,UIVHA,SL,27485
15-06-1986,MFQVORDNX,CGUIBXYKL,90876FNQBGUXVMHRU,,PHLIG,MU,48641
03-10-2008,QGETYSHFN,MSWYQLPIW,11786ZXROJERWXBTP,,RFYHB,GJ,56188
10-06-1964,AAHOTJBJW,PWZWOVMRD,98591MCCIVLJVBDVM,,GHVBJ,WM,26298
06-04-2009,FNEYKYKJK,EMNDPDZOG,04099JLMMWOXQCZSC,,WQWVA,KF,41014
28-06-1972,DPHRVRKUN,HKOPMPAPN,06990QAQGOXVITYQR,,LVZCH,CT,74270
14-03-2018,LGUIBUEHW,TGWKOPWFZ,92137VTOLONMASRHW,,OJFTK,DU,20353
02-09-1988,XEIHDFTCW,LMTOKBIUH,34927RRXPUJXNPCQG,,ZROXF,XT,16428
07-11-2018,RONNPUZMC,QQECXHCIZ,02517BMEHZTKNQQDW,,FDEPT,KF,97320
03-07-2011,AZRQVZYJX,FSMSEUFHP,69282GTSTKBUDTBQM,,LMMVB,MO,04493
03-09-2015,WNSGMRYTL,BAFGSBATK,08846ECNMYAHDTQVM,,ZZSRG,FK,94712
23-11-2005,OKUBSHAFY,XMQOMJJAI,25107UHTRIVJAJUXW,,AYPBP,BB,00159
28-06-1977,MSNKGFPBJ,SKAHUXLPB,24517YZTUGKJCZMTU,,VNIIJ,SL,32117
20-11-2005,OQXDOOWYY,PJCPWNPSE,53961WOVPPQTQRIZB,,PVRDP,MW,57761
12-04-1972,BCRGQVOWX,ARVLPDNGU,32125JOLMSVUJHTAX,,QUJWA,OH,63139
22-10-1992,VHKZTIHJW,ARZWQXPAR,30728PBXQRNYJQRLA,,RGDME,YK,04088
30-03-2016,WGMCQHFQI,YGFRNDRBQ,64974JFGFQFVUJUVI,,DAFZJ,RK,40517
02-12-1968,TCNQKYRXW,RBHPEUJCN,62390CEWDZDBJZBEZ,,GLXVP,MO,59570
12-02-2008,VFJCLXREL,LVEUMSGPD,13450YXOWSCXZZVSN,,TTICX,YX,34002
11-06-1950,PQTQXVINQ,EANNZQZCB,02834KUEHHXFDNPWF,,MDSSG,FM,01060
04-03-1997,EHIJRGZOG,UMWFHVFNY,16338KHGEINVJISRH,,MXENB,GH,37824
28-10-2014,TFAUUYCUE,VUXEPGTDN,77525LZHPGLBZWNHW,,MBWXT,VS,70310
02-10-1991,AQSMFZKGZ,ZEKIZXKGH,57803HKQZCQPSTIZR,,TXKSM,UT,87106
17-03-1974,ECFGHXTUJ,SBPFLUZQF,03708OSECYLTWYKCR,,VGZVJ,BM,72478
17-03-1962,JNREGYSHF,EMBGZDNVU,16430AVQQSKOZJZEI,,HTOGU,BD,82065
30-12-1967,TEAKVRGCW,ODOTHFMLQ,79866LYBKOXDMIEWN,,XIMEY,TO,50223
05-01-1956,WZJLMHYLU,TSTSHACNS,32309GFLENCSGKSUQ,,MAZZT,AY,97231
03-08-2003,TWGUZIDHK,NOLXEJDCD,17459IZHUTKNGLJDT,,DWPHN,RF,71912
22-02-2003,JWPFGVERC,UZQZYFCPX,23725SBIZQPNHODRB,,XVPWJ,GL,11684
01-09-1992,LNJPEBOSY,CSYEYIYQG,24049GWMEIWCFCYPE,,HUEDF,BQ,22059
12-12-1991,JGKAFMWSN,BGNXNPVJT,74457SCZBZMESKRJM,,UEITZ,ZL,04464
09-12-1955,SXUMLUEHK,GDKSQDJWX,60771XDLILZMNBTBB,,NQTFF,BM,60141
04-12-1950,DSSZTEUDW,XXYHJDQCH,35738DRQUGQNXTUQF,,DBUOZ,AF,09565
19-12-1988,ZVAVNZKSV,NTOEKJUMG,24296FSNJKKUWAIQX,,MOYZO,BS,38966
28-01-1965,ZHMMCQLOO,KMJFOTGBY,33074ANJHHQZHEIBL,,KKRPW,EU,99848
28-04-1959,VEIVBBYYG,HDVPABMAF,93728MWGPBMJRHTSF,,NXYYZ,HI,43363
28-03-1958,HSLQVWOEC,DYJAIWUMG,75092DERWQANHWMCX,,UHHIY,ZR,53171
21-12-1957,AFKWQYCJM,HZCMRECFX,27816BSWQCGHEZYDA,,HNGKN,RM,58747
31-12-1997,USDZOMFQR,XQWPFZLBU,49289PDKFIVWOJTCO,,LRMLE,WH,47008
16-05-1988,IXTQADQBY,PRFYRCNRB,74375CHTEEAYIFENS,,GCAWS,MT,53296
08-08-1992,CPXNJULYR,QLTNTWJXI,70292EJJHLEZTOACF,,ZVAUH,QE,72721
24-08-2019,HLRGLSJNO,ABPCPOGYU,38908WDPEOUZZWROW,,JQIAM,YY,53470
24-05-1987,QZNIVGPKA,XGVBXWWNF,78724VYICXQUVQBQG,,VDZGC,XX,58569
26-04-1954,BGTSRAYQX,XSBCAJCFA,62570TRYBIMKFNODD,,OLVES,MD,26068
15-06-2008,RSIIJYCHA,ZIPQPLTQG,79332FBKEZSWMIRWO,,JJTLX,JE,03250
11-09-1974,IHJUVZCYH,VAHIAMDAA,23048RPNLRLPUFGOB,,YPNRX,JZ,12196
29-03-1972,QFAKURDGH,ABFQZNJEV,09820SRABNJBWRBLW,,EAXIQ,BS,35173
25-02-1981,IPOSJRTTQ,JJSXXDLLY,13813PBWKAHPSNXAQ,,QHOYA,GC,94034
05-01-1980,FKHUTPIQU,INLWOTSRB,00453MZUSFGQWVFRJ,,LYRRR,KQ,16793
13-10-1976,SPTWJJJDJ,MFMWGKPRE,05392GWHEMRIBQDRK,,DCNJG,EX,88501
16-07-1984,OXOPDIRIT,NHSXJLFJP,12633HMYNMFBRKPGH,,YJWNX,UB,85840
28-07-2005,USAUTKHIB,DWRIDQDYG,30430UWZZRIVDRJFI,,YCJHY,YC,95085
20-04-1990,LWBJEKASC,STDOFTMXU,50819VDNZEDMXTZZD,,PZFWT,QP,38967
06-12-1987,GLDKQMSYX,DNJOYGPKU,60678FFLBXXPJWSRR,,GDXRZ,WO,79805
15-08-2008,PZARPTMYW,QHXBAGGAM,70397MTOBSNNPEHPN,,KIDZV,DM,61547
31-08-1985,OSVCDJWSP,NNASDVDVY,91764LMAYMLDSUJGD,,HXGKT,AL,92783
03-01-2007,PFUJNMOMC,CAUSLFNEG,65205SBFPFWSLHEQL,,UOPKL,DQ,06229
22-08-1987,HCUNARDJI,URXNSMJCB,32962IFAIIFZZPTSH,,UORBA,HN,82918
11-11-1998,PZIQJTQAT,LINZMOUDK,06793WCRLVDQWQGHW,,ZGOAG,TR,84205
25-07-2009,HCXMJGMSX,BLSLHGJTR,38787JBMWAQYDWZBN,,MEFDZ,NM,14353
16-05-1958,EREPBEDXL,NWYCFGKEG,72597ZVMGOYZNMPPF,,UQYWQ,WO,49190
16-05-1988,KSITOCOED,EBVXINDZO,80023UEVKOCEADGGF,,XQVAA,JP,90170
17-11-1987,LJBXDJVQH,RRKCVKIQZ,33828LUIVXZNOBWGZ,,BYPHX,ZN,68746
09-04-1973,CSZISVXSI,QUJOJOXFG,54973APHAVSMXPXSZ,,VGSCY,IM,37532
27-09-1992,ZJVDRWAVM,UGOFPDTSJ,13704DKZJJXINIUUZ,,ILGHZ,ZX,87973
28-05-1981,BMXSYQAVD,IXJEOSQUO,07290HRMWSGOCJTQA,,QCIST,PV,69727
05-11-1981,DCLLSKIMX,CIVMPJFVM,91680IVKPFEIOQDLM,,VTEYI,ON,09868
04-12-1993,ZWIZLQILR,ZDIDLFMVT,90219EJZTCJWOXFZH,,VGYRR,UD,07931
17-02-1977,BEVJPVAMW,LEPICMNZX,15586MPVYURQSYWUL,,XAMOZ,MQ,21001
10-09-1982,VBONITNAF,EUNODRKDO,78873QUYCMPAOWDVJ,,YQPPN,YJ,15714
12-08-2017,ELCIOCPIY,GWRHUYIWF,33217HRXPDSCCVSSE,,IUQMU,UX,24435
30-01-1970,MVKWDOHLQ,MVKHRUHZZ,59488VMBYLIMFFWGB,,IRMZM,XY,39581
11-06-1990,GVYPETAWG,RUDOPJHIQ,79389IBIIBSPENAFS,,CAFGC,DY,42582
03-06-1969,BXAPIMOWM,NHFCLCMPH,33889BJCOEEARXDUV,,XPKJV,XU,22233
06-06-1984,WGHNAKMEG,QFGIKTLUT,81240UULCUAPJGSIM,,AELOZ,WY,58015
16-09-2006,EQCNLKMNO,DZJNKXQIF,17341CDAKIFOVGTSC,,ZWQDK,TZ,24633
03-10-1974,VCLJBXODT,OIZBQTFTD,17361YZVSGSZCHLTU,,USXNV,QV,15585
03-11-2020,ZAKQHWAQD,AYXKNUVBC,90379JZFDZBIWBZCX,,ZXMLZ,DA,34321
24-06-1987,HYYYEDIFZ,JRXAVUWXB,16938YGURHDHYVTOY,,AWOXG,FI,53116
29-05-1991,QSWRDTGXZ,ZHBBZLNHY,96361VYHLKHPUSPJO,,QEANX,TT,71972
21-09-1987,MJEDJZNQO,QJZQNYZML,18576AJSQAOVMLTDP,,OPFLP,VE,80636
24-04-1966,HHWRDPSBN,TLXCKDLLL,09523UUAUJDOAMZJA,,ELTUX,QU,42175
27-08-1965,PGOQBICWX,SQRTWEXCT,70268XKQNSOHQZTVR,,MVRIB,FC,48999
23-11-2009,PJFTRGPIM,WRCFSCYLK,85894LZADINQWPGEJ,,WXYQO,FH,48623
21-11-1963,FUVYHLAQK,CYJGKSYFB,24973CQSIBCKRIERC,,QYPLT,ZM,48040
22-09-1994,LCYBCBKWX,ADMVWGPTG,26918POQLFEXPUJVX,,IFFFJ,YA,29404
25-02-2003,NMMCYDZRO,UHLHHLSJP,48973JKWMHLIQUEJN,,FIHAK,UU,33699
13-04-2010,VQWRJQZXD,RAYTQEORT,58692TIJJOBUARQAZ,,CGRTH,ZL,97703
19-05-1976,FKNVTBQLS,LJGTGYEZB,93479TVMNMHKSPIBM,,GNMFN,TA,59743
26-10-1950,FUIPKPJHV,FJOFWASIA,42983DFRKJSAVMLQA,,RBMWS,AI,19942
22-06-1967,GRMLFIQPY,XPXTOFLLC,82818PKBVIOSMBGHI,,OHUMQ,WO,11686
13-10-1963,YCEYYQVDS,LVSDLTGYT,05095THGCJOYOUJVS,,FEWUX,RX,75876
10-12-1997,VACGRZYPB,XNUJRZVCR,34667TWPRONINMAGK,,XFHAX,IH,79709
01-06-2006,OJLBWTRGR,QEZMCFKLL,57314AEPASYRVCXNZ,,DCPXS,CI,21427
18-01-1976,NEANPDRJW,SEUGTDNQJ,08168NZHMHBRYRUAJ,,BYQQF,BS,82464
20-02-1976,VOBMVJYCL,ERPLHBVHT,36965STDRZAPFYHVS,,JHOVJ,ME,96641
14-09-1963,DRRBFVZVX,CUJZFGJRN,82075NLGECQTNVQGQ,,STIPG,SO,89571
05-03-1950,QKBYOQZYH,UXUQKFJPA,52437XSKGZJOBSNRB,,BMMAE,HA,56192
25-08-1996,VYRCJXQFP,SBCSKCMUI,51711EBYYMSLMJWNA,,BGLJA,RA,17711
15-03-1979,VUEKXRIFU,ORSYLGNDZ,80189XPSCKDEDOPNM,,WXKBU,CE,59121
08-11-1963,ZESOHLWFI,HUUDOWGWL,19142ZURMGLPCXBHC,,POSBU,IG,68531
26-01-1959,MGDKXRBYL,PWDYJMCLM,99479BXVDZKRTPAFO,,ANGBS,BE,05677
19-09-2013,XEIOUHSYQ,LFBPIHQSG,29118RALYEKHZJYQV,,XBWYN,ZX,65210
31-03-2011,UYZQVOTSV,TLXVAWHVE,78877AJOBSFLSEUXF,,CMKQN,VM,13720
16-02-2011,UNSYZBAMR,DBBPBLKNJ,14986RYZNHJGMTOYX,,FPHVQ,UV,69276
09-08-1971,LNYRMUQML,RAGOIBMVW,36713RFKFUXRBGAES,,OGPET,WR,26958
01-07-2011,BWNQSDOAU,SVERIHFSQ,47486DRULKHAODHTT,,MBJIX,QH,68581
13-04-1997,EUSHOFNHM,YWWHPZGOZ,23137SHXKTMIHDOZX,,BMVKQ,BF,00240
16-05-1957,GUMLQADXY,YGZXRXMJK,75742OJMPSGXHHEYQ,,AYNQD,IF,43737
20-04-2009,JCICFAUKG,FCRLEPYLP,30322KEZEXJRBMNBE,,DSISM,PI,29584
21-10-2009,QDZEJPOWH,OMEYUZDDA,24961LGKSPPPUPRON,,ZFMTL,AB,12216
15-09-1954,KJOZZENQN,KHNAOOGDC,22778LKRDSWMIHIYV,,ZEYYY,NC,22046
14-07-2009,SVTBJLVGL,AASBEBRRY,28551AXCYFKHELJSQ,,ILGOM,JW,67432
05-07-1966,FZIQXLMAI,GTPRCZCBJ,61252ZQQCZNTBOHXS,,ZAVWA,KY,82379
01-11-1991,ZFJIQJAEU,YYCATQQKP,26168WQWMYDCHESTM,,JUVER,FW,14281
05-03-1995,PWIYEZQSC,QBYGUYQZH,21853HSHQVFFQKQLU,,ACXVV,KB,69679
03-09-2016,KDMZYAPWO,DBITDMLQR,99611PXENGKMSAPKH,,HFHBB,QE,89905
27-12-2019,NGMQVXQUX,GFZSIRFRL,69677ANVWBEOMKGOT,,WADUL,AB,31643
03-10-1977,MFBZJSOMA,YGVULKEPD,80111OXHQCRZHELLQ,,CUDOE,QC,17465
06-05-1982,RPAUYDXHU,ZQPOTOTYZ,86675ZHFJMSKZHICY,,RCYUC,ZM,24858
17-06-2014,JEVFSIUWE,FNCTQZYLM,47080MWFLYIFNASGS,,GJAXD,ZY,97645
06-06-2012,FBYWBZBRC,HFTWGDKVT,39600ENHMKLYNZZLY,,RYDYM,JF,01664
23-07-1987,SEWCIUNQO,KEVKSNUEA,78756AGAQHZXDWFLI,,QFRJO,RS,51202
19-04-2002,AKLVVRDFJ,BJQQLPJYS,50443ICBBPLHYILYW,,IODGZ,JQ,33578
18-07-1984,OUZBJSAOC,PSLOFQQVN,40789KCXNVVSTHMOF,,JNGYW,ZH,56145
30-01-1950,DXVYOYRLP,NGXEHELQQ,59259MJPOIYATDEZQ,,KNDMH,NH,09080
24-06-1966,WFHJVUJJL,ZKQVPWIYA,74581QHYQLAFXWHIY,,KNYVF,WA,40751
13-08-1967,YHJXROCDN,CIZKQGBBK,18103LPAEKEKRAQRV,,SICTC,JS,91465
25-02-1981,YMEXQSBQP,UITVSPDMI,74185NYHYLTVAHGIY,,MEZKG,MS,44431
11-07-2018,ZVMRSVCPG,TQOPAEMNL,69616CFUIGCIXPBPC,,CTHLM,LB,63079
22-04-1989,LPTPWDDEW,WZEOHQOGP,44699REQYEZPHFHTG,,AHTTD,MC,87627
03-10-1986,GZPDTQWVI,XPDISJKNI,99453OXADFGMEBUIG,,MFFDG,WH,75981
11-10-1964,LITEQESUY,RCGSQZCEM,58138HCFZQJYHPCEF,,XQCJL,PH,50783
02-04-1952,PYTDBKHKH,WHJFHPFHY,43901QOQWONZJGWZT,,MXHXK,PD,11921
02-12-1991,BOKTAXYKL,MYDIQUQUB,76658SUENVGSQNBWR,,FJSUU,IZ,65783
30-10-1999,XFSCJNQLE,ZYVLMQEAA,64873BGYSNMLGSSVI,,PSHSI,ZV,59517
06-11-2009,RFEYZXESF,BXIGSOQWZ,74799ZZFRPWCNUIRG,,NWHCX,II,03982
19-03-1958,KQGMEORWZ,QGRKZRFLK,48838FVYITCXZUKDK,,QXQJL,UM,99721
20-09-1989,DFPNLQMYO,PZTMVYHWS,63000XCGFKZSNQUOE,,FXCTT,DO,98579
24-12-2018,NZJAYIQPK,OSZDWVDOO,14249RPAJTZSOQCFV,,SJVNF,DK,22858
03-03-1975,KXFBBPMRD,HTYJZIGRJ,97974BIJBPNJWGKPI,,QCIIW,SM,07784
03-02-2008,LSTSFKWPT,VDADRFLMU,81333GMOWQHMIHUZO,,PCZKM,EX,66472
10-03-1966,NOUQXVOWS,VFQLJTBTQ,99657TAIYPTBKQCPB,,XXVNW,BB,48032
26-09-1961,ZSBFBDQWO,VFIEAPJXX,81681YZTFDVQYTZUR,,RXPQN,EZ,33641
11-01-1993,NCXHEQMGK,JWNFSXTBL,65394LIFAACWYKXOV,,XGIGF,KY,59297
28-12-1999,IPXUQNXVA,INLKCBAPJ,92909YWCJXJAIINOH,,LCQKV,ZR,25648
09-01-2006,GXQTWOONS,DIELHBSZF,45249JQHXPNZHDUSL,,HJPWQ,HU,63584
24-12-2013,FKJCCZOKS,BKJXMCBVB,96740UTGMIXSINKYS,,FDJYD,QU,20220
23-12-2008,MPOGEAUFT,SHLTAILNT,60521DWUBWYEWSTLI,,BURQT,QQ,67125
07-08-1967,LQWYCUGTG,WKFSJFKUE,33746ENBLFKDBFFDN,,CXDRJ,YW,33331
17-01-2007,GCGTUYXGD,LTOYQHAGL,27451EVRBSKPKVEQF,,BWFTX,TX,67402
24-01-1992,TRAWLGGFA,UWJQUDJYZ,34405AQFFILWBVBPP,,TJUCO,FJ,14514
11-08-2002,YHXYWXVPE,YEINKDIRS,83114RCQJNWCZFAIN,,FLSGM,QO,46551
06-04-1982,ETFOQJJOG,XONUQNIBI,16661ZUJBEFAVPUTB,,TZBSL,ZI,61870
25-11-1968,TQDREOTRG,BNLBMSTIK,12055CGHZPHVRJIAE,,BPKYC,VM,61080
09-09-2009,CAAAEHAWA,OJMXHXUZF,32915EZKGTTADGMXV,,EXHXZ,AW,66834
27-12-1993,BZYOFCYSC,ALZQBGRHR,28000RZDRKOQPGVQH,,EEXTL,BP,84532
02-03-2015,PONJRECSP,ZZWCVXRPW,58129QUZXWVGXJSKP,,MJZOT,LV,88358
19-02-1959,TQZYYZIGB,ETYDEXUPT,37692CZEFJIPYFFAL,,BOPZE,WI,96293
11-09-1958,GEXJLNPCR,IMICMLUQB,83551LAUPWZDMCVVO,,XVCSO,QD,58962
05-01-1984,OHMAAENEH,IEXTGLIAJ,16739KOJWFJDTSDJC,,OAWUV,PH,60371
14-10-2013,SPQCMFJHE,INKSMKBCN,48934EDQMSKSIMRXP,,HPXWH,JI,81489
16-11-1954,NCCBMQHPJ,MPUNEZELQ,01462KTHWAJTVNYWX,,PTHAX,YN,07823
24-01-2003,WIHCIVEUH,GJVTWPCOL,59298OABIQFWLQRBL,,YWTOF,ES,95955
31-05-1984,KGSSKVBEW,ATXPBUVMB,02339LDCZIUKARGVH,,HPNEY,PY,47140
03-02-1962,XNWOZBYDB,BEAHYHCLB,02612NBJWEFJLCHEV,,TEMQV,PK,01214
09-01-1953,PTWZHPHRW,TLGQTQPDV,30093MZSZUSSOQWOY,,NFZEU,YH,77570
24-11-1972,LTHLIXOAU,YFNMSNGLQ,07586SAVONODZGRZI,,KSMPV,TO,16744
05-02-2007,AGGGJTJXF,HQTONFQBU,61172MGIKNGIGCNMF,,ZOPKI,FA,61553
11-12-1955,GNKXINNFR,FDXIMATHO,84352URTDLINAHPTE,,VSKND,UA,18496
15-01-1970,SGZSSOTXV,PPAFSMDXF,98277RBORSVEFYYGV,,RYEKU,LG,14265
19-02-1963,ABZKETTAB,KZGYVPCMU,04198NLPHQDISQDMZ,,BOUEU,HL,70064
29-06-1977,FYUJMTHRM,UNBVEWTFW,69330QGOOLGOVPOUK,,ZSQXH,KV,55807
06-05-2016,IEDWEPQHT,CFQENVKQF,27093SEIHNUEMIBWI,,USQJM,NY,08722
16-07-1969,MDBVECHWA,TDMUFJDHO,43771TDUZWWFGYIUK,,PDIEK,DK,70570
17-10-1983,XQDCMHOTX,ICYIOTHOV,74723HETQWDVUVWVB,,KTPIC,ZR,10507
26-05-1963,TLREWSRBY,KFPMLQVDJ,69268QBKIJJELFLKH,,ACJXX,IC,49832
14-08-2010,EGPRYFFBN,QCNSJEEKZ,09818VRXPXNYAHVHO,,DMJCX,HQ,48017
25-03-1953,WECFVXUBO,EHLQHNFYX,43503BUCLBIGTFBEN,,UNPVT,TM,79486
05-02-1963,GOAIMGEXG,DNLLJWRUJ,86489EFEWBFTQQEHT,,EAYMU,FY,63994
14-12-1961,ZLHTFLWJT,PJYXPTTVL,93900EFDXJVODWNMR,,FJMEA,HR,27517
23-07-1998,IHDVZUHHB,BCCLSCUKG,76277MUROJBFJOOYE,,OSKLP,SM,14773
02-08-1953,QWFDRDCLH,JAFJIJSAC,74819VYWWJDCKKGRA,,QIPND,JJ,28938
06-11-1959,GMEOMQIVP,RQRKLGCWB,43321NWDYPWIMZZXC,,MSPQZ,VC,53218
17-07-1961,IZVZTZCSS,VXPXJUDTJ,09732HBWETRGTPFHQ,,FCOJX,CZ,18533
08-05-1954,CGFSKCFNH,XZXKPUKNY,45664LAAQIRWYGRQU,,RFEPW,XN,70143
20-11-1989,OPJYECCRB,FKURRSUCL,48827YNRXWQTZGLDH,,LAFQN,KS,08862
16-05-1974,SIMKUNSKL,KJFUJAAEC,00701THVUVMIOGCUN,,IDWXU,YW,86609
24-09-1984,OJCEBSSPZ,TRETRDXCK,49708JPHPOCZAIJYY,,JHGMY,HT,68448
25-01-1987,YCEYJPUWU,JPUXYRUVK,82322JWKPOGKINFGO,,RXKOU,QX,23086
28-02-1958,GCFHOGYCG,SNAOBYQGM,86726ZAICYIOOHLLV,,LJIJG,WJ,60985
06-02-2019,PUALRNKGZ,XMVSGUJFA,11872XMGBDZRHRRUW,,WCKSL,QF,78031
01-01-2020,SJRNNAGAQ,KILCEUEYJ,84049AIGVPTLEFKUA,,UHEMR,YY,17341
27-02-1987,SUAXCCDVQ,KWUDPJUBI,19488PPVYCCRQXNXP,,YNDBI,YA,19338
11-03-1968,OODADCMIL,JJJQSQMKD,44012CCZECYMATGHJ,,YQIBN,TC,02344
19-08-1989,LBOMCBDZZ,MJJJCDZXV,89443ZCDHUNZBWPPH,,YTTVL,NV,07279
20-10-2020,UHSFLLQJV,FPENPMQKI,67371PUYLPJEOIOUU,,LCTVM,RA,47111
07-06-1973,RREDBFXEH,ZIPQHZRYC,41865SDJWEKRLGVGE,,BWQLO,UG,39950
13-08-1950,WPMJNOWAT,SVTDQWMFG,26438XTKMYCUBISEG,,BPYBH,NV,26127
25-07-1988,NCCXZGWHJ,TIANJDOBN,99134LJNUEGJQQVEP,,SNVBZ,KW,64567
12-09-1997,BTIBIKOKU,JSHRLRCGQ,43329BJIGVKTUOMQG,,SOZEL,IW,21593
25-11-2004,DEVAYZHLO,QBFSJZNYV,53860RMFZBJEQXSMS,,ZSYBB,EX,93828
22-01-1996,RWOQGAVMQ,EHCYPXGJQ,74485WZDALKYXIATL,,ABUKV,BL,35017
07-02-2013,MWJGSAOAC,UHSTFCYHE,09966CULREMROCYOY,,ZIOSV,KL,45217
31-01-2020,HMOLCBWVA,YMGOADBTZ,44746GILHIHWYEAIR,,IYUEO,WH,65207
04-06-1951,VGGVRRTWC,ZEHPKHLBJ,40458KDJUVDZSIOVS,,CGCHP,YF,52292
24-09-1981,KQGEYPUCH,TKIVMVIUG,24681LCBVVFLKEEYO,,BLCEL,RO,92471
14-01-1987,HMNCGUGIU,VZCALBBPW,63204SSAOBCYDPUDE,,ZFNYG,TV,70111
04-07-1951,ZSOBCPZNK,NPOCPCFST,41908DVGBCOKNFSDL,,XRHSV,KG,30221
04-12-1950,CIQYAXTIU,CANSXCWPY,25712KZAJTOICYHXG,,KVLXA,UO,99175
15-06-1963,NZPJNRWPL,JZZBWDEFP,26230YQCNZVMDFZYX,,XRBEU,NM,99984
11-02-1975,THYIOVBQN,MEJOSNEJG,34067MAVIGRPMMQPJ,,XEVEI,WY,88381
18-06-2014,ZDODRCNCR,YAGVBNWPP,55293EPZWKTKJEJEK,,ONUDX,SG,47541
01-11-2017,ICPXWSZMR,XGNKZQQHQ,63938GPBLXKILISOQ,,RUUMK,RZ,92992
12-09-1986,LETEPTYRW,HWPRJHSWV,50441MDPLCFSXLUHN,,KFAQY,MZ,18313
09-02-1953,DQOTBEJLF,TLKOLJLKQ,57681AXDLQRDAKXQK,,WYJIF,SK,00005
17-03-2012,BRBSGEQBU,QHDDQRTUB,17273YXRHAKGESPIP,,ASRLH,MB,28223
20-06-1979,YAHJOGPYI,LCXFSFGGE,34832WBIPNHYLNUIT,,NJJEV,CJ,26827
28-06-1966,ARVIHBYUX,KWCGOCMWU,89410VVXGKDCDFDJA,,LILKW,TO,31744
02-12-1985,WQWDFSYDP,MOHMMAZBV,79952REBKVPFNEWFZ,,KYXRI,QR,04160
27-04-2008,WQIRRJRPE,GOMMCBENT,19071JWTWVXVRMRBF,,PTFWO,WW,04747
21-08-1950,GCHIGDTHF,KRAPLYSPZ,61197HWWWXNLTTTEI,,OFUJE,QP,64324
07-06-1962,TAQGCDVCH,JIBKDFSRX,88703OVPWEQUQWEJZ,,IWVOC,US,96117
21-11-1966,BZRLHAWFM,WDITPVVRO,19576TWVQLEREJKTE,,QVOQJ,CL,54942
15-07-1993,HEGDQRSVX,JPTLCAFPV,65376QSIYNHYGPEBN,,XEXBT,AM,32901
16-06-1982,BCVISHNJG,INQXHKPFO,16203XPKRKMYFEQAA,,AJEYY,FO,26959
16-06-2017,RUSNUCWDK,HSYKRKJDY,87731XZJVVFUNOQIG,,SKXKC,NF,54634
16-01-1989,AAQZTQRZL,FOCHXIOBL,93008RQIUALINFURD,,DZGHD,LL,50285
15-05-1989,ZZKHTYRAS,OFDOSSEJI,97862JZJMWSTKZYSI,,RXCQJ,OF,69965
06-03-1973,NFZIZRTIG,EGFQNHOAL,17664SROITVAAWYYS,,RDYDG,DB,99733
07-03-1956,NWEYINPYI,HBYSIDAUN,93824UQTLPFBYRSTR,,ZNIGD,GF,82519
30-09-1991,ZVEBYJHHC,SXEWMIXEI,54550UQBRSUTGGZCT,,WRRUN,SU,08461
05-11-2015,TGETPTPPV,GJVIHDTJA,05978UBQJHAQHPEUQ,,RDEYL,YL,54762
26-07-2002,LEQAGFBFM,CVMTFBLKQ,69031EWLMGXIBXYXI,,URQYH,YO,27325
05-01-1994,HMSLSTSIO,RXPHZUGHP,57138PALQMLRRLSOE,,LIEAN,FY,92050
17-06-1953,KOVPGQXRP,IGGZGPMET,03350NVZWLTKYZIMQ,,AEYJD,MN,45874
26-01-2003,GXWMHBRWN,OKVUJYHAG,80182JFHLTHHODCWM,,TWOBJ,OV,93516
20-08-1973,VBVWQCMZH,BASLHGEQZ,35438JHGJABQRDBIK,,VFTYM,SZ,03645
11-11-1969,TQIVOYGFB,WIPRITCLQ,56812TXNYLVJEGKYL,,LSMRI,PX,96439
29-01-1978,ATYOYXQMJ,QZNCLJQRG,46618IWYTUHQORILT,,ZHILF,GV,05972
14-01-2002,MGMLKOUJG,SOHIEQDHX,65184BYQZKGGVXVHX,,DPAQV,NI,48900
02-11-1979,RTQYBLDBT,EFUKGAKZF,59288NHJWUFONZVJA,,TTPMH,VF,61145
20-10-1992,ASHGWPYYQ,SZCWFLDNE,12355SKZXCUYANZKA,,EQNSV,SG,01244
23-10-1996,OVDUKWNPX,UAGXGNJGZ,04158ZUPCGPHXWCGW,,XFQLL,RZ,16262
10-07-2017,IBBAGOVBF,WZUBGSAFT,06753INOOEDXBFTSY,,EJWLD,WG,34105
01-11-1963,LUXCMOWNE,NVJTCZQWH,76373LOMEXQYEVFFZ,,OYWZC,HQ,01937
13-03-1970,YBUAUVNCF,JEYTVSPAK,36179UKJRUZKTRDBK,,HOCIO,DF,28330
16-02-2010,PNUZWZJFV,OJNUAQZFF,01488JWCIOFZNXSJP,,ATWUO,MN,78395
22-08-1973,UMGUHPHYE,LNHAJGRWS,68899VWNYBCDKRVJL,,AHHVS,WP,60583
14-12-2009,FEICMHXYK,UIYQFXIGH,37247DUWGSRJCTUGD,,QPYYX,HT,66731
23-11-1959,NNJUCREMI,JLHJDGTUV,32042IMXJIQSXZUEK,,INGAG,PV,89091
30-06-2011,ZGYWYSWAM,PCGMPNSMQ,90554PNATFMJLVUZH,,GLSTX,MM,21985
17-02-2001,OABGDDQQC,ELNTMLAGY,50179OADQMVKXKNBU,,SFXVJ,CU,62906
02-11-2008,AZHLYBLFZ,GHOMGWJXZ,05346VHTXSMIBPWQG,,TKGBY,OV,02203
26-04-1992,GSOMCPDRM,LPBFCLGJI,12942NZGJVMIWYVPI,,WBRPO,YK,54935
03-12-1952,FVNZTDWBY,YMGDPEHQN,04992JGSLOLALHBGO,,KXTGD,ZN,72680
01-10-1970,DLMCHAQJM,PWZHOGHGF,37932IQXCSTTUHUYP,,XLMXP,AG,45246
14-11-1998,BAPXBUCJB,YTSBLGYDD,40622GZTMYLLCRRIR,,DNOHH,HE,07659
06-03-1985,QHMGITQTL,NSZKUNNGU,33228LBOQVPOPZPMU,,IRBDE,KC,17948
13-04-1956,ULPXZADJX,WRUKZVITS,94517MSPSLLDKACBO,,WWNXH,LC,00466
05-05-1968,OYTCQQWXO,VKFAKOITY,50089UWNLUVBKXUPG,,QKJXG,TW,56709
11-09-1997,LHWODPVZL,ZWIIRMDNC,49475WNNUHYBVHBHL,,PASMG,SO,53488
08-11-1956,VEBQVVFJS,UHCYVREXW,12205AACWGXKFZSGF,,RGVII,QC,72413
15-12-1961,RNDSUDPCG,NJYMHIVZF,11372DAUDXUJKFRZP,,LTHFQ,FR,83696
06-04-1987,AWZSLDKSJ,TSGJIEOGT,44802NBAGJCSLFVTC,,HUNBG,KO,46175
29-05-2006,HZJJTPVWF,ZFBAKTCDL,13959QFGCXCPFHTZW,,WZJQG,XZ,60158
11-12-2000,UEHUDMHQB,WCJDFNMFQ,31065PGOIXXMVLAQW,,LTRSF,UO,57524
17-06-1956,COYZWIJPS,YDKTZBSJM,76335HBUOSUQGLFAK,,QYVQK,LS,82590
04-11-2013,LYPLDRNZM,DGZDERBRZ,77669CONZUVVQAKGU,,OCQZS,KF,95153
12-10-1980,TSAPENCFB,JIZQCFGVX,85474VVIBKLQWJLVU,,BOGZJ,SI,11968
26-01-1987,VDSMNMJIS,VEFTGVOPO,57350QGZDVKHFEPJY,,CSQFL,AI,97963
02-08-1973,VKCNLRFPR,PXITDYHKI,08724COLEZWQWRRMV,,BJQIU,NF,62597
25-01-2003,YYZXQVVZF,FDEDBFVQH,89725AYWGTMHLZLVY,,EKHDA,PF,82992
13-04-2017,VIAZCLRQC,LWSDJKGOA,70291UBZHCQGWPWLQ,,VPTRH,VY,07420
24-06-1956,ZAYVEYQIF,BUJCXRXOD,91733GCFOPOWYHVDW,,IDXDN,AN,44586
29-11-1953,GDAJJGUDV,OGCXNXBQX,96842FZCGVPULFUVG,,NBAAA,GR,15779
06-11-1990,OVDSTAIPN,ROYZZUQVI,95163IVYJHCAPLLUA,,NGGGP,EK,44143
16-08-1954,FDTJRLXJR,KGULLATLI,96362DNGXXFKMQVRZ,,HVUJM,WV,34630
25-01-2017,LMNEXTQOW,LWFNNQHCZ,72043ZYURRKBBVZWD,,EVXNK,IV,53107
25-12-1954,IUOAHYVUW,BISVEVPJA,99313PGFRABAEPHZP,,XIQBO,KS,05982
26-01-1965,WBLKHNYCK,UQHRDUFNO,08712BGJUZMOKPIMU,,VHZRR,TK,82716
20-04-1983,UXBGAQLWO,UDEOENEUY,73226JMWTNZGVIRZQ,,MAMEV,UB,21579
25-02-1954,LUVQKFAPS,LICRHDEPC,04451MDYCVUDLHCAF,,XYOZD,DU,84372
30-06-1994,SNYRAPFCC,XIZDAWHFW,79909PKPSXFCHWART,,HJNFP,EV,95232
03-09-1954,TEIAFIUZW,TSWUYWBOR,26151BLBCEPAZVRCB,,QFCOR,JI,42396
24-11-1989,XDKLRKFAP,XREMZOHJN,51242QQLTYHVUPHEX,,FSCHZ,HH,65565
01-12-2019,HJESFDUHM,UCKHTRAQK,98542IRZTZKRFLXJG,,JUUSZ,WM,62471
31-07-1980,BKDNLIRCH,VKFQISPXL,12427ULQDXFWHXJLH,,BNJCS,JS,74831
17-12-2020,WVSMMVAZS,CKNKWMRRV,58311ZMXVCDOSBHWA,,RORKE,KL,75135
28-02-1991,VFJLCZTED,LYNXIEFMC,02438HSLNJPUXBZHM,,DWGUW,US,68358
03-03-2020,KUFLJAHMP,WBCHAXHJP,02262MMKWOWABWGCC,,TJECK,QA,78114
14-11-1973,LGUYMQBAU,IDHNNDRBD,69025MJRPUYQGIHLN,,XBVSC,SD,72766
02-10-2004,CEYCPYPUD,MDFQQBHZA,72569OQCWOBRRWEFM,,RUDMZ,YK,36877
10-12-1954,FLTAHHEGX,RHSKLFCDB,80467ESGUWYABGXHB,,PEYNO,RI,89774
19-10-2010,XTMBFLQZA,VELBAZYJO,04751WYSDQXHHBHAL,,YMGCG,CB,97364
27-12-2020,UGMAAKVIN,CYTEQRFFR,06483KDZPMUKCGGAN,,VWIJE,HT,59525
21-02-1976,OWWEAPNBC,MZUCJYTVB,31050EHEIZCDBPMJR,,YNXEL,LG,32917
16-06-2004,XPBPOTHQL,XXBETEZXX,46964TUNOJPHTOYMA,,TXEBV,MZ,15136
20-03-1951,SOWVYZRFX,ELNZFXDSC,77598VPUGCZHLNSXJ,,ZEOUP,PW,43182
10-03-2011,ODOJWINXF,SSUADUVWM,04161HJONQBGBGZRR,,SKTNL,CR,55342
12-06-1974,EOEZMOURQ,WBZKIKOQD,18405JWCDNHKWQUVT,,WYANK,ZU,88517
18-11-1981,CDXWGCETL,OILFTUMEY,36648PHKIXLOXXTJP,,XNGTP,YH,25667
06-07-1979,GPIKDDAYK,NISGIFICS,02736BNSHOLLHWDIA,,WTOCT,BO,47263
26-02-1988,NGIQKPGJM,NJLZHVFOC,84735QBNTEOPHKKGE,,ZWFOV,DA,67898
17-07-2018,NKWWKLQUL,IRUIDASQH,92415UDGOOANFJPCG,,GOTBY,EF,13117
29-01-1963,ODRMMTZMW,LYMSPWNVB,63088JBPEYPYEBEDO,,XBEUQ,WP,32283
18-07-2008,OGYVKNPGI,HBSDLMCEQ,74120DFZHILWMMYVF,,UGZRD,RC,97564
21-05-1975,CPQBNRLYA,QVZHOIXGM,95705RKVQUVUCEZRR,,ZKPOU,UB,86539
07-10-1968,VSGJCKSAS,YADMAAODT,26753ESSFOMVBWAMA,,IGSQN,GD,46652
11-01-2013,WIFRPPEOF,XBIQWRSBU,72323EKLRLVJPSBVT,,QJUVH,ES,14581
22-03-2000,HJICKHIEH,FZPCNMXHR,33717ACCSCBNRYPBB,,RELMI,BF,03632
24-04-1959,IGLNMEMKU,ZIQRMTSNV,20394MRLJSIIPJJTU,,FZQGT,JN,74641
16-06-2013,CBSOEVQKH,IMXORZCZD,86274OUEHSUWQVTUN,,KBMHS,HV,77601
27-08-2000,GMLELQPXI,HGIDEVSEN,10208CLPASPULIBAG,,CXFSP,QY,12090
02-07-1973,XIQPFTZHD,LDJIAAGYB,95154JWURNFVBJNYQ,,LZVFZ,UC,93587
20-04-2012,XMHVFJOJS,QPQNNVCPL,50323XGYCNMCRCWXM,,DPOKJ,QH,97567
26-10-1997,WCEKNCCMK,VCLFTYOIG,15469AYCHTZXUJHSS,,TBXOX,MT,78277
22-01-1981,YZJKNALYE,BKNZGYXIG,41233PZNRMZRAECHU,,MFCPH,WP,25418
22-03-1970,XDSOCPMYM,RZWRBEUYJ,96452BZLTZTOFXNTJ,,ORPWN,VN,69141
31-03-1966,MIBYMXTPR,EDPEZGAMM,99255FZEEUMAUSVEM,,HYLUV,ZE,73004
23-11-2019,QJDUZJGFX,UKXWFZTGC,19795WVWWRRPFCPRF,,PUFLC,AK,44576
16-02-1950,RRVCOYYBO,NDOXDNZEW,86625XYHEGXBHGNLZ,,HITNZ,WS,61913
15-09-2002,UHAJCXCNE,FQLMYVAWU,13898MQJKNPTYOBSW,,BJKZA,CQ,12864
12-02-1987,OXGNPIBXQ,YDDQDLMAE,92966LFFLEKUXEJYX,,FOCMV,LY,96612
26-01-1999,RIXRMDMZY,NCGZLWTMH,79405OFGZMEGXPMEG,,GDUSD,EB,74470
31-12-2015,UBCJUXJHP,CCPTHWJPU,71985RBIMCJBTKXSE,,ERFJK,MI,79225
11-12-1994,IYFTQHXDB,ISJTFNOXF,20493UGHQANDGFUGG,,NUPOA,SU,04521
04-05-1959,CQFSUNZDC,KQUZWKELT,50318RFFVDMKCHNWG,,EYFSL,TM,58642
07-09-2020,WCXDRPOSV,YBWGOYLWK,51987DYGWNDOIYFTJ,,LOYGS,EV,83646
02-08-2015,EFYCZTWLV,KWLJSHCUR,89204HZKIGTHOHNGY,,TVIAM,VI,17648
06-01-1950,YZEQMYDNE,FSXKODLRL,59774EACWSYPJBTXK,,TFVYV,VP,69224
14-06-1980,ENEAQNHXA,GXTOBOGST,51853NNKGXIKXUACV,,WPGUI,EN,15766
25-04-1955,ZCUZGZPRQ,VOYSJXBVI,38747RNJJZZQSWOOF,,JZVVX,GJ,52894
30-05-1963,XKLRDPFTW,NBZBBNJPD,83137PVKPGSNFOHOX,,QLUFZ,SH,32057
29-04-2010,GXTOMZWIB,FTSASCGYV,98681DGSMHJVJRTZA,,MBKUZ,DH,33261
20-07-1995,ESLSKAFZY,TDYOLZZYT,40985MPAEULAZAJQD,,VAUSJ,QP,74351
13-03-1984,BVDSEUEXP,QNHDOXAWI,69085ILFOXIIJUMDZ,,QQBJK,ZB,73659
15-04-1983,POAGLQKMY,IBFVQEWLC,76407XLMSSTAOVQEJ,,XVTPX,DW,18470
02-11-1991,OMLOYZEPV,ZAVWYFIKT,16728NNAQDGAIAWLP,,SPLHW,BP,58858
27-12-1962,OTKVKVWRY,LUNKDQDUJ,45796PMUIJTEVQISW,,VNYLK,WW,57507
22-01-1958,XCOXIVDDO,JBLOJRPMJ,86142MDDZSDCKSTJR,,IOYBN,CW,94291
01-07-1976,RRVVQQHCP,VHYSYTWGU,85012ODWZCVPFQDRJ,,FTFVH,WC,48176
24-05-2001,ZBJJADUCM,ZGSCZSHNA,33545UBAOPFGYMNQA,,KOXFC,GX,70560
20-07-2002,UPAXLNAYV,EDMTPADCE,19773DCGOKDIWLYEW,,SSOVP,GD,89904
29-11-2011,YOFFLWERJ,VTBUDDFCU,09805JCADRWQDQHDQ,,RMVMY,EQ,08440
20-12-1979,NIZFBLSHN,JOPJEWKDK,50466HDBOCCHOEMBN,,ZBXZD,FH,61812
20-09-1955,NBAFJSUHA,TWFMDPFGG,20709KEWKCMLVKGKC,,OJXCQ,EP,36938
18-02-2016,CAJYIDIYS,DBRMRZVNG,37977CXLLEURPJUUG,,WOOXR,MT,64264
21-03-1977,KIEHLCOCE,IFIGBKORT,68326TRYEURFTTMQG,,GYOMA,OQ,59253
24-06-1981,QCLEMAPPI,BCEZGPEDT,69473WNVSPRZZSJHA,,WVQCI,WX,08746
13-06-1999,RNNGGUGRC,NXVKYRDNB,68854YAGXXLZPYIAE,,RWBCM,PK,26217
25-04-1981,SDDKRUHTT,UKAPICSKU,01644UHMKSOVTTDKP,,RIVHM,GT,89048
20-12-2020,PWWQPXITK,ZTGCMEXXZ,31578EPLLEKXRZSJI,,NMJWD,CT,34884
27-06-1956,XKINRJCZC,SAKYCCAIF,15891GMJWDELHGLFG,,DUCIG,FY,10986
01-04-1990,FSDYRRSZQ,ARFIRHYRB,16324VRNSESIEGMOM,,NRAKQ,IW,22068
31-01-1970,MUHFAETIU,KJEWUTNCV,18756QIHECXCFILEN,,GOCLK,NL,78294
23-07-2006,FARQYGNRB,MRZZFHDXR,82627ZPQMKIHDHMRK,,KOUES,LQ,18830
05-05-1959,NNPPMWSIG,FHSOTTZOG,86504NQHQEFUQMLEZ,,ULFDY,RQ,31024
21-10-2014,JJXNDIRFK,RAUBMHLHH,48013NQIJYQDLPQTD,,NVLKS,XV,79084
26-05-1961,RISESNDMD,OJMYOUJHK,24072JJUMAPWXOTDD,,MMMYJ,VW,65438
02-06-1973,AKYEIKTRK,IFZUMJZPV,20987KTHRSCPWAMGP,,ERGGJ,EG,61464
09-02-1999,ZAUITCWSF,NWHPQCCEH,49241BZLHXCDPFIBB,,VCPMV,KS,89364
17-03-1970,OPYRKOORS,BVKYMREWU,03100HQHATLZUGQNY,,HOZXP,NN,77626
23-10-1992,YHNYNEDUH,RVVNWPXYX,94068XOOJTRVINZUH,,BDOUO,BG,92485
14-04-1963,FUIAZNDDG,EMWJGRCCC,33978IGAGQLBRAXIT,,IWQHW,BN,05527
02-04-1995,LFZMKEOUS,BKZPSYDLT,78272OWTYHLYXJJFK,,ZEPPE,AG,88464
14-03-1950,FUWAYRWSD,ZJBMOYRWA,95655GKPZUXCQKGIQ,,LALAJ,CW,93387
17-02-1963,GJXACVHDL,QKVRXCONB,18851STGLTCTVOIBL,,FTDKF,ZI,71437
25-07-1953,HNALNCQUV,WBOZEGKWP,65761FIMGTWHTFLAO,,NXGCA,UF,18061
09-05-1971,TAUAPCSTA,GZQBXVSZR,13401SBGSMQKFGVFP,,UWNUO,AH,44671
06-07-1964,EQGYJCTKA,EQHNYNORY,27601XPFAEPXGWEKY,,LVTFF,TQ,90858
13-05-1999,TEUJKPNHX,LCKFHNLKD,01255TKFWAKBDALXZ,,MPJAQ,DU,30312
05-02-1969,KSFTDKQIW,WYLVZXXAL,07813CNNNGINGPHWC,,KJBXS,PU,26274
05-09-1991,MTXYTVSYU,UOTHAFSDF,00760PRTMLTXVJPFR,,INDYE,NA,23056
30-12-1966,RVMYSEVMP,SBAYDZVMF,06730MFMYKZJDMYQZ,,LFQOU,PN,17611
19-07-1994,TBTFJHFDK,ILKDENYVE,62551FRUEHVYVFJAL,,VXCKI,WE,42168
27-04-1967,PBXUGTLXJ,SOEIOBMMH,44507FKZIDZPKJNWA,,GCUBC,GO,89914
30-12-1973,JEYSVKGAC,TZYFHZBDP,75371RRBHQETSHXOI,,ONPGW,EG,86840
13-10-1956,HZGUCEPRF,XVBZOBQKU,56988JCLAADLZEFTP,,ULSXG,ED,45610
25-01-1986,QABRLHQID,VHOXOAMHY,93968LIZKKSXXLQGF,,RKUWD,RF,85454
18-12-2011,SRNDSZWGV,BKASZIZPZ,03841AMBIORTIGZKO,,NRADE,QE,55358
29-10-1992,PWFXLDHZP,QZVHJOLHU,40754FTARHDODVFPH,,VOWYO,DB,50150
12-09-2012,SFGESABOO,EWOVOBZJY,31200EXYLZQRGFNAZ,,ZELCO,JN,23910
06-12-2002,HBRDHSEYO,GTLKNEXGN,13354MZHHMWQUFWSH,,ZEZNM,ZO,87041
15-06-1996,QZBWTBKLC,ENVABOFVI,39829EYUCGPGPXNNV,,KVCJB,TJ,89833
24-08-1984,OUGYNUCIG,NJRXRHSPX,08007SNWOIMGGDBLO,,ELJKA,GF,88991
10-06-2005,KZRSNIPUG,PKVINSYSJ,15187XRTGVTPFCGFM,,GUZTR,PK,04891
07-05-2006,OALEBQUFT,BOCQVIRIG,82586TLEUUTVXPQKJ,,JPSEX,PF,28293
31-03-1958,SAEMOJJGC,NQSRVBKAC,00851EZWPRFVXCDHJ,,JDYQY,EG,87258
03-07-2003,PFFOOQIJI,WHNZXDUUQ,53382SNCTVJVUXQTK,,IYPYR,MM,19797
11-12-1991,IWCZQLZJU,AOPSMAGHV,29363SEFYCTASAOXR,,CMKYA,KN,05512
09-04-2013,YVTPOBLES,TCTLPJSJR,13957PVKNWTHWAPUN,,EBEXF,FL,44169
11-06-1973,JXSIJGTQY,ETKJWUYDU,81372CFGSTJRQDENY,,OIJCL,CT,60817
02-09-2017,JZTUIJUKK,NUOLFAEVY,62588FDRHVQOXIVAB,,LHROZ,FG,49332
23-12-1950,RJEQLGXFF,GDJWLGKIJ,13862FHTJLMWMGQTT,,SSCEE,XX,92742
15-06-2015,UCHLAIRED,KZVNVVKAA,85119PVCCSJPNCZTJ,,ZUPCW,HL,41714
20-05-2008,INNDWOEMY,OZJXHLSEF,30144FGQYYFFKSRMI,,TITTG,FO,76612
20-06-1951,NFCAOHEWZ,DROVFTXXV,70648HQBODCKPKNVZ,,YTYGJ,WV,09642
17-09-1957,KWVUNHGVP,UTMUQJLRT,42128IODDTVGVAILG,,AUASN,OH,60100
15-07-1955,YLDUIJGWF,AOWKCYCHC,44779RSDMCICOHPZG,,ZIYYM,RG,26599
21-08-1977,LWISZYPHN,UPXHIWOPX,99252QSTPSHBKMJXH,,HVAHC,YB,80740
05-08-1977,IMFQBXHNQ,BNORQJUKL,82674ZBBZYJRHAMAH,,DNKZI,UO,80085
04-08-1986,SULZCUDXX,RQBQATDHR,12337KOISCMIRUNNP,,LWFCE,ZE,42819
01-05-1982,ZKYILSKMY,RPYFTCATQ,61250DAETXPHGEXBI,,DFRSS,EH,27022
03-09-1985,NYYGRFDZK,LLKDEHUCD,23824HYVYQNKKAQBG,,JKVMZ,NB,93613
01-08-1999,LBOBVVHZZ,MIIHFUIPR,08803JIDUMXBNYWGM,,JSPEF,KZ,30955
15-03-1974,UTAZPHTIV,IXZXDIUOW,33872KJEBDHBEXTVA,,NZBKF,DW,88445
20-04-1985,XUEUKMLRW,WNXHCEWFM,28757SAUJNTCRGZQD,,UCIKN,NJ,28840
22-02-2003,CLWNMXRDD,DOAJMBCLP,88462WBJFFSIFOGME,,EOVCD,WR,73438
10-11-1984,XSPKZTPYL,ULTCWJPZL,50300IGVIKDPYAFJR,,ATGZL,CC,62495
28-04-1998,YVRRFNIPT,ADPLKHKCM,62147AWOOYHYNOFRT,,LZSYY,NM,10154
22-09-1957,SVGYDMCEI,CQLLTBTYJ,62550YOXAQHZVIJYM,,OZZNR,PS,18106
09-03-2007,TDMMGLIDY,HXWVMBGEW,09888RVUYCIQLAALT,,NEQLL,FZ,18999
14-06-2014,KQJZDMJRR,FTULVQZQQ,21265HDXIZAEVHSLL,,QPZFP,BU,22971
04-05-2016,OCGJFQKWW,CRUKVORTL,60012TMRYNRKIYACN,,HVJFP,NU,83274
27-02-1960,KCIAOKFXY,EWCKWONAN,47656VWGCLPDBNASJ,,CEFMM,CP,75745
14-02-1998,ARAOXSLBM,NOXODDBUD,27144SPLEBMSQHTDC,,PZFVD,ZE,11403
30-05-1953,DOLHGWEWU,VLUKXHUXP,93639XZOEDWPHUPOU,,YNSWM,GR,02205
03-07-2012,EDRZUJHJL,VLLPKPUBK,41582JFJRKXGOTTZW,,VTNXS,OU,13814
17-10-1953,IDHVRMQTS,KPARENDIG,56679LHMUWFZOOULG,,RIJIY,ND,20075
29-12-1993,OWSFGOLAX,LCIYABOMF,94032BOFXLQIWQXZZ,,ELZMN,CB,46813
10-06-1973,HYORVKNEY,WIUIJXWXD,94743QDZDFAJRKBSL,,TBIMB,LR,13008
14-01-1974,XTGYVVJQJ,BTGBPYXXE,06879VKAJUCXFWOVX,,IZSEI,MT,48860
15-06-1997,KZBKMQMZL,GLYJPPRWY,66924WYXYWQLJGIYK,,MMQEZ,MD,42531
01-12-1978,TXCKTBADR,SKYYGMAFQ,86988LPVIVJFIWWOD,,UOOTW,DD,35318
31-07-1961,GPNIONRXN,XLQFUUBII,19849ZHGCXPOGBLAI,,RSZGJ,PH,57001
28-06-1956,IGDBJKRAG,YNQKSEDAT,11783MKOQEHRIAXNZ,,ZUUJT,ND,39743
23-04-1951,TNEJFEBBF,XIWKPCKVD,45483HRYSKCRWLPFU,,BYCWP,XQ,36993
05-07-1953,EJHSIXGYN,WNCQAKOEN,18482GSVNBGPLINKI,,AWCIA,JZ,55477
20-10-1959,USDCYKNBX,RRGTQXTRS,91478JLMSTLLEAXJG,,ZXLCW,AL,84678
16-10-1992,KZRYXNZMD,LJYVRTQCF,22732SPKGBDPIRHFT,,EGQBM,BG,53592
08-03-1959,UUANYWAEP,EXGSXPXLI,29469IHPUIUMDFPDZ,,DAJVU,YR,20097
20-11-1952,ACGZOVJAO,WVAJOWPWF,72674ZLXVAZKVWUTI,,ZXOLL,VB,56704
09-05-1960,VWHBWDTXS,YTQXUSGKR,88126TFIKGBLYNNLT,,CUOPD,LK,41853
19-12-1985,IHRFAUBMK,CHMJXLUKX,67387MYLVTXMYLBXW,,JDYHP,GG,64715
27-08-1959,NWHPFINGI,HJALMMMLG,10217XTBOAJQJEMRN,,UURAF,PW,09423
05-01-2018,KPMAOJJNJ,GWBWKWAKJ,34109IRENLQXUGCCC,,POXJS,YI,65725
04-07-1999,NDYAMOJWB,AHFUXWNHN,45292YWNPOEGJJFQB,,GXKJY,JI,35122
18-07-2014,LPONWMSMR,VSDMEISEF,03111LGJOQUYDMKIB,,XYTMO,QZ,26023
23-12-1956,VHMBXFYHW,VXGMFYTGB,63288WDWDYRHHXALX,,UOSFG,KO,92117
19-02-1990,DPEGOTMGT,BTOVUHMMF,92772ZYQENCNBKBPS,,ENTNY,HO,51302
02-04-2009,BLQLKGIYE,PIDBIGSUX,00044SDKDLDXOLSFA,,SNKWQ,NE,05664
19-08-1951,WOOCRLPHP,CCAAAFODO,38891BIRZWYGLKCDI,,NZDTI,KX,61804
19-07-2005,KMUUFVCDQ,RZTZUASRH,04130NXIQTLLVEKLG,,MSABN,BI,65191
09-11-1950,EFJMDMRJG,YSISFFWQK,32652GPYZNTACVRUX,,GUVUN,BS,78700
01-08-2002,UCLDSXYPU,ZKQBLBYMS,23045ETKIPGNIGZUK,,DHNBF,XO,96532
06-09-1958,PUVLPSCAJ,OVNEQPHVB,43511OORGYNGFGUVN,,LIHIZ,TY,37164
14-03-1989,ZISUGBVPO,QVQJIDEFM,26991IIQWXNHYKXIS,,LCIUJ,AP,49679
01-07-1977,KQJQBYUMC,LQJJCIUNT,19133ZRNWDMEGUNDQ,,QNSSD,ST,89517
28-02-2003,RVNFFGUKD,EAKKCRXCL,16146RGOKGNIVHYVG,,SQHUN,WZ,66607
21-04-2018,WVVORSRNM,ZQUFUFDVC,97596SAKCBAZUNOUT,,GZGGL,PZ,68592
21-04-1963,ILZBMOKHE,NJXFVBYAS,27075QJVQNEYHECSQ,,OCSES,TM,30027
07-07-1982,VRTTJSCYC,SQKWNDHQM,11248ZVNGTUESQPXZ,,ARFLW,RM,17297
30-04-1966,VIZAMTGXE,GHDZGTVHS,34613CXMAKXMGAQIR,,QOBFH,XR,47618
21-07-2018,BVBOZRVLG,OHDXGQXST,53628YAJFFVMBUDJB,,UTJFQ,XZ,98411
30-08-1989,LWTUZJQBH,LXFKRGYSY,43311ZJBHIIPSMPEZ,,MWVWI,EF,01925
28-08-1954,QIAEZHGJB,HHMZLKWDI,99831YPUBGQOENYCT,,ARVPT,HD,00890
25-05-1968,UBOFUCXIW,YKUNEOFIK,77791ETLVOLQTEHEP,,OTFQO,JF,45136
21-10-1953,BXABATZYN,WHFBSYYNG,12496NRNWEFPQSTVR,,STHDG,DV,32392
05-05-2013,KCAEWJCFA,CAVVHYHIE,37962DNLMDXNZTOZJ,,NQMUW,NO,58777
25-09-1998,LISRHPDZF,MTUVEOXNC,25510KDEBSCRTFENH,,AXRWY,MM,78493
09-04-1985,RNMDCCPUI,MKZKMFBKT,27679XMHBTNVBGACZ,,ZNPFR,EV,62209
21-09-1952,DVQLMFWTQ,NGHFAABDN,19169IKJKHOWDFWRG,,HJGYV,UM,92474
24-04-1950,HFYSIKUUN,IPBEUTBQM,15243NRWYMWLMYICU,,ARDGE,TA,91096
13-10-1996,DBFCQVHYP,BYYOTQWNK,65429LBXLMUDUMUXO,,SUEGN,VY,93283
01-04-1986,CFMPTOYPN,IMZMTRGVK,28572NFXPEACMVMCG,,JZSJL,TE,11673
27-04-1951,WNCWGPTXC,IOPWZIYCP,20848PGZYDGQPRAEP,,ZEAIE,WX,00391
01-10-1986,ZKBECLIBL,CGUFEBCMR,70883LECTLHVONEMY,,JIQSM,AZ,51468
31-03-1981,XZZOQRJRF,MVOAWXSSK,12871IKZUDBLPGYNC,,NSOTF,GU,79254
24-06-1958,YIBIDWZXO,MHHBQUYER,93711AVRNLMUWWETQ,,MZNNB,MU,32668
25-09-2015,VSIEXSSTS,NCGBOAGDL,84718DBTKTDHTRKAY,,KCBKW,UV,95391
17-09-1990,CPWWTPEVP,NZBDKLDFP,40369BDZTEBBNUKVY,,GZANJ,DD,88372
12-05-2019,HOAKAZECD,OEVEIJGJJ,42823FHLCTCDCFXTO,,ODDHQ,BG,76803
03-06-1993,FKYHOTEFY,FBRVYIAUI,17549VXZTUYRBZNMN,,IOEGF,VM,36155
17-01-2006,HPDBLCMBF,JYFVLCNPV,98929WOLPHBURWFEN,,KCWLE,CK,10793
20-03-1960,RMKXUZBEV,KOSMIVKMU,63208QLXJOPAHNMVU,,NOIWG,EJ,76106
15-02-1951,EVJCWSSEY,YEXIILTDH,62389NRCOCGIEQXHX,,ADLFC,SP,78556
30-08-1986,DKZFAUCYX,FBPVEDQCI,85725ICSZQTPHBFRS,,APXYQ,MY,08719
11-10-1969,MANJYWQRZ,PRGJKXVFD,41297VVUUNNFOZOUT,,HWMYK,XS,46707
07-05-1985,TJUBXQTVZ,QIYFBJOTT,45706WWYIDBOHRSSO,,TJACL,RJ,60584
08-02-1996,ZOLNOPACN,DNSFSKXWA,22136DGKAZXYOYRIP,,XVIVW,KW,75990
16-10-1986,JCXCCGBEW,LYCWLSNVO,70468JUVKAJCNKZDQ,,UCDPE,XF,80040
04-04-2019,HXNRTVRQW,RIYVYJBMH,09421QPGBJFRLPJCI,,VFLZP,AN,99475
22-09-1958,BQCPKECFN,BYLESCGXW,86084AYYKGCPSHVDZ,,FHOZP,UU,06040
12-04-1992,FZRBICSHI,OTTLVFFEE,27814TLNRSJQNLSJO,,FLWQG,LK,81401
21-07-1971,DHWSQXXXV,UYWQNYFUV,77043KBJIZCZMPXIM,,INLJQ,MM,61496
15-02-1951,JUHZKJFNW,NUWFTIFAA,47783MBGZKNZBRBFH,,QQQJB,XS,89454
02-08-1975,KBJXWGIKI,WTNIPAYPU,80365EMFYKRUHCONV,,PRYRN,LA,21572
08-08-1967,FUHQLJMEN,PJJQGCBKG,33260RZNULZRBYWNJ,,XRSEI,EV,69567
06-11-1951,DEOKLOYAQ,QFCRAIWDF,49462IOJZTARGLBQY,,RQZYT,UO,57988
18-12-1996,ENASHJSKF,PKOBFMABR,51903QKUYNVOOTNGG,,TFZYJ,ZJ,03979
03-01-1950,SMRCCOTDN,HKLKZKFWL,04436BLRCKREAJRJX,,TMHKC,NO,54305
24-05-1968,KASWAZXFV,BDQELECBC,43538JAEAVCWMCWEP,,CGDXQ,BZ,56676
08-02-2016,WEJFPOGMK,LBWRFNYZZ,14941NLURDUHRKWNY,,SHLUB,CX,32340
10-06-1961,ZWGILJUVC,YFIMQYSTY,66999KELYUCLXIWLK,,XJDKD,UZ,61678
15-07-1950,RDOOOMEPM,WAPBSDITL,47059PYOGRPVFKKIC,,VKOJU,IX,55391
14-12-2008,SVHOQELCK,QGMVGSWGV,62306PBHZSJGWPZSB,,LBTXQ,PY,70424
22-07-1957,NIKSIBUPV,DXVTGLZMW,31514AMLJVKQKYKJP,,PWTOK,IV,98574
13-02-1952,HOSLVYFIC,AYPZJFGGE,69544MPMAJOLZYHQX,,DYXGK,MG,09506
31-05-2014,BSEJFFFGV,QWDKJEJMR,99318XFNKDQMMLGMY,,TYBAF,BA,38686
19-08-1982,XQLDGFKDH,HPGEGJILJ,64136OMOFAZYYSWUP,,LAIYP,YJ,57531
12-11-1959,KNIEBQGMH,OKOJWVZYS,86579NDADIINKWYDJ,,ANPLE,KR,72188
18-05-2005,HOKDVGCFX,EYRVLVWPV,31673WNLWKEZAIHVC,,LLXID,XL,38679
19-06-1965,RBPTJVLSI,HMEFRJGBX,04185IEAEKLNIUSVV,,IZBLG,YH,98074
16-11-1975,AOUPSXYZW,KNSCABOFJ,39090KMEHTYVHKXQY,,KDQIU,BQ,90080
14-11-1977,MBSTHWUFB,PMCAKBRGX,47375GJZRXTCVXXFM,,JUZZE,ZB,04501
31-12-1962,BRTFETZZE,TUPPLSXOI,03389REPCFKMOCCTD,,KSVKL,YM,35511
31-05-1965,OYWLLZWIX,FSAJMXHGI,60147IAIYNOOTUYSA,,SKMPU,SG,89254
09-05-1956,HKIZNSIWE,RKOEFFYKW,81869AAUYRUYSSATG,,YLCSH,KX,16220
19-12-1950,YHTNUGHRC,NCGRUOHEK,97519BVAXFXWPXFDF,,GDMSP,AC,46665
30-07-1982,QWBANPWDV,IOCKHTSKU,38239MTBPIQZWVOLD,,QJXMI,TR,01862
27-06-1979,EVENIAALO,XSMWHWOJB,15045JIIDLCSZTYBM,,APPFW,KA,03336
29-04-2017,UVWQSRGGD,VYIQCNNCH,66622MRKQIAAWLRAT,,FDHUI,XM,20062
21-03-2014,OOFJHDIAR,DCXBOYWKF,24278YQRSAFMMUWVO,,AGEVX,TC,03298
12-01-1993,VTOIKTUTA,LHSMOOKSZ,75890UJEIVPTRHANQ,,WVBXY,XS,73205
01-10-1992,MXSXNPROS,EDZKNVTYR,10212YXJDBUNRFYLN,,ZVTFO,ZA,38866
02-04-1982,XLUCYZJFW,UEBNYDGNE,15689RUFDNSUGKYGS,,BSVEU,XK,24070
22-08-2010,RHSXSGKHY,BHDDLBRPH,16471LDFMBAIMGHKB,,WWZXP,JC,13550
21-01-1951,XGJFHLOXX,LRJDGFHMK,12878GSTICUPRSLZO,,PQUCH,UQ,29993
18-02-1987,QEZJLYKMR,AVPUQALQX,47450AUNVCXDHVGJE,,YGNKD,ED,29432
17-01-2020,FVIRPFSKR,JPCNMKXAY,74463PUANGRLOJTMF,,QDFRY,NN,81266
30-10-2016,STZYELBLN,DTYGONVSN,16127BPZIDWGWAZNA,,EEFHG,RR,84866
19-07-1988,KFOHUTRJQ,UGALWEERR,74164KKGHSKXCGLMY,,RWHJK,ER,28239
27-06-2003,JLRAJQSWE,JBTVUKTQM,24000EFHOMENYGBJG,,LRHOJ,PN,60686
03-07-2015,OOJQIQSGP,PCELCPNHV,16393LUMXYPCASHJB,,CIAWJ,ZY,53748
02-11-1981,QTIDRVTND,QYMJQPUKO,68678WZWSXTTEVCDL,,RNSGZ,AR,01141
09-01-2007,SQRJHOCZK,YAZQZZUMK,16142OFHASOMRNCBI,,JBKFM,GT,62278
07-02-2017,RVPMJXVHF,UXAMXYYVY,54035CGBMDMDDQXSM,,WLQKR,DK,28705
01-03-1967,AJYGXSSTH,OHAWXXVPQ,25141DHYBMATMVWWO,,YULGK,VJ,37922
21-09-1971,TQHHCCOYK,FIFYTNIDY,50654WQNFJVHBCCVO,,XCTUL,IG,77254
17-01-1989,FLZIYFWBT,PUYCOEBEU,95122VYVNBDECQQFW,,LSXWA,FF,49923
17-11-1984,RVQDRCIEX,KPHZINSDO,36722TUBSXLWOTOEH,,OXPMO,TO,16892
19-08-2006,VFIMRGLGH,EKFXSNCNQ,04281XMUVXEFRBEAG,,NHUUD,RG,34130
23-06-1983,SEWIFAHAC,UWIZHOPSR,43961DXITHWCMSIND,,UUTTD,EQ,45734
01-10-1952,LBYFIRSVL,YZWYQCEEY,89292BNSYJQFLGCJF,,KORGP,FE,00437
26-11-1955,VLWQNSQWS,PGMVFZKRQ,13133WYDKWUPEMHQL,,OGNAG,DT,63635
22-01-1984,XSRDRIFCY,MVNRLZMLK,86056YOWLVFMFXOBP,,BDTGF,WC,23734
05-07-1955,BLUFKNOHY,LRGHKWTBL,25268OITLBWUWRFBA,,QFAKC,CF,33883
05-12-1996,IOHQMNAIJ,KOEQJKMTZ,72349XHLEQTZRKUEQ,,RVFVB,XY,56189
24-05-1980,HPFLBTKLQ,EQIEVDVGH,35659KFOULUZESXFA,,XOBZK,XB,62248
14-01-2019,JTQPHDFDP,BTTLEVOQP,23434GAMFGVJKYTBS,,BPLAC,NV,98524
21-04-2014,PCRPWCMKP,XYGWRKOXP,54345HRHUOTNQGNHZ,,QDQFZ,EH,28163
02-12-1971,ZZUOBGGIZ,VJHZNSOAL,05699KVHSEBVJVYPY,,UHJMJ,TW,96923
25-03-1966,SBYGIIXMG,KEWZWVKRO,97326KGWVUUVLVBUO,,CVBOZ,UP,24779
09-09-2015,FSFTKVJQE,NPSCEGFCN,82853YKOEPVXLKRDH,,NMOYB,OC,06375
17-11-1981,NSPSESEAO,YSWUPZHPH,11191TRZADPSIRTWF,,JARUJ,SX,09795
04-07-1970,LEBZPKEGH,VITHEEDJJ,83971EYXVNJOLVVLO,,NXMYD,PW,07008
11-02-1983,USZYOJKIP,FXNKBMDNR,11189MNRFBCFJODOU,,JBSPL,EW,66727
10-10-1988,LSVQHIHKF,YERYKTAOO,17602FILWXDRJMNCP,,VLFDE,VF,97169
25-11-1993,CSJPNJPKX,NXGEWDXOK,04346FWTJMYCIVACV,,ODICC,TP,05725
28-03-2009,HLJTDZFOW,NUXUVHJQD,92836VAXQNDZGWONA,,GCOQA,IG,38650
21-05-2020,THRFSHXRC,PEGNJBEKN,23358EPYRUJFWUAPN,,PTQVX,EE,77473
15-11-1980,OFEVZNKOS,HAOSWQBKK,00683MPKQEKDHHRHS,,RMBUZ,MK,37894
10-01-1981,LYJBWDZAE,FFZNWLHCM,37232WDCMNKWDTUDK,,VEEGP,AT,64661
10-11-1955,WWMABSPOH,QBJQWDBDN,48023XLZSFFJFOPQO,,GHSJI,YA,13596
18-01-1995,XMWVTYWHK,JDHOIUXFS,46362AHRZPZZCWCMR,,NKVFX,WG,04319
03-11-1973,CRPWEAOSZ,EXRIIRUTF,37158BUZHTEOVTOVM,,IAYDC,HE,15085
05-12-1971,EGKDBRGII,RUILPDUUN,19623WSQBGMBZYZHG,,RQWXG,CF,86327
31-03-1983,FXYJPBNYS,YWEJNQCJO,55106QAIAEUDYVQSI,,WANSY,HV,72466
13-12-2017,VBXFQJBDK,HZLVFSVCL,89993DLKFCHZMPECW,,GOHAE,LE,44184
07-01-1960,IJFOGDUNA,ATTFTDXOV,89988DICSNYYNEZFF,,HXVUJ,HY,83962
03-12-2000,XFQKNXDHW,FFGQHWYKV,82190KFUIIDZLQVKS,,TIUZF,CG,84768
28-08-2015,ORGQJENTI,TJJTMJJOG,09045KUATAFHZFDAL,,MSPJY,NU,79035
07-08-1996,GYRNKLPAW,HUQXXYZUH,02882UUKLGYKZTAGF,,GIVZQ,KV,50038
14-02-1975,OUXIIQZFF,BTYAIEOKO,95621LOLILVZEMTYK,,AREXF,LT,86286
18-09-1953,QGNOWLXVW,APPQPETSZ,01804EZXWWFDVAYPO,,CSTLA,JE,20238
21-03-2000,DORYNBFUE,DLWEMOCFC,08597ZGFRHXHLWGAA,,GZNDR,BU,81299
02-10-2007,KBJKHCRPL,BOTQDYGEM,32554GIIPAMOHJXES,,CZTRC,YS,28350
29-09-1958,LADJCPPOE,ZGTVMVAIW,78718UUPSVSGBLJWE,,UTCVV,HV,74001
25-02-1991,FWBWVKHWB,JMAECOHMM,97628CQKFZDKUCHSU,,IMTJN,FQ,51532
24-09-1951,IUHXUGMAY,AQAKLLJJV,57752EEZTWFELHHTP,,OEQBW,YN,78954
08-08-2018,UVNQRNAXG,XRBHNKRGD,39932DBKJTDHERVOG,,UUASZ,EH,22719
23-11-1975,CCRKVSTUF,DTDDGTRNT,43976UQTWLNIVIZLT,,XFWRG,IS,06055
21-05-1998,PKDKJBIHC,QPPKUTYXV,95775BFQXYGGETETJ,,RKTVS,DO,11367
13-05-1992,XWNHRBNGG,TKLLQORCK,36837OZGUQVSYHXJQ,,TCTXN,KR,25888
15-02-2004,HFPQYVEFC,CMMDIGFLH,60473JFVIHQOLTJBZ,,ABINM,LP,54170
20-01-1999,TLHNCBTIY,HMXYSHJEY,66477VZGXGVSZPCAH,,WPXGY,SJ,63448
02-11-2014,WGSHCOMZM,SXTROQNMW,97336JWFBYPOUOWDR,,VXPDL,YR,25563
14-10-1984,CZUSXTMUD,XNMWUIGFL,20727NIRCWACCCUEN,,JWLKN,GQ,20477
08-06-1978,GYLZESNRV,IWTEEBAKT,38340IINHFUPUYUXI,,AYVDL,GB,09655
13-06-2010,FWZRKGYXG,TOWZINIBX,24515AQOYVTICSVHM,,GVCZS,BN,54323
18-10-1994,BYIGTPJAW,WITBPFXLO,60406AURKRYOQUTWB,,PDUWX,OJ,39857
11-02-2019,ZHDGEJHZL,MTNHFOICK,45193HGDKTXBZCJDJ,,UNUOM,WM,93933
30-01-1992,MQPIIHHSS,HUTJWEHKO,25820GQQSWBJMVALJ,,MYSMB,MM,91140
02-12-1985,DHAQIEAWB,NXLEXDQQA,86399UQEPJFELQAAM,,UJTGO,TX,00489
15-09-2001,YMQINVXVX,QOHZBXHVT,42286CFCTGKNKXEWF,,CDUKV,XB,31870
14-09-1974,FIKMZGRLU,OZYSFMJQQ,86265FFBUECWXPPRN,,ATYTP,VE,19065
08-12-2008,OQAXDWTQK,JEFRJZPBM,03940KGDKTCQWYJOD,,ZRWRJ,KA,45244
02-06-1983,CFSUCTZQY,CKJBNAQMI,40208EJGRWGZULPOH,,XROEF,OQ,72093
26-10-1997,HUOVSUIDK,ZNJFTXHGY,95694HORNGTRPBBDG,,CCUXC,YY,80642
02-09-1960,ZZFKRPQWZ,WDNCVEGSO,01447SKTMGHPXORQS,,ZTHPC,KM,04916
27-08-1954,JFRTKJBAU,KZDPDHHCZ,06238RNJMWMDBPQGM,,UQCAO,HO,87986
05-09-2000,EBMCLYYMZ,OZDCNCLGI,24998DZKRJDAZYSUY,,DDWAC,RB,43821
30-03-1959,YTZHCHCWS,IKXLUNELJ,34228ZUQQXPHEMLXI,,AFXZM,XB,26533
30-12-1967,LKLULOLHR,CIRQLABIG,37030WJCNONMWBDVK,,WVRJQ,GB,21353
31-03-2014,MIGZBDIPB,EYMBEREDX,93555FFUDHHUVHBQD,,JBFRO,LS,07438
28-03-1974,WRXHHESDM,FBETVTVTQ,20584XPGQHCIIXYSL,,UOWXS,UO,08046
29-09-1992,LNVSZPMKB,OXFEDXYTY,59962CQVZXRWYFIZP,,RLIHL,YH,55505
28-02-1996,CKRRKAKCP,DEAIUFOOS,03004MUUMGFFKMZSI,,TBWCM,DK,15983
17-12-1968,OCIDISEUG,KPEBPUIXK,13302ODIFLLMILTXJ,,SPIZY,SQ,44791
19-10-1983,OBPKNWROE,GSSPJAZVB,84524IXCIJYLDPAUN,,GBYDA,YC,77311
04-05-2006,IZKRVFNVT,DGMRDNQOD,76215NCELGXOZWDVL,,FDFJR,KH,35262
23-08-1957,XYPSMCVIE,ELZBRFSMF,70365PYYHLMOBIBFZ,,BEQJB,MI,13133
06-02-1960,JMZEOYGKT,HQTUTJFYV,75573PDWAUBVNWQKN,,FXGIA,SV,55677
05-06-1967,OMKIQPUPI,JRNHPFWON,65466TLWWQXXSJSKE,,MVKJT,TZ,57423
04-07-1954,HYEFPORHQ,XLOOKMIRW,64321OZNVPSVQNFKM,,LYHUB,JS,38149
12-12-1970,OGTVDOHWI,STFBOLEFP,43327NCCXOGRDISXQ,,TETGG,QN,90993
03-09-2010,EBSMOVZNH,UIBVOHMHW,62711OCGUEYQKLMYP,,VQQKB,SS,98093
16-03-2008,JDZVQSHBE,GNTEMGKJW,45217YZTIORSEPCIG,,XPZFI,VU,08858
09-09-1972,UQLLWLMXV,KRGQMRSUS,25204XYQFKPGXTQHE,,RSFRX,GE,02096
10-08-1950,WHWYWURZM,NFXCCWDPW,30779JXYFEXFNOROS,,JTSBP,VG,28730
17-06-2020,XKVBJTNJQ,SOPQPWSQO,32076EVFDDCLFGRBC,,PIODO,IR,71917
17-03-2015,GABBTESAV,QDZQTNXOP,84284TBSJJKOTEUVE,,NXYVH,AR,59839
20-10-1979,MBNULSPQW,TESTGEYFO,84409NJHJTOWYOZYA,,KONXY,KN,12263
18-11-1965,AVVXENVBX,YXWINFSOK,34614KENOOGJITBKS,,FEIQT,VA,44651
12-01-1989,HYAZZIQBL,ZHNNSLFXT,10062WWKUCXXSMSCH,,CPVIP,ZK,76883
05-03-1974,HMEEMATZS,LIGPLWEXC,90210DJYETGGZEDIC,,GXAED,UE,14249
29-01-1986,RAJYGGQCG,GRBEWVTFG,03716PZVAREMNSSKX,,HYFET,BZ,00012
28-08-1960,BSIWRNXLP,XNUIONONF,47948JSKOENRFLYCC,,LFBMX,VG,65950
12-12-1957,SHUJEFVZK,PJEDKXTCU,33077GJOYFQNYCGLC,,XXNQY,HL,02811
08-12-1978,SRSPBAHZH,OWMLJLJIG,74213SFQXCVGWKAES,,LZYNC,FL,32380
08-04-1991,YKYWCSSLS,QUQTMTSEW,66475VSIHBGCVPXSO,,XWGAS,RP,71626
05-12-1964,APOAEHXBQ,XSFMQLDOE,56988ZSEXLGRJELOJ,,VXQDA,ZL,49036
04-11-1968,EIZJFYNVL,VYVYQJPCK,15618GVXAPSKRHEJC,,LQKJE,GY,87749
08-06-2008,UZVUUISGF,KVNHPDPNE,08271PCFCEFABQIMO,,KHIKR,RL,67974
22-08-1994,RJYMNQZWV,ERQHNEQDJ,90099EDAQSDZYMXOT,,AQFHW,LM,98756
26-05-1990,VBWRWZIZI,PLXQNWPEJ,73104MCTUODXADLDK,,TYDOI,WF,55845
31-08-1976,JHZMGYBUB,SPBPJNWFY,49359LDKCGWAGMLNM,,FLNAJ,XN,60443
29-09-1959,DYLPNAQLE,MQJYTKPHZ,87172YVFOVVGNYXCI,,UYVMI,SY,40980
16-07-1972,QKMYKQAEB,BFFSKYTLH,25671CCVJVASPNYVC,,PABPY,IU,90528
14-09-2017,ECQKEJGES,EMBNVDUCX,65946MRLGTADGVLCE,,IHMSW,NA,09616
27-02-1966,WCFGHGQDO,CKCDYEDLC,35513FIFHUOMBCFJL,,ARBYW,NW,74091
29-10-1960,MZVSSKGMY,LERXDMTXN,13785NSXNJZDJXXSP,,CBPNK,QG,71591
04-06-1979,ODUPXVLCB,PYYZENAJV,16051PZTWKLHRKJWC,,YYEDM,SW,26333
01-12-1950,XXDFZRTOW,CMUGFTNBE,00484YPVRSPXFAPZV,,YWETJ,VL,04715
07-07-1982,REBVBPOOG,TINODFAPT,42055PHNAZCZFSJOW,,RVOWV,XW,33645
25-02-1996,OXTDPEFVR,MVROPTXGY,00961KHOHCIOLXZJV,,JELIQ,WX,93994
15-06-1965,MRKUOOBVQ,YFJOVPNSR,12341YMSREDSPDWIX,,UXWNO,HL,98745
13-06-1987,QFHIRCLOW,WMUSOHSTV,10792SZFDHWNYTEWL,,HISOM,CC,14584
05-11-2006,JWGBOWGOT,LMWKMPPWV,19478GGZZMSKNEQTW,,UWOVV,LI,85958
27-10-2015,ACKPXYGVN,IUMUNDLMB,17569RXTXKFXYYZUG,,RMADY,MR,92206
18-02-1955,JDZBRPBWV,ONQTFAUBP,58172SOMGEEALDYWZ,,CBQHX,AR,41934
25-10-1980,BWEORUSQN,WRVHLDETQ,69284STKACFLUZEZE,,TUZIE,XL,50448
04-06-1989,LYUXSSJKU,LDSWBRNAK,09004FLXXZCNJYWTO,,RTBHU,CU,86727
03-11-2005,YWPOOBMPW,BGGTUQXLS,25698GFPTGCMZBNZY,,OVPUH,LD,18200
20-11-1970,FBVMIGYNY,YWZSHYQGS,50293PPRHNGPVKVUR,,PARBK,JC,48759
07-10-1968,FMOPKSMHN,JJHQGQVMT,09403WACREWNVXZBR,,BFTUQ,HT,60834
22-04-1977,AMGCZLMVM,QWKMBQRJX,91382GKEQKEQQMKZU,,HIATU,US,83664
06-04-1991,VCZUOFPFY,FECIILKHQ,39948TPJRWKXIBJAK,,CSULA,UL,70617
16-10-1968,PMYMLEJKV,AFNXWVXBX,90229DEQAORAFEAJB,,HGSIA,AX,64198
08-03-2003,EEBVQVDOP,VZAPVZGGX,76936MYWPJNKRXMCX,,QESPW,GA,10829
08-07-2019,SLGBESQOP,LYZFFLHAD,76274CGBRATIUYZVS,,WIRIP,CF,07169
20-02-1988,FSJVQBOFB,KPRZYGNDE,83192CPNHNXOXYJIJ,,VJQYP,BP,69788
08-09-2014,IRGPVDDEX,DKMKIOBFH,32476LFKMLUZZRYZG,,FPZRI,OD,68445
21-07-1986,YLZNGOBYB,AZXUHZUCW,77241AHOHFJSEPUDL,,DPVGM,RU,35488
05-08-1958,QICELXHZZ,XKZWTLHJA,91549NPWLRPZJMYMR,,GTYAC,YA,76493
10-04-1954,UCUWWXEUD,QAUQXBIWF,40568EMXQRPQBAHVM,,CRVIC,FP,58445
21-05-1996,PSACRHLDX,ASXWQOYAT,97364CQZTDEODMOZC,,YDACK,UC,18467
11-08-2009,LCUXQYNTE,WUEXXBJWR,42516NAOXHSDSDRUB,,FCXWZ,DM,66257
23-06-1963,LTFYGKICQ,HFLUQXZFG,93200TQOLGWBBKSBK,,JTIUG,GY,95785
03-06-1958,YUYPRBWHX,PAZRTUJQH,34138MLXRTIRRYEZW,,ZXVZU,UW,89801
18-01-2017,HIJLOQBAF,CCTRVDSTL,29697GNYIMDXLWMGT,,DHDRP,KB,01599
16-05-2001,BZNXRCANR,QBWMEKQHF,51494RTFBJEBPTUYW,,RDDJT,BB,87487
30-10-1993,FEQKAWDER,CBBZWBKIF,12837ZILESIYRDLTP,,YXGWB,DZ,88656
22-11-1981,SJBTWEBMO,OZPJDTLZD,80571CTZZDMVVYRBT,,UGCGK,TY,44233
05-09-2003,XUSUYNZRP,HSAAXZUSK,07886MCCBVLDIBEYR,,XIGBJ,NY,01609
17-09-2003,CNRKBPTBJ,FWAMVIASZ,18825ZENKXNARVHFR,,UFBFL,YV,79031
15-09-1962,CQXWKIZCN,INTHGEKSI,03625IIKKIKCZBWCR,,JVDWR,VM,64513
27-08-2002,OZZAPAKXO,PAKFFJUZB,81075DWVKYJOYISGP,,YVQPI,BG,31854
20-10-1983,ACTBWUDIC,ZJMOUHZUW,47746LOBQAEVAOVVV,,DLWEO,YA,95235
27-02-1952,ISGKKHUCK,BYICPTRTI,16526ZKIHKTVWTVUG,,ADEBS,TJ,84708
19-10-1961,QMEMUXSYJ,PUMEXHEEB,19817RWJMWBMBJACY,,NUKVA,TE,92331
18-05-1988,EPKSMGEDQ,XJZYLLBLI,10633BKEISBSMGEJY,,XVJIA,UX,80144
15-06-1997,CLCQLMMZH,BSXZPKABN,70943IEWSUXHDTCID,,QWILV,OF,41071
30-09-1951,NRKLSVLHX,GFBNCKLVW,44453JJTUYAGQZLPT,,QULSU,RC,40362
23-02-2016,BNWJBVRMO,KTZIKXCUX,70575EFLGZRMIPXFZ,,PEKJM,BJ,98513
06-02-1950,ZKTRRZKUO,VMEINZWMX,50008DDNGJNCXYJCT,,CUVFB,MQ,03158
07-02-1997,VYDNQBMUC,LYJZJEQQB,27362BBJHPBGJEYXO,,TLCFY,MU,63916
30-12-1974,SQQXMKWMS,CVLXGXLFI,90188TMRSYLFVAVLA,,QQNLU,UD,90866
28-06-1964,DGWJXASZI,TSEVYRWSA,38177QZOZCCHNDRUE,,JYHSD,DX,91112
15-12-1964,ECDZGNQNP,JOJHWUXVO,76541FVEDQJCVWJMV,,ZYLZF,WV,65802
07-01-1977,MJLZRETWM,FKJKHMKOG,87499QAYVEFJYCCDG,,FZUUC,ZG,26693
09-04-1966,GAYHYUQMJ,JSGBOBSGE,35484TZPPLOPUDSBO,,TNXNK,EZ,12740
06-05-2013,YGQZGTDOM,QDMNIRHVI,06241HUVPMFSZHDUJ,,QTLSC,ZS,57822
03-04-1983,ESUPKRQTG,MGORQYNXD,53951NHAUUNXWKFFR,,KWKKW,GW,67133
20-03-1986,RTSTPXPTE,VDTFEHRYY,48848MEUDFIXNWEBR,,CIJNJ,SY,88993
30-11-2001,LLNUAGVVV,QBTZPEVEX,52573RZZZNLINXBOK,,ZYSKM,HV,29128
05-04-2008,DAGYPEAKQ,NHBJNMNBX,79029DZIIYRCZKACL,,VWSLS,TX,17129
01-12-1957,XFNKWJXPI,TJILPCSRY,62428RXCZQNDWOWSF,,SMMLD,RP,89412
13-09-2010,NCWOXAIKB,HGZDNYWPC,53412XSKELQUMDGEL,,GIKRX,KJ,04003
01-08-1988,WCIRFNNFV,BUDDYBCKL,36307HASLCSCWJSRI,,QFMJS,EN,61605
08-10-1970,AUWFPIOTC,NYMQDLFJD,16862DZTKWUHRHFTT,,DCPMF,FP,37640
25-06-1967,BVKOWJKDR,ZIJLGOMSC,74123OXPFYBHRWFVE,,YCZXP,BG,88608
03-07-1977,CYWBLMBHK,TBSGQPGLL,85135USOIVEWZJWZO,,PHYVZ,FC,07278
09-09-1975,TFSVKKTBM,OCTSNZDFR,76054EVHVCVCJVPXN,,VBNVC,XK,86090
03-11-1992,LAZNAAJEK,LIGQRKKIT,25462LPYTGBDXCDOV,,EPFMD,OK,19749
21-08-1968,EIOGQTDFG,AYITEZXQA,36872BCPDEXQDSOSG,,CTUVY,BG,19359
22-02-2005,ZEBFUAUML,TJOMGZCVY,62506VZEEHMHDZKPA,,SONRF,TJ,06644
31-03-1988,KINXCUSNB,DYJSNNHYM,44337JMXSNLNBJWNV,,QTKSY,GD,64179
28-01-1980,MKQDMZZKM,OSOMIKJCA,85849RSJMIPLBOYKT,,KHLVG,WB,04496
25-10-1976,OFXGZWZMJ,AACMMHABX,95919PARYPSLZRLXV,,TINSQ,NL,75925
02-03-1994,CGKWBDGJU,YXPGWBUQH,01417YGNIJHQRNAAZ,,SLURJ,RX,90552
03-10-1974,YMCCZYTLM,CSBMQHIPE,22369ZZZYRYVSBFKL,,XMTSS,EI,20047
08-09-1955,GUEGQSJGI,NEGPJJWDL,28517VMSFOYISEBCC,,YMYBT,WH,19482
13-03-2010,QUNEBGIZR,KQTPKLCKH,55569FSCJQUWSBDKX,,DXJJT,JZ,32766
14-07-2019,GHPJSDPQU,TGOKWZCHC,50400FKDUWJGEBDKJ,,RNBAV,PH,93814
29-11-1958,PEIRVONTT,TYZVJQEQT,96892FHQFCRAXCOLV,,JBMPO,JA,05781
29-01-1997,JQVMSDPXQ,IIUIKZFQU,46078RNJSLBAYGJIU,,LBOBO,DR,15585
11-11-2016,MFDJMJYXA,JRYQXDBSC,87303ALKZHSSBAAWN,,YLCHJ,CR,40664
30-12-1976,XHVIDXIWV,GVAYGFFYQ,07260GFWGXOOPHACS,,FQKYG,FT,48073
20-10-2008,PJNGOYHVN,GNTQRWCZI,04908ATECFTJOHWDI,,ZOQAG,BZ,86995
02-05-2003,CAXFOLJET,KAFDHJYKJ,03955VMHFCMOMZCHD,,SEHTA,JC,83173
14-02-1967,KRNCXEVGG,EVLKSMCKI,67332IALCTZPQMUYI,,MOYWJ,OC,88319
05-12-2018,IGRCXZOZW,HXSNHJYNO,66488AGYRHBVFBRMG,,VSAME,BE,64211
02-11-2007,BCKOHAWGK,VCUQLKBUD,99138ONTASZWLBVNH,,ABKPO,XC,50671
07-06-2010,KSVLBPIQX,QZOUSGSFL,51050UGUGHOKTCZSP,,ILKZB,FP,71227
26-09-1974,TQQBXVXXF,SDMADBOXZ,68589GJDVPXZIEXFA,,UAMVB,YB,26935
12-12-2008,PORAVBRFS,YNXNYQUON,03882IGWPRCFDWFNQ,,KKWOP,TQ,32477
22-08-1979,ZJYJAUSGH,LMIYHWJAB,92907PVUJOOPWOKWV,,DSWHW,OI,76731
10-04-1956,MGUKHMHIN,RRKYTRYSC,06559WRSDZJWVYOBH,,XKDWO,XN,96689
24-12-1953,FCAVUPSJH,GAVRAOPTL,62905FBMBBCLQPLEL,,JEAII,WJ,92385
09-03-1990,FPDYYKDNO,IYIPKXGRH,86185BSBTOHYKZKRU,,BKJAT,IG,45703
11-05-1995,EHCMGZMSS,DGPUNGYXV,99629FCVPIAISDHJC,,OCBKE,WQ,28692
13-12-1971,ORDMUQYTO,KJMRYDPOZ,81773YLFANVWEOSEG,,PCVUV,XM,95874
06-08-1996,JYTCIDYVB,VKDTJTBHV,11766MOUXOHPHVCJE,,DZEQO,WO,52721
15-08-2000,TCPEQWSQQ,VONKLAAVK,69257IEJXGMNXVCIF,,JIGMQ,OK,37278
04-07-1952,EWITEEAST,NGFZWOCHB,61616HYAFYBEONWUU,,UZIFF,LG,83983
26-11-1963,PCJHISRWG,UYZNCOVTI,55670OZOZBAFCJTJA,,DKTRF,GY,48512
30-06-2013,KGHYVUIWP,YVUPUMKQD,98088SSBCKDWLODQM,,HRPUD,CV,64967
14-07-1968,BIMQXLOQE,BQZONGDXZ,97646FKSWPLLNBQTW,,MPWMS,ZV,45172
02-09-1964,HRGZUEWVW,RKVBATEOV,31585ZQZXSPGIAMHU,,IBFWV,QR,64084
25-04-1974,MXNMUDUFC,LUFKMMAYD,68312XTYHCYZOTKUY,,ERIKI,AZ,31538
14-02-1998,DQWHGMSDF,OOKQYCZDC,30864QIBTGGKLYNUP,,ODQMP,ZO,91340
15-06-2013,QLFIZDFGA,NJLFFBNRY,36775NBUYNWCPABOO,,TVGAM,JV,54243
24-09-1973,NYMILNTNC,ELLGHRXEY,62155UNKBFUEDVCBL,,FEOYC,VM,70321
10-08-1980,FLSWNTRHL,YMZMLJLFK,33579NJLCFOZSEMPB,,TYEVU,DO,17895
05-04-1967,AKMSAMMVI,PNPCFFMYZ,25431TWQSRBELUSAU,,BUKDL,DZ,66443
31-07-1992,AVHBAFTVS,OVLSVABPP,25150VDEZRNOMOWPU,,OJPWR,VO,25051
11-03-2004,SSPZBYWHK,SBGVWMDSB,13370NENDRYEHDIUV,,ZGDLY,ER,63864
24-11-1954,UYFPQQGOT,GQUPRMOLQ,98706UVDPTRMXBESG,,QATPV,XQ,04950
03-08-2004,VBJQPKOOI,NABEULXYE,75983IYLIBIETZFHF,,OPJRB,MC,75174
18-06-1965,QVEPASLTF,QBPCNGYAA,66445KUNCDHSBHZLL,,JIMLR,GH,18769
13-10-2004,CTRBUTVEO,LSYOXGJVV,22334MCLSZSYTIKGY,,OKUMP,GJ,17892
11-05-1969,LWDGWQIOR,WPAPMIHWS,38195WEJOFZMFLTZI,,DCPAN,CT,25768
12-08-1951,VHPEDQKLV,CABMFBPJQ,81046XFFITFHXBLUH,,AYDGN,LA,43233
29-07-1965,XOXRZFFCH,PGYGQFDXG,06221LXVQCJHUOLYZ,,HWFVS,FS,06748
20-11-1953,AWBSABGRU,YCJGJDRBT,78750QDFUTIXPRANZ,,RPFVL,BK,67368
19-08-1973,DPEMYKCQI,XFCXEJKRF,09141UJHWURWXCYOO,,EHMHC,BG,12643
10-08-1965,JARNQGHPS,IGARZVBWJ,86431WATKDCIKBTHR,,VSFVZ,NG,33871
06-06-1976,GNLCHMYLL,EBJFOPEMM,39461RIFRCEURRDTG,,YARVM,EK,34338
07-11-2014,IWJRMHFOK,FHTMRWSSK,80583ZSOTDSWUQFJK,,ASEUL,AG,26779
14-02-1984,LLFVRDASD,TVDTYXSUG,44660SBPVAOJUUNJP,,HYKMB,EV,89719
02-09-1959,MVNKPVAIC,CIGDUUSOT,51903DNYMAXRDIEKG,,JOTCW,CJ,86131
09-05-1956,NZYREIGHA,DVAOXNDZM,61881EJQOMCKSAZJC,,IHZDI,JR,85464
02-07-1986,VSSGPCQIP,XSWKENKVQ,82163DPRPYXXLVKAE,,ZUDNO,FQ,99220
25-11-1961,GNMNURSBH,HAJHTSAQW,89083MVQRYUNHSEEX,,TNZQO,HB,95798
01-03-1992,LCMLMZGWP,VQIMWKEHS,12112PGGIGUCPFLYU,,LVADJ,DZ,86505
09-05-1964,QZDPBQYET,JBYRSKKUA,47632JYGSMTVBYQZD,,RCNVY,ST,98755
30-08-1991,OSJKQBUNI,FMSNAFBMW,87248URWXZJFDGJOY,,YZNVI,NR,66770
23-07-1963,BPZNJXPFS,BWCITPVGX,41213JYJOLXJACVDV,,NMHMH,ZY,64602
18-05-1994,PEUZKZUFH,LALAVMOGU,10484EUTGAUACDWNY,,VNNJU,QH,86249
26-03-2001,UUMKTEYRZ,VBYGLYZHY,56961YTFCKGLVSDBG,,AMRZM,SD,23718
13-12-2007,CSANFGRCS,WSVOHLZBX,27310APOUKVRZPZMF,,VROGE,QP,10057
08-03-2014,UYFKVTTHK,NIGPWNSVX,60123HJILADNBXBVQ,,HCXXN,FX,91216
05-12-1966,OUEDODSMO,LYRYMECUI,18423PMBHPDOMVHZF,,DPKHC,MO,03359
28-07-1987,RQHYYRGUO,NLQEJGLBE,15734FCOWHEWEEULJ,,ECWDV,JH,93262
22-10-1996,PYIZQDFER,ECXBXUMQY,57120UDLMAYMQPBFH,,FGJWH,DV,71188
15-06-1993,ZBMQQHLAB,SEZMOANIQ,53676DJRLGTOTLXIE,,IQXKW,UK,63870
16-10-1974,PZATSMGUW,AFPOHBDRL,43265JNZOBIPCQTYI,,TINHV,CB,27064
11-12-2016,QXOZXBATG,QOTJZRKPQ,47475VDGOCMEPTRJN,,NKJDP,ER,21987
13-12-1990,EUZWYOICB,CRBHZCNLR,38125CMCXQTRWLDYL,,DDBMI,YJ,74588
10-10-2009,PZGCIEHKJ,RGWZAKLNP,47371VYQAUPTNRICY,,YBVDM,HF,60299
13-04-1958,JZFVACSOM,YHRGXYMCS,50529JENGNRPSKCVV,,PIPIQ,LA,72159
04-01-2004,FOUTPIGTZ,SHWPWRICL,36603OPBUKYXZLJVV,,QGLMT,WL,50270
15-11-1955,CJGWIEDVF,TZDKEHEID,75247DRBNQKWNXCRY,,RVNIH,GV,01057
19-11-2003,WOVZOHSZE,GDGAGNLJU,18218SUGYQAGUPVZS,,EAJVO,IX,45721
13-07-1995,UEDDYWRAS,NZUNZUUOF,95858OOPQIOJGOWLT,,YHSBZ,HB,96229
10-09-1968,YXIWNMNZA,UQYSFBDWS,96909FRNZOYWMBJYC,,XKFBH,MR,02275
27-09-1952,IZOFCVWBH,SEVMUKYXN,94199RQBAWUBUENVL,,IKQJT,RG,73797
27-07-1983,CAFBQLEAI,CIBIYYKBG,19703UMBIKODHPOPA,,PZWKQ,ME,30475
15-08-1957,HCIJGZWDZ,WJBYCRNQV,92799HBUETKTBGPQT,,CINOC,YK,36113
24-09-2000,POHFCGKUA,IZWFTUFKE,10401KQQMPLXVPGVB,,LSYER,LI,56505
23-02-1969,OJXMPILUW,VPEOUSZJZ,84435SOADCXSLHZLI,,WQGES,HJ,60366
29-12-1991,SPKOJUGDA,GXJQOMGBF,78494JWPFLMAISJKJ,,IHPKK,IM,59470
17-02-2016,KFTWOOXNQ,DKYTVQDXC,95485GUHPFTKVEXWB,,LCQHA,XJ,28647
08-11-2001,TSGLWKWWH,ZYXLICISM,12975EUYULNUTXTSW,,SPNLR,VH,84160
31-01-2001,EDPVOOSVQ,MIRPCQMAV,54366KKGSDMDLQYWT,,OSZKS,WB,58374
31-10-1989,ZSGWZEXJJ,FFDXYFEKI,08398EQTIWXVYCTVS,,MDEXP,CJ,39775
20-06-1983,VMSKDLBQZ,WWOGJRQEF,35656IMZUWYFHHOKR,,HYOGA,LJ,79693
19-10-1969,ZJATGHZMI,DMZYBVYRT,67750CZZPCSGMQTSK,,RCEFH,JN,31873
12-07-1962,OSZNQLYYR,CMBFDTLJF,92485QXSDMZMXAENR,,UQXGA,MI,96137
11-10-2018,TIZSSQTLX,CWISWMMMG,82736UDNCOGIRWPJU,,SOPZU,FV,24068
31-10-1958,IMNDHOMFS,AHTKEZMGB,58011PWFBYBSWMCZO,,PNUIF,DJ,92118
07-11-2002,DBFMCBAXI,QJOCSNMFA,37711QDCKDHGRKTMP,,MZSBY,QS,46396
01-04-1962,DBFWCFBCC,HDVGUMFDF,89430MIBUBCDFFIEW,,TAXGZ,MQ,33413
22-10-1998,LJOOIMFMW,LONXOFSLS,76059SXDAHBDTMCAS,,EIRUP,KT,87258
26-06-1962,CQIWYNFPW,FVVMHUIMZ,75295QFQZFUYIMOIZ,,PACUN,DJ,52470
24-07-2010,YJZNQJHLO,JONJZBTYX,75213HGLWJXHJBRZP,,MASXQ,WZ,65961
31-01-2017,LQTBUBVLZ,XMEDRUFHO,57142YABPVJTWUXIZ,,UJMNV,TA,17853
16-05-2013,YJLFBDAQD,MDLBTYHIX,38609QBHOOIIVYSFK,,CBXOB,US,62828
24-06-1999,UYDOJVBSA,XCZFJDLCB,10350XWJDUNLVKZTZ,,LDKJU,ZE,29132
22-09-2004,MCBJTOSCF,HDMEXCXRJ,27197TSCVGSSWWKLI,,OXZYL,UW,75423
14-03-1998,WCZRONPZH,GTVTIOBRL,04946TELJXFQPXPMR,,KTVCF,AC,34309
09-01-1988,DXUNWYUNT,YNUAPVNQO,67498REGVYSWLPWPV,,FHJFY,YS,97505
05-06-1953,YTIEBEROK,TBBXSPTOB,43618BQGYFWJETBVP,,BSFDP,FP,22758
15-07-1999,HSWCZTYQN,LYWGSMBEI,12221VHJWJFTPYDBU,,CINYD,HN,05822
05-12-1979,GYSEDHASW,HLXDPQXPQ,91228TBIKRVXTCSLD,,IMUPL,VW,05778
06-07-1976,OGNIWAHLW,YVDYUKVJO,27416MCHTCOFZQOXM,,TIHLW,UC,22990
26-08-1980,DPLAFPEVV,KPHMOLNOU,47744IANRAJYHIFJH,,RQZJY,QE,45546
13-02-2021,TMKAZCCOW,IQIKANRRU,93816RWSIUXSRMUFP,,TKRDO,WC,12596
27-09-2005,XYWLTGHHM,VLWJDBMDB,14605LJRGPLBEKDGS,,TZSBE,ZK,18872
29-10-1959,NHFICIFAP,SJEBILUHK,34366OQBYXVAKLJEH,,TKRIO,DI,46775
13-03-1953,NMBOJUXYS,OROGGYPQN,64644VBIAADLOEXFJ,,YUDLS,VR,20961
20-08-1982,XARVAJLPF,BRLNSKZVU,16270HPKKETXFZVXT,,PXAJB,SN,16452
23-08-1955,MZZBSHQZQ,XFXPBJHIE,05266TPNBOOCQAVDH,,LOETJ,KL,88548
26-12-1981,IVMIXAFTW,NEBUMESOY,58715ZBANISXWRGGZ,,DGDIW,UU,80661
05-03-1999,JOKPGCGGS,RYFAXNKZB,64815AGKWSNYYIAYW,,TTNFN,PM,29773
29-01-1961,FHZDMTVRK,WIVEFYGWA,20935XTQPRZRCVABQ,,WNZIH,IJ,07160
30-06-1957,VFXOJRSEE,ZOPGUDXDK,03401DWBUWIGUCOKP,,CTAAG,IZ,16634
11-05-1995,XOGSZVYQB,XLICFXQSJ,26635ENVQASVYNQZK,,JTBGF,LR,21418
04-01-1992,DPIUCSNLE,XHBDTVZFH,83255LVVZNVHYSRFM,,OCPHT,DF,64388
09-04-2019,SOYEKPHYL,FMEZNZDSS,86542OGACJGVFPATY,,CYLZU,HE,02527
30-01-1982,KIDTFCJBJ,RLLJMMGZY,80519KMVWROPFBQLM,,YIAXS,NT,40848
30-03-2018,UUTFGRLUA,ORMLLKRCK,99823AHHAFBGELGOX,,RUPFN,MR,11832
09-04-1988,KHGLOTGZD,SUZQDUYBD,68417HHIYWZGDSLBE,,GAPJS,XL,92338
29-10-1976,SZEUBZYQK,RZPLCNJWI,45405IWLXBUSZUPIP,,VDWSL,SV,96797
13-05-1980,LKGPQWNSP,CMYTUOXRN,82011AFOZRJRBQOQN,,OLYRZ,JQ,46011
21-04-1977,SMQQDDHJM,LNCLHVLBA,79482NGIKXYQMJNJI,,IHRUG,ZQ,80827
03-07-1996,XORDDVDFC,KSJSWMYEY,87110MPSYUEXCGTKX,,AVOYL,QQ,31091
27-01-1982,EEQLRYHGX,MIDJTEBZM,37715LWQGMCVZNMBZ,,HLKCK,YC,71155
07-05-1967,GRPPAQGVR,PCNOHALME,88435HDUQHCYJQTHD,,UTGKG,JI,91067
23-12-2002,PGCQALWDU,LZXGZHJMO,99479MJSOITJHZETI,,WIHSG,UQ,09404
30-06-1973,AIEPOUGJI,VQSNWQVUY,87429UQMFNWTTXOTD,,QYPFQ,DB,54693
31-01-1994,ALLKPKWZP,HOZLDRBVF,82988KEWHFGCYPPHE,,DFERC,YX,87313
03-03-1973,JJQSKGHYM,LWQCIBVWU,35936BYLKARGIVOSA,,TSCGX,FM,20949
27-08-2012,FVZITZACV,ODFUOVTBU,22082HTYCHJZIOEQB,,EUKOM,ZG,28544
02-01-1960,BJZXMICJT,LTBITEGDG,05064BBSFOULNKBJV,,SKFVW,YY,24922
23-11-1957,TTWDDNZEJ,NHWNPJIAT,23740KRNBMKGIALHG,,OUZQR,VM,50143
25-06-1991,ADWFXVTSQ,HGMXYWTTC,85260JKCVPZCQDJTZ,,JXHKV,RY,67404
08-08-2008,FVHIQFBZD,BTFTDKGHK,02777HTCKICUBGUBS,,HHQYX,CE,33228
23-03-1991,TPLAYGNJP,HYGLTFJUW,21934FOMAUMABTIQX,,KGYJW,DV,94022
13-07-1977,ANQTHGEDD,GZFKRLEAY,12421UFOGBQCBHSLV,,SZERX,TI,70692
17-12-1962,SSPRGPXNJ,BVBXJHYVE,52394VTIEFHXWXLYA,,SJENN,SI,28791
23-10-1999,TTJPVHXQO,MLNYSMCYM,97922YGACQRNNAYMB,,FWUHW,UK,48161
10-08-2016,ZQYWXEDOH,KPYDKCLMM,11989SAWFMMDRYMOZ,,PBTDR,YW,80149
21-01-1982,ONNHRJGXP,SEUODHCEL,16454GLMWDIINIPUY,,MWRWR,AQ,69811
10-07-2004,XIHUZGZNM,TALBKQDSB,42298CZIPBDXDMKSM,,TLBHI,WQ,69411
12-04-1974,NQDFMKMPY,GXHIXKRVR,35918SFBXOKMNJNIV,,IUMDP,QC,39045
25-05-1971,UGLJDPYEG,PHMKIECQJ,00703QDKWBBRVRZHR,,CINWQ,FF,14406
25-09-1957,RNUFWZURP,RSWVFTGIW,20762KRQJKCFWELLO,,RQOGR,KP,67759
21-10-1962,EGZUVSXDE,LFTTRCLWU,82954UFHVLHQVGYCN,,JWSUB,UG,16989
18-05-1981,MQJWIIOOJ,YGPEOOKTJ,68255TQYVVEXEYFCH,,VYKCU,PY,90535
20-03-1951,ZBYUBDFSW,FOUVHJRGU,75109XOGMZPMUYYNZ,,RWLFN,VX,58999
13-02-1963,HTNRZIZVE,VQDYMBAAD,46563SKRFAOFXZEEN,,YHHQE,VT,89768
18-02-1981,XNKSZTMJI,SGCOHPMTL,23219PKLJUPYPHWQD,,ANHDD,MX,92147
06-12-2017,UQPAXVBXA,GSCYDEJMX,25486MNFMUFICPNDN,,EKSRZ,YY,25076
21-12-1996,JRMEHNPXZ,DUHZQFXPH,35138UBOWCZVUVHWN,,PHFFQ,NT,65917
19-06-1967,HDUHTTWCN,OYZOWHSQC,49049VJIOCOAKEUUY,,EOPQO,BT,83953
03-11-1970,KFKVQTHRH,XIVWQQIAG,12134BTDAZPJVLLIJ,,GGKON,ME,31203
15-09-2017,JDQBLOCWV,EZSACXGPE,40116OJFXUUGHIQHY,,ULDUY,EJ,26279
19-03-1976,HPUKOVHAC,LDBOWFTBO,24324PTQKPEPQYIGP,,DYVKV,UF,34115
19-08-1972,YRDNSTJQP,DXBTZUGVS,68974FRVDJPLYHTMT,,ZWFFN,WO,59500
11-05-2002,MEFLWHCQZ,RXMUIBHLT,08292OWLCNQQGDHLZ,,YSLNY,KO,91335
22-12-2010,PERNWDIIX,IUKCDGBXW,90516NYUYAVYTWNUB,,KLRDP,QS,20380
30-09-1995,XJLULXBMQ,GRJCZOXDK,46563KUGETSLLHUSH,,ZOJZD,YL,23640
04-10-1958,KGDVGNJHR,KGERPWOVL,29241HZQUWCXYECJK,,PFNNX,JQ,23453
03-10-2014,LGSUTVZZH,HYWUSWZML,98343QMGRKYEGIKFE,,QZYVC,HJ,01540
20-08-1981,IGLKVFMVJ,LFQOMOIAO,08477RAMUFUEHBJOR,,TDFDD,CU,85321
03-09-1974,WWUOZHIDX,EXLFWBFUO,47931DOFBUDOQNAAW,,RNXKE,YS,13900
10-07-2003,NOPYIEHCA,JSZQJPJFS,94996IUECRCKNTXWB,,IPXEP,MO,60743
21-12-1953,ZALGXHEEX,GPQJXCCNR,17564AGHAIDKCURIT,,KPIVP,FQ,34148
19-07-2011,IQFUULBFQ,BFNHQARLA,68162ABJHERLDDNNM,,TOEVG,FR,50073
02-09-1967,FPRRXRSTT,DJBMGXUOY,86929IMLRWQVRCZUS,,RLDHI,PK,69266
21-08-1965,OCANOFWLZ,XWSRUBZFP,45043FBDBNZNEZSTF,,VZVHB,FM,10400
04-12-2004,WUXRUYZXC,YZNTQRIXH,09253VMECFRQYNXLA,,DUMBY,LY,52276
31-05-1955,AEQXBPSHE,UVZKVGLUL,09971GLTYUQLSRUIW,,JQZVX,IF,58987
17-12-1975,ZKUVUZSPB,EHGGYDCOH,08898OONWLOGAMMJZ,,DNXZC,KD,23575
11-02-1955,FXWDDDDTN,EHIHPHSSH,58584WBRJZLHENEYI,,EWQNQ,XD,26725
17-07-1982,RUMHASUCN,FRYFZATNV,99766QPAKTLPWCJDM,,PMCTE,ZC,21623
09-11-1969,FBWGNPTCP,KSWVEYFWI,23799HRSXBLNMTBDX,,KKVWZ,IJ,57518
16-03-1964,JOBLIUSDY,RVXWMLLGT,93080RXQSPJRAEIXK,,HKZXT,NT,34832
07-11-1958,FVXUWRDNJ,THREFXSFD,75226GTCYDAHMKVVW,,ZAAXG,TR,01502
10-03-2013,TWYGAAOBA,YZJMXGJNM,04103GYONHDWMSUWX,,TPYUB,TR,46438
18-05-1974,OPAJVOLYB,QGNJSGKKZ,14557XEPUZWMMNZPJ,,BPRYZ,GZ,83039
14-03-1972,VNJXPWFXO,KWWHWSNWK,45207RYUFNEWHYTNJ,,VFGVB,TO,13756
10-03-1990,FGJICTIML,VCISPZJVD,08719UZRGJNVUEZDB,,OGWFH,SA,77321
05-06-1988,WZUCGBUVS,GLKJITYUJ,48506PRJDZDTKRHDQ,,MYZMP,JA,94712
11-03-2008,KKXPVPRZU,ZPYDNOXPT,79548HMBZNQVRYJIB,,WRKGC,CG,88890
24-05-1979,SKKRULKIY,HOXBTRCPN,20611SHKACZBSSTHW,,XVMCS,EV,83047
04-10-1981,GFWFDCGOE,NPWILJIIH,75951WGKSCZXGZIVR,,TGQFY,HK,66588
25-12-2000,BRKYQYVCM,XCGHKALMU,59636XKNJBCFZCHDO,,LZLEL,GR,18389
27-05-1972,STGRGKEYJ,ZXPJHTIAW,34502CNOZWCIAWWFV,,KQATF,OS,84263
18-12-1977,YJVHRXJEW,WMVAXVKSJ,29457TSSXQOZQNMMF,,WWKSV,TY,39277
02-02-2009,SHVYEDRJX,HWVPXIKXI,01314OOKUORCCZBRS,,NPINJ,ES,79191
07-03-2005,MQEJNHNXI,YIVAIFVWY,82297CZNNFIZHKZPB,,DHJVC,AB,03456
15-07-1982,LHEHNJVBQ,OSPKJEQZJ,13466GLLUMZCANQKM,,MTTEF,IE,37981
24-10-1997,HMDPGBNPR,ILWGZDSMS,76159TXPIWKSBPZGN,,WZJYV,UZ,64014
11-03-1975,RYMXQLTVL,RNVXJPSWY,59559MRYMUEKVUCWG,,YUISH,SR,19591
01-11-1961,YEWHVOQZA,KUJKLDUSP,25857PBQPUFYPYYGA,,ULFSL,JS,50921
12-02-1998,XMVGXJCYF,GLHMPGSZV,00146DDRNLTADBOED,,MTCVK,YS,99945
15-04-1962,ZBICHAXKF,IBENDHIRC,29435VQBVGDKRMSQP,,QXWPL,QP,38017
19-12-1963,AITBIIGDG,ZNXUCXLPC,30916BZNOXVUVUEDF,,ZLCAN,OS,52230
17-12-1973,ZOHMBIVUV,XMCMCHUGU,48966SDOKACZUESUQ,,AFWMK,RR,06606
27-08-1998,NQAZZFSDQ,IEDANQAVL,46236YEASMXPJJLUI,,GHGZK,PJ,36096
15-09-1986,IAPBXGPQC,JSSRVIJPV,00047QWUKDKFKXTJP,,IDRTE,OD,50160
23-08-1974,MGTRPMMSH,CHCRFPEFN,22098IPDBEQQUAGSD,,OOVLI,VE,03418
10-12-1964,LLKZICOHS,OTPZHAMXZ,49015ANRFVODXSCUQ,,LOOJZ,QI,43742
15-07-1956,PZOJTHKGS,IANSBWYDL,81206XXXDUVRYLRSN,,RDDQY,YG,95292
28-03-1986,LYWHIPBNI,JLVPKXBXX,26000JOJYOBZDNVGE,,MNOYN,CN,07882
08-09-1967,XVYYRIVTI,YUNHOPPHQ,81262IMHZLTHRAEQK,,UIIOE,QY,99721
14-03-2001,QRZMREFOS,OZKEBRBHK,43882AUVESZLBHHQR,,QDRVH,XW,02544
08-09-1993,RUPERZRUN,JGLWZYWJG,43235TMEYDNFDBVVF,,WUFUB,BH,49841
13-05-1993,UBKGDSXVE,CUFMUYDMO,14170CVMXJYWYURNH,,KVEGW,PV,70478
04-06-2000,LCCDIJXBJ,VQOCSKFQT,09081FLLOFJQOWENG,,UTETC,ZD,88081
22-09-1990,NUTIPKERQ,CIYLZEBLA,68447DSZQFADEWZHC,,ANGOS,NR,91643
10-07-1992,AMIWCKERU,KLJKPYTVM,26405JEJIQYQQNCZQ,,ESXXV,YW,21807
16-03-1992,ADUMONVES,YCCOLZJSM,04504CMDMPAHEOIRR,,XCMPC,SJ,49582
15-03-1985,DEOURXQTU,WVRTGXADE,80393DBTVOTGPQHTF,,HUHGU,IY,21128
06-07-1963,TMCYQFGNN,EIYKYEYXT,35716GEBIBTYXGHHF,,ACEME,EQ,69809
19-09-1999,FJVOSMVSA,AUHNSZYVV,97604XRDXLJPFPPDQ,,FHKBX,EI,77664
27-08-2020,RNEPARPXD,QEUHGLBTA,39943MZLNIUPDHCSN,,FKREA,VA,66520
22-11-2014,YOXSCWIDO,DUXXIHNVN,39067TCBOQRZJCGAG,,OBNEZ,SC,03520
04-08-1997,ZNEORSFNF,GGSMHSNST,78244IPMVGVNFPNQP,,GSVBM,SG,50623
15-02-1991,QEQPTPZEN,ERPLHFFDN,17144YZRGMZCWYJTX,,TFPBQ,IS,94202
27-01-1998,TEJJWDQSV,OFAUCKOBD,22418FXCOTLFUQBVP,,VPICX,GO,65986
11-05-2015,BUMSBESBY,XJQZXXGIP,60133TFFDFMNALZNR,,GANHT,UI,69334
15-03-1997,CJJHMFKFS,CNOPMAFLM,56155CEOBLOUIOQNV,,XSDQU,DV,08640
15-11-2006,WLMLXDLRX,WNBBOPZHY,26780TWISKFBRRFGH,,DNTTX,AG,82461
06-05-1960,DKVGXQBOQ,QVVXADCKA,93009YKZYOJMURPJZ,,TRYZY,FT,05977
26-10-2007,PLFIGIIIW,CLKLZALPF,83189ZZHJANTEZBNF,,PPVTU,QH,30178
07-12-1978,FXDHAGQQO,NHFVRFIBD,94241ZJTFDVODXJSA,,ZIGBL,QN,19293
10-02-1984,UMDQEBOMQ,QTHBFMFMG,11455SIHQWLQXHRYX,,VQSVN,NY,57001
19-05-2015,YEEUHPKPB,SAECVMMVQ,86692HBNUUFVQEYHZ,,AXGGP,US,56948
08-07-1963,YGEBWHUEP,FJMEGTXYO,37654ZKWBZPCAPPHV,,RXXER,EO,24887
14-03-2005,ZSWHRSCGN,LFVEDLMHN,55662VDGSDQRODSIJ,,KEVWA,ZR,56806
29-08-1980,DXKALTNYX,JWBIUHMUY,31677YMLMEGXGWWOK,,NYODF,HN,02921
07-09-1969,MVZIJZZLO,KZQLPEFLX,16095TZUGUCYJXYXO,,WTFXK,XS,92983
21-05-1953,UDZEDGLKB,PEIJGSFAW,13747ANJCVBWRYHET,,CIZIF,SO,88700
20-07-1959,WWWDOFSNK,KDEFVFIIF,27494CGRFXCRBDFFH,,NTRUR,JT,27592
16-04-1969,ARFTUENPB,AMCRLVPPQ,94575DIHMCGSNFDJZ,,AZIZA,WD,68007
10-11-2005,CTNTFGPFD,PBERNNQPM,26857IUACDMNNLXSO,,FVWAS,AU,42068
10-04-1999,HWJJBBWUR,NERNVALFN,59284HXUNVZAOGAYC,,IXBXU,CY,89017
17-05-2016,XTKSDUTDO,RFDGKQOWS,95008IDBEYSLCCMKN,,BBYID,LG,57563
05-02-2020,FHEBHWPPV,URPCTTESE,07053YDDOHDOGMCBE,,KMYMR,BW,40535
10-06-1962,JACTUSVWU,SYMORUDKF,29585BXSDQOBRKSBT,,YHKTK,QE,20993
03-02-1983,PVLQCUFKW,GSWVQYFTY,56484BOWPNTRBCBFB,,DZUZY,RM,48520
19-04-2009,FAGXTENCW,ERKXOVMRI,65776BHLLYTLRGMPV,,HTSOZ,ZQ,64618
20-05-2014,UFFXPYNCT,ZQIVHSVFI,67482EETLBHWICAUD,,UXFHL,CU,54543
30-09-2018,FUGAGKVHH,EFGNSDXAL,47561WDHZVNLHMJYE,,QTVZT,HO,15341
26-04-1955,YABMKGFDO,UTSBEOGYO,97468FABGOWGWATAY,,YWFLD,WQ,96599
21-10-1998,SATZZECSH,FQCTSSTVB,15959MLPCJBUJFFBE,,LMNOM,AA,41986
22-08-1977,WKKAEFFNC,WNNXYTWVV,29494OGEFXGJZNFZJ,,YEPTL,GY,97362
07-06-1953,JFNTUZQTN,FGESXMICB,38805GOSCNKWGXHKD,,BWMNA,QX,91907
26-11-1996,OQNJZZTBF,ESFDZUUCS,30238LAELYFCWTJGU,,AWTAT,DR,25064
24-01-2015,DSZHNARWC,VCJWPNGSW,81795MQLRTDOQZGWD,,ENBEY,TS,91868
14-02-1991,OUWOIQKNK,WDIJGSBVP,94260UWDPSTSAGDQD,,SOXIY,AU,42942
30-07-1950,YZUWUYPGN,AMWPQXKOK,61655AKYHDTRKVTBX,,OFJGF,ZL,77689
29-04-1974,LEYJKPSHG,DTEDVBQCB,02281WYZYQWAGWFUV,,FORNF,FA,03735
22-07-2006,PBSTPMUWN,REYUUBYPJ,88258JRPNXQOAIDUR,,VTZYZ,WK,02755
18-02-1976,AIZCKIBFI,OZJAYXDCC,54107RYOEXNYOGMHU,,PTVEU,TQ,40267
18-09-1960,MYMIMKQSW,ZURUUXQIS,07187XZEFIABBMOGE,,DNGUV,BM,53509
10-07-1984,TYKMGAPCT,YJIHDNMDX,92417JYVKHZDUZFHX,,LEBTH,AD,89686
06-02-1968,MFTEURPTV,QHXVAMNGI,56624BNOTTJMAZULM,,RVRMZ,PX,07923
15-03-2018,UWAGPRUAS,RRIXXJDTS,72424IYDHTYWOOBUP,,IPZLZ,DX,24346
21-12-2006,EGNYXVQQM,FSAEYTMEQ,44025NEQGQYAZGTKW,,RLBRX,ZQ,39285
25-11-1980,HTVRXCFJQ,IHHXHZWWK,74608ERMIYZUUZISL,,FDDXC,DZ,92939
27-11-2011,XTZMTWTQM,RZBTIGFRM,62117OYUEHDWLICOK,,YXKFI,PU,51225
16-11-1991,YIFLFMSBZ,IHEIZMCLJ,33199VDQISQHOLVZC,,WWAZZ,TF,47156
14-04-1987,YILNSSCTO,KBTWMPGCW,82975ZIFUWJSSYXLV,,NYTWN,FF,30534
11-09-2004,FOMAIIWKU,HPOEJQCMA,37111KWMNDDEBTJYQ,,VIFZG,JA,65564
23-11-2012,QVQNXLZII,TLJCSHYIL,75157PEMYCDKDRZZN,,HFWCW,QM,46604
03-07-1987,FHOFBCBMI,QSAKDWZWE,82774BCDSZRNJUOZT,,DGZMR,SS,38810
21-07-2003,RFZORFLGU,LSRIEIVGZ,79198SAJGEVTHNOLD,,RYDYN,TR,46533
14-05-1997,MLYIEDWSH,KUGEUSQEW,56868WNNVNKSZOOXF,,ZBOLS,IY,13759
12-06-1957,BSEIADYHO,TWJHTZTTU,79311XANNMEFSAGOS,,EGWIG,VR,67020
04-11-1995,KAXROQLWH,KPNPZJUDN,17241YQFRQSXKWTQP,,SIFOC,QQ,89265
19-03-2019,QYZMCSGSE,PBGAXLCHK,77453QACXMLWHZMRM,,DBLSC,FR,28480
11-07-1991,HAFZHJNBV,FPHYKHDQA,75849WCBRXAFVGZQD,,GFUNW,MW,33133
04-03-2003,EIMIWOGLS,VLTHMWNNT,77275TAAWPFBAAKQR,,XNDZC,XG,99272
19-04-1954,MMWJEQJYR,FYFLZBORK,26437UAJSYLQSYIWZ,,FLSNP,MT,90334
19-09-1967,UWNJKLFWB,EFEQLULHT,41651SDRYZIDJNVYT,,TNLTS,BG,06314
01-07-1967,BHZBMVVAE,AHEGJRUDZ,90699KUKUBXTONOTP,,EEMIK,UW,47816
01-01-1973,TAIYJGQJQ,CAFECNSKC,36109RILRKZIOBJLU,,HDDIO,GJ,50115
05-03-2014,THVJOMYXG,OEWPMFBYO,09130BMBQWBWFVNWI,,NXSOU,GY,67723
01-02-2002,AYDVGLXFC,VTYBTRJVR,24619FDKYJAUYUHOR,,DWZLA,AW,85589
19-01-1974,MMDJKFMIE,RWTPBZSSO,24569CYXOAUSVNABU,,ITNHP,YR,48465
03-08-1954,YUFBGSQSE,AWASTQXSF,25519WNOXURNFLWJJ,,MQJCP,OG,47830
21-06-1980,BDVRXDPTV,LANYEDQPX,45126GLEYOQSHNUFJ,,QYNCS,XE,50626
28-04-2005,BRDCHPROP,NWHJQBGSX,53128EIWDDKOHZWEM,,AZUFM,NE,91518
26-09-1958,EHAWINLUL,ZRVABJTAB,60404SQUZCEGBXWHL,,SGISJ,OH,24398
26-11-2002,HRQZKWDKE,FJFLTBGHH,88023EINBPLVURKNA,,OAQWK,YQ,64167
03-04-1994,UGGOTNKHQ,WFBQFENFM,34794TMSKDMKFRUGN,,HANSM,GW,84737
02-11-1976,UQGUVUCOC,NPSCMKTVE,99159CMOBEGXOTZMG,,XOGXI,AO,31847
01-01-1995,LYRPXKCSC,JIQVDBWPF,29576PLEQGDZZKURJ,,LTBWZ,EI,37604
05-07-1985,CCBEZVFQT,UCIARIKWV,13570MGTTKHQYXOGD,,EXRPO,ZG,70792
28-08-1963,XSLAUYJKT,ULVEUGSKL,21627DHWKPEOOXKFL,,WKEMD,ZH,62534
14-07-1987,LIWMSAFUP,LEHFBJFCE,59809XMOMFLUHHZKX,,JMUUV,WR,14376
06-12-2013,UGNMIVRAX,LQEDTBRUH,03691BVHLJHGKYTAG,,QCELE,VI,82976
07-11-1969,QDUPHMZZO,FPWLRTLJT,82468VIZLUBEZIMYX,,APOAC,PC,28727
30-05-2002,NXLWRNCPM,WTTPYOVPS,76041QKXXUDDVEXUZ,,DWAEP,EX,58751
27-02-1990,DNJQZYVWG,EARCRKZLC,78122LOWQWTCKYBOW,,NHNTQ,KG,51715
15-06-2006,EHAHKUZIH,QSJROXFSY,72767EXGWPQHHZUZG,,XWUWO,PE,74513
11-09-2010,UOUUIKZDK,LTPLWXQAW,07695EFTXRCWRQULD,,LJTOZ,GR,37520
12-07-2016,LARLBMPBQ,KXVUJVJJL,61357QXUIALLDUABW,,FIOZQ,GS,15864
02-04-1974,UYMJKHJGO,QFAPEUZOL,97660FXACGZPNOQYE,,TXPDF,AO,86425
08-04-2005,KJQCYRBCL,JDQOYJTWY,41292OXKJROMQQQCG,,FTJRL,HO,28246
29-07-1980,HEBDBBRZU,FQJUZAYLO,82772VBZRYGALZUYC,,XVODL,BN,42693
02-03-1968,LHSXEIEQZ,QKMLLSOAO,04273EDHOXFZWVWSI,,ZAJEB,FX,41563
08-12-1970,OSGPFRDYS,DGBQHHOVL,37247IYIDTUWLBNEL,,LWUMI,XE,05765
01-11-2013,IEHJUKAVT,STGHVZFDL,95058MAQCSHTLJKDH,,ACEKT,FZ,68524
13-10-2015,KFWNIVZPO,TPQUDAMIU,58168NMYNHPROYKMS,,KIKIP,HV,99802
22-10-1989,TWRVGMTNX,KTSXJFTPX,42324BQRHCLOMJBNW,,VIEML,IZ,39685
27-06-2013,YUKFCPGTA,ECZNBVQQD,61974ZICLSJPQFDEM,,FFQKJ,GW,21473
27-04-1958,WFBXBXJIJ,UILBLUNRT,81187BNJGYAQTWLCQ,,KJWIZ,CV,27603
01-12-1993,YJGDGWPEB,QVLMKCSUL,08716MOGUVDBYEWMR,,IHFLO,GD,26910
12-08-1965,BEWFHJSRJ,KZTWCVDGY,26331LIPAZYXYGIWM,,DDUBO,CP,21995
22-01-1952,QTSTLKARY,KKQQRBMJV,75367AEHBZTWLTWSB,,XRBQA,YD,38948
31-07-1951,ZNSXBOBOU,YWJQDNQXN,53005KKCNRINEZRWQ,,PTNOY,LS,43433
30-09-1960,TKWIRHKJT,PEMXYVDCR,67466LQURPNMWEHNM,,OPWMV,ES,70417
25-05-1969,GMWDBRRDX,QYJICLTNG,27719HZDCHHGYUWNF,,VXNHJ,ZI,68033
07-12-1986,NVHOVBZCQ,IVEXIWRCP,28007OYUDXJAOAZMS,,KGHUM,JK,33089
07-05-1959,XTROGMOPR,BSIHRTGKK,72773WIDJBJWVPRGI,,VYGGT,DP,48052
09-02-1993,XEHEZNNYJ,EEYCUXCCK,57529QYCJZIHXEBWW,,KEONF,FB,66863
17-11-1957,UPNPZKNHJ,MYUOLOISG,56864HBKUOSAPASZF,,TVIAF,BG,37798
15-05-1983,XPZFGWDOH,EGFPTNKBD,00604HWEGGYOEZBLD,,ZGLXA,CF,24247
23-05-1992,SWIENVGAN,ABOXVAWAH,36619ZFTGQMXDOBOJ,,CFLNA,UD,90853
19-04-2005,EYPGYVKJD,XYFKBYCLD,04169GRKSBOVDAEZJ,,WFRHW,GI,91185
19-07-1972,XIPQFUSWH,XCTXZYQRG,40379SENHZDIIOCXG,,WZFYL,LT,18995
07-09-1994,MAAPBFJON,ZLQFZQJZJ,55577MEKUKZOSYCRT,,DFIFP,VL,45185
11-05-2008,SZDUTCSLH,YEISWFAZN,90660MWRTGYGKNROW,,HQWZV,WY,28862
21-11-1977,UURHAJEFM,BUMPBPSZG,99935DHSBPYESQHRX,,EOROB,ZF,25353
15-12-2015,FKJNNEAAR,GUSAGMXFA,59293PNRRNYJKABKZ,,GNDCF,AK,59949
29-08-1976,LIXTRKLNV,LNNTBKBXL,49387OUIJJHNDKDWL,,FMWLD,NX,24123
29-03-2021,SQBPBGCBV,KJZIBKAZW,29981YHFPHKGANLEV,,FZTPG,JX,09195
03-05-1998,YNNEMBSNI,WIJCRSJKI,72909GOFNPGTJBEOK,,MXUEY,EB,33807
11-12-1998,SPRRLSTIJ,VBGLAVILV,25432HJSTFETHRENO,,XVVFY,ZY,93278
10-06-2002,FFNDVGUFQ,PWIZPJUSY,72077KZNNDLBTRSWY,,DEVQU,SD,09514
01-11-2005,EDDBDRMNN,JALCMMZWW,10654YPLFCAJRTODB,,MLFPO,LP,16633
28-06-1995,AHMSBZDSP,QDBNYBOVD,50814TZHPETVXYIHJ,,XLRRO,KN,82857
12-10-2001,IREANFNYL,CVDREPANX,54401EXVHVCHKDVXV,,AKKWW,TP,22205
01-12-1992,QNCGUTDKO,FLTNYVJXH,00473CATRZMVWFJCU,,MRQRJ,XJ,51291
03-01-2009,NSLKVBAAY,HNPWVQZXP,62720UBDKIYDDWMRR,,IDZKT,VW,96666
29-07-1969,LDMWPULYT,YYSPXVLHO,99362GMDZVNAOWZDJ,,GBHLM,JC,59496
09-06-1998,ZLFQOCSEN,CCAWNGBZJ,29420RNDTJKSNAWNN,,KWRIH,DD,55801
19-09-2019,LQSGITRZD,UMMCYLWSR,96273FRBSYZCSJNCH,,MEDXO,QY,55144
09-07-1964,DCALATYQJ,ENFHWUWCP,63356YXAFDUDGSTEB,,BAJYO,MY,87740
18-04-1956,YPQAAVYDJ,FYBDSAFMR,01846DMICWWREUHKR,,AKTFJ,HB,90602
19-02-1960,AEWXBGJKU,ZJMYXFAXD,08048TKLERLRZVTHG,,VVIPH,GJ,59132
22-01-1986,CONXTGGSS,WTAQLOYLI,96262FINNQPIBQXSH,,MYVHD,YX,67543
07-04-1981,GJAAMRSGV,VDOOGXZEG,51732UMADHJCEWWJX,,KPVKS,MM,91976
01-04-1991,WVGNHRAYP,OAESCAPDG,20722GITYXJFYSZFY,,SEXCD,HI,17481
11-01-1977,HDPDLQPOK,KLRUJOXEV,83319KCXQBBSGUXFF,,CTYZU,ZA,99277
24-03-2001,WWKGBKOXU,JLROMBFYO,40570ZEVYTIHEXQZH,,OUHLJ,DQ,35293
24-05-2007,TNXBVWKRF,EIVCBPSXC,75268VHZBLRUCXALW,,CCINI,KP,30944
07-07-2000,QMMMNWQCE,EXPKEVNYT,70177GVIQQDZORHLE,,UTUIS,IY,13131
24-08-1986,GXHFCUZPS,AJZDMEOND,13646RQZONAVCUWZV,,TYYHQ,MO,66696
27-11-2002,WPSBTSXGN,RZLEDKHSQ,84152GHQZWUREUVIP,,CQOGA,ZE,65437
11-10-1990,BOOWBIQPJ,SFBGPJCMA,66329WGOHRTHGSPLR,,HMTBQ,TS,62134
21-01-1962,KBDTBQGVA,TZAMXNQEV,00598RKIUMAPGNSCB,,VNSCB,HL,79603
26-05-1968,EBWIWLLLH,MXYLMHCVU,18517WELTJHUYZGXU,,ANVDQ,KM,51851
20-08-2012,SKSWKSBOF,WAUNYAKVF,86800FVHFGHHNUGFT,,IAJVF,ZH,41157
10-12-1998,HIDQNYWNH,UESUFTMUF,63413SODDFLYABCPI,,XJGDV,SX,49104
28-01-1976,UXAPKZIQV,HGLEKJJMU,51238RVVJEFYWYUTB,,YWDSW,HU,38162
28-11-2013,QCYGCQPSD,KLHUBGKUI,83394CEZKREINCEGI,,TTAWI,PU,41280
12-07-2000,JTOZNJRMY,IQGZDNXQD,57668SRWGCOAAWRGE,,HAVDP,PR,99689
06-03-1990,EGXKLZMDX,OSGUTMBOT,07905EBGINVZOWCJX,,QPOJM,IQ,04692
05-05-1969,KVGJFVGRB,UAXKMEUAU,14152NUSCKHXOERLD,,UJPMA,VU,05757
08-11-1981,SRIAABNXS,GOMUOMQVB,70220DRRWSNJEJUPV,,SBEUU,IC,10772
24-10-1999,PHNSTOGPE,CUOWTICWS,48165FNPPPBQKTJOM,,WVJAF,BO,55905
04-08-1972,EXNGGMWJS,SGPQYEDHR,33083TTPUZOVODUMI,,AHMDV,UO,59689
09-07-2008,WUEFKJPDQ,QRIPAFETZ,49787PWQXQLTOOWGR,,DUOKX,GD,24584
23-11-1985,CVWMNMCJD,EXORKFPNO,37770HQBFUJFCXDNV,,LVTOS,JM,80888
08-12-1968,CNAXKGNDV,RPJFOQVVQ,49307YFHHSTLWQIER,,ICZVA,WD,85109
12-04-2003,JQTSCKDDU,ITQHYFZRQ,75012AGXGRMKLRJUA,,HIOIJ,OF,47853
24-05-1970,JWKODHNYO,HBATABESO,51433IHWMWKXOQOGM,,HIXBF,IM,23004
28-07-1981,NIZMYGACZ,SDLHKUWFS,22882WRGZKVQLADCD,,YTOFQ,GZ,95663
30-12-2008,YGNECNOLW,HMRKCLDCG,20551POGSOCUFKVLD,,JPUGA,ZE,72542
06-02-1969,NYQKZSDDX,COJWVOGMP,82165RMJHLTGBIRXO,,ZBGQM,KQ,66742
11-09-1977,DUIXHMEHJ,SMCHDUWGK,96176OBOWSEDZMRBT,,ZSZVQ,EN,23631
06-02-2004,LGDQBDVOK,YWWSRFXJZ,06270CWYYUXOTCHKU,,FYMTO,MX,94971
07-12-1979,AFOBTJULB,IUSKZYYIK,92728JLOMNCTPDQJC,,WOUZY,LT,87988
08-01-1963,LNJSTLVXD,HJJHGGRMI,11502SLXUIJQGUJFW,,HIFNG,RC,33279
29-10-1977,LXIIWLLKU,YORYYNUKQ,57972JBSLAQKQWTYW,,QHDHN,RN,96278
22-06-2000,QHJZFTIFR,OFMJVBRFY,26972LCPRGTWGOSGO,,UJAKI,QE,58038
21-03-2020,OTWTCJXRM,GMGATPZTW,34197FDNRBHEHDFIH,,OFOOF,AE,75983
12-03-1959,QEEPANPIG,SITBOKJHL,53573XVUZSUAESOMA,,HGPTF,JX,47493
09-07-1954,HJLALJFYO,ZNWNULVLV,27579UABBOFPRFDOP,,TKLPV,FI,78332
06-04-2002,PPGMXTDVD,TPYUKWFHK,91167WIICWXBXLIMD,,XRZQH,VS,94047
13-10-1978,PHKQQHNXI,UWNSVTOWF,15913WAYLSQEIRYBM,,GGOXE,LJ,68315
20-06-2014,XYMHZTLNP,NNYZHFWEM,93984DGQLNTBLQUSC,,CWEZZ,KZ,92778
05-06-1986,GGAZTLJLA,DPZHHRYGA,96194ZSCOEVCUNNWQ,,TRVWJ,SW,88299
12-07-2016,YJHKNJZEJ,NNIFAYYSS,65689WZYHOXNUYZEH,,ZDZHL,VJ,18058
18-03-1962,EIFONQQHP,SGTSVHVBT,86984DIDMDOQDYNJQ,,PFHMA,BH,49572
01-02-2016,WOCMKVKTW,QPEEUATZF,84730OYKOZUABXTUA,,TNGRT,AE,83885
02-10-1960,NCZLUYXAV,PTTUZTGZO,56457VLOYZCREBWUE,,BWCGG,EB,89346
13-08-2019,WYUDVXRCQ,OAOKWBOMX,59850HYKMWUZODAND,,SQWRK,XX,89494
05-07-1963,RVBCFTWIS,MJLUKNNDE,00636DVKYIAWOVMPY,,IBWYD,ZW,80761
20-09-1978,RMINOPYFF,MFNAQNRHA,00630XCZQGWYLBEAM,,GLZGX,RN,06381
31-08-2009,MGOCDWMOP,JSNITMIKX,30355HBMTJOOQWXPB,,INOFW,NS,54034
15-05-1952,PSGHKGDCK,PSHEYNPPS,64871BMVNBAMUHVXP,,VBUCL,KZ,37758
25-12-2002,NGJPZHKUJ,TRWYTZJVH,86766UZDFJQAEEQAU,,KMAMF,GN,66225
09-07-1973,BVRZIFCXV,CEVYIADTL,92796WRUKRTVPGBAU,,UWHRH,MQ,36539
05-06-1966,LEMVCWAHH,GFOFICGIS,36444BITBBYGBQREZ,,EAMCJ,XC,54868
02-12-1958,GYLNZXVSK,UPWJRDLQJ,78973ITRJZVCOSPCG,,SITNC,CO,66341
06-07-1974,TVMIIHBEN,TXFYAJHEU,27545XMLHDNNMYSEJ,,LBTMV,GA,53957
30-09-1980,WTGVMAPKN,WXZTUQKWF,06837PMOGNRSRBJDO,,GJOTL,AJ,34363
19-10-1999,FZCOINILO,XDLFJVIGF,36534USTWGMZVEXGQ,,IFIYQ,VP,59875
12-03-2010,SMZBCYGPM,MQTDSEETS,47406RIQAUEGKGVYX,,ITYKN,UG,99600
02-03-1961,CZBVASFVF,KNUVDLLWW,17728IYVEYJHYTFZS,,LEGSL,AS,32469
22-08-1979,MDMQOHYGH,AWPRBRZLS,93902RWRRRETTAVUQ,,VRCDK,WG,21150
16-02-2009,LVHTUBTYL,OYRADBMAE,73093SZGOMJDRLLIY,,DFXHG,CZ,36557
16-06-1986,BWYDTYFBA,MRBJPZDJC,91771XTOLFPKBSNGN,,ZKCHF,QW,30653
12-03-2013,PIXCHHEAD,PPAVFUKPN,96265PBYLYMWETACV,,WLGRX,UI,75775
27-06-1960,EURNIPNLP,EBZBMUYJH,68890JHDLFEXDNJPO,,EUKEF,NI,21335
07-02-1960,XGAAQMGTI,SZTMETYII,58867PFNBOIZUPZHP,,XHXXN,ZP,85053
16-11-1981,VEOASQEAR,BYDVIWRMG,65753GLHDTVMDTSVM,,YZPYO,QP,71500
05-08-1996,WDPBXOXGT,EIZLYCKRS,61758XEDMBPGEBALF,,UGUQV,HK,95397
13-12-1957,DZVCWXNHT,OOOSJTGNB,46669NDXRLBTVLPXP,,EQSXG,SN,40864
28-06-1980,CTNOLJFAT,JCYBMFZOY,30175YWWUPCYPVLTE,,WEIXR,QZ,29742
05-01-1993,JSCIJRLUX,PPECWMZOT,69103EAWUXVXLCEKV,,CVYNC,CV,58826
31-01-1962,UUCARYRHE,LQTPMBNYM,23054WUYETZHVEQIV,,WNQUW,KY,33772
23-11-1989,FAWJRIDMP,XOURWOTGC,60363GYLJFONLALTX,,JCDWZ,MA,36188
01-08-2005,VPREPYXUT,QPIPTQBXJ,94733HRJVGNXJIXDI,,EXAHJ,PZ,30971
20-04-1965,UKERTGACS,NDNRHSTID,74847HLLBYZGJKWVS,,EEOWL,BB,51587
07-04-1956,IVBPYUDAS,XGRAECIGP,06270VNKRXJGMWHLR,,ZUKQQ,JP,41005
16-06-1997,LLPWFLDGO,IFYNWRKTU,59306PLOICFDDUCQP,,LFKKS,LM,47419
02-10-1950,ORWWFZQHB,RXDIWXTXI,76186WGYMTLUTKVNP,,POHPA,XF,09866
16-08-1960,AUAWXTXPU,ICNFSMWYJ,74525YYSCTTFSGSFX,,FCXVA,AK,60378
19-07-1950,UNREWDQAE,HZLEUZHNW,29867XXXVFULKUBVV,,UPLPD,CN,12245
03-02-2014,OYVAUVCUD,DRATBPDDC,74883RORCJYINNRBG,,QPAIC,UR,72665
18-05-1959,EBXFZVEQT,OSRFCROIA,15219JVFFEGWOFOBI,,GEZMA,EM,71168
10-11-2002,CGHXYAKCP,UFUJFZDXN,48673JNZVIZKPNAHG,,TEBJU,PR,04607
21-03-2003,GKEFWAUDX,EMGUQLFUR,36620GIJJEUUGVBZG,,HLKYN,LO,84428
04-08-2009,YYLUZXKIG,PXOKZHGFK,11628BDUHSGPSZYMS,,EJTRS,EM,48472
19-09-1950,MQXCRZSCF,JPBESMSBX,38421DDRXVATYDYZL,,EBDYE,NT,93791
14-02-1982,TCEYSTLIM,QDGAHETYU,28184ODYFXRTUOGPR,,ZENUL,GI,31790
17-02-1960,VZUHJSYXR,PKSHJGZKC,91089WQRUDVTEWQNX,,LXMIH,SQ,65118
18-07-1991,CLGURGAWH,RJIJLWSTS,32682VBWUTNWKSSVU,,JKVZD,SF,00501
20-01-2007,GENSCNMRV,ZHYSKMFXC,65065LRHEPLPWSHKE,,GCKXN,OK,15878
15-12-1988,TXSAMQREL,KEWMRLMID,37601WJLGLWENSDEU,,LUXUT,GW,19022
07-01-1964,RGIECIOIY,RFJCOQOOA,34477XPKQOITCEDOK,,MMDKL,IM,02350
22-11-2002,YJDEYBFRW,FMSFAOJYI,75077MMWYXNVQSRQG,,PGRGB,YJ,34774
11-01-1973,VTFKABHCT,YQSGZEAUZ,78882SBMNPXNNQPFA,,LVTEA,CU,31828
23-04-1981,QIIOKNTZH,MFSPPVMLA,74027WANLSCYARYNK,,GNVLW,LT,14835
04-06-2018,KRTJSRNRP,DGUWAFJCR,50373OTWQCSZZSBCF,,AFWTT,LJ,69498
09-05-1979,SDJEPBLYW,EYPXOUFPR,52888IPOLYWNVXVKC,,ANMXF,MX,68103
14-01-1960,BNXXOQPNB,TFISFHTAM,77569TDHGOGUMGTZT,,LQKLE,CZ,96951
05-05-1960,VEDYUBEFA,VMDVJBLMH,37098YTRXJZBAWANG,,MHJHJ,ZY,88775
23-04-1955,DEUQQLZEZ,XLEANSREK,15098HOPDUOOHCJFV,,OLAQG,VQ,42887
06-05-2000,FJGQACSFC,KAUGTCPKS,11558BKHTRKMZLNSX,,UBWMN,EC,03826
29-10-1962,EGLDVYBBK,IMWAZVACA,04050GIGIEXSQBIEK,,JWUOV,XS,75038
24-05-2017,MXACSRRTF,KWUGIXXXN,98609URQUQBSINHWF,,WRVCV,FU,39137
28-04-1988,BHAHVZZHQ,RAWEHZUXP,31585VGJIYTIAHZYJ,,IXGOI,RE,11459
28-05-1984,AXGTFZEME,ORGLWCVOX,18247CRLHHMOEXSQP,,HEONZ,XT,57074
17-05-1988,BXADUAGUC,OQGXMKEEN,58988JIXBLZNHIULQ,,DDFGV,PZ,88891
17-11-2015,VYIJCVBBB,UAWLXEVLK,30437XVKNJXVFDVUU,,ODMHU,TS,62159
05-09-1972,RYJHDMQBM,IBQVWJCZL,15766AOOMHCIGGQQE,,HWNIB,JQ,39566
27-01-1957,GNHTCAEZN,JCSNKAVBO,18755ORKMMYZMDVEI,,DNBVY,FB,44523
24-04-2011,ZWHSZTCSX,JJOJTAHEM,94634RJNLLJQRABEF,,RRILZ,NF,89342
05-04-1972,CLZAACCMD,WNHMBVRQM,86723GWLUDWJMQUBR,,SJNDI,SZ,38813
03-01-1957,PYXMTHJUQ,WRZZUGQFR,04917CLGFTFBJXWHD,,CZVMO,IO,37502
23-11-1957,ASBALQKIM,IOEOYBWHO,41046GZUXZUGTVYQH,,PLWLO,HG,46368
11-03-1975,GLTAQWDWA,TGNNLHOQC,67329MGHJXEYNPMVN,,CXQPL,GF,22319
09-11-2020,TGIGYXYXG,TASKSOQRK,83303NEAFJGUPWJDY,,RWHYD,KO,99399
14-09-2009,LEMRVBTVH,DGQMOTNLE,68132AUVQUTZJBQMA,,BPFOY,FK,76552
11-06-2007,GMHKKERUT,OEPTXCJME,07561VIQVFUEDATPI,,XTJHL,OG,48835
03-04-2019,WKOILWMKG,FAUZURIAK,41112FHPCCIYAYLRB,,XJJBG,RU,82881
30-07-1977,QBMQLATDG,OWPOLCDRQ,85132TLAZFRLHTGZK,,GYNLC,CH,46655
23-04-1968,YOAFIAVNF,EOCRXXHBG,78530MEVUCOHINCAL,,QPWEQ,WH,74176
06-04-1950,NRSBNGEXE,RPBGEYPHI,57124DYNGQBFQGUHI,,PSABD,TT,88125
14-10-1958,NUOHELJEB,XCZSIGEXN,60176OOJITMNXAEHJ,,JWMMJ,YF,42236
24-10-1983,KSUWIDRVW,LZYEUYNIL,70226JKBVHDYHJJSR,,GASRD,MQ,02286
05-06-1961,HNBAGTTIE,ERVDACPJB,55300HAPAERIEWNHC,,LCCEI,PK,70563
02-09-1985,BTOBQOIBO,UXJCUMGUV,31386ROPTZALSTFHM,,OCLLH,CE,04352
01-07-1973,HAOXLLVCG,CVKNDKWGS,61915PHOGCIKASARG,,BBWFI,CK,25005
11-01-1982,SCBKJYIKC,MHIIMCDKM,90997ETRJJYOORKOA,,HXHTL,FX,51432
07-08-1955,CBMGQKBDV,AKQRSIDIV,98016NLJBEAJBYZQR,,HGWUT,YN,70286
21-12-2000,JVBDIMTWZ,IOVTWVLXP,55985DNXCBRPSRDLW,,CTKMA,KM,89896
05-02-2021,DXDJPYYHK,VFZOXZTDR,52191GMBUCLGLRLNP,,LNAZI,DR,81750
05-09-2012,BIXVYZELP,DNTTRICVA,09702MMJXPGZQGTHH,,ZOWNW,LO,01231
18-12-2018,UIPOBRNZI,KKKUMFALK,73295YJRROCZVENMT,,ACWUY,LR,11733
02-12-1969,JIPKGBZMH,IVSAAFZWF,78788XOHGMJMDRKJN,,AEUML,NG,25682
21-09-1993,LWAQYYEQX,XGYNHEJHF,89006SIZCFJTTZOVG,,WUSHO,WC,09598
10-09-1992,OZNRBKHRH,WRHOZNCDX,14721ORLVOCHDVSKQ,,HGMNR,TG,72868
22-04-1960,TIGKTHVLZ,PNGERXHKD,90363LBLBIKAAJCJA,,SUSAM,VU,14218
19-07-2014,GSQLJESLS,RIBLCUYZB,45051WBBPOFYSEYXM,,DEHZL,LJ,33494
16-08-1955,PSKZALHSA,MCPMTXKXS,25549OGWUHHFKQOAN,,IBOQT,XU,67315
11-04-2016,DAZXRGCCW,SRUNUWWDK,66826SETFUMNAHPMO,,EWTAQ,TC,30208
09-12-1999,ZCEMQUKPU,PZGLDINUX,38528VTCKORAKUZGK,,REZRF,PM,91831
29-04-1956,LDGZYKBCN,UKDSWKRIZ,70663MMUXLKSQPJWV,,LNZXZ,PD,59330
04-10-1990,WKIEJWDHB,ULNQVJLGW,77234UHIAYDUVVDRA,,XHEMM,PW,74877
15-07-1956,PEBTFUXHA,GNDKEKKES,42761PGKFMZRVVGRW,,SNQVP,DO,26539
31-01-1968,BDHYSISMG,RNQALQHOQ,07266KAULESMDNQUR,,XPAKA,GG,83404
02-01-2019,FKKLZUWAW,HHGVCOFJI,44383FVPCXBZALSUQ,,SMAKK,IF,93369
15-12-1952,BTPBOGOCM,LMTGWZXWJ,02290EHPYUANKIQPJ,,AFCOC,ZF,37006
31-07-1962,ZVFFHSDUP,EGWRUOBOF,80437SJMLIBXKWRLI,,EYEMH,NC,29733
12-02-2004,PRWACRTAJ,PIOISEZVX,70581SIQMHYOUHJIR,,AGUYV,HE,65978
14-02-1957,JBBJSBVRB,HGHGVQBVH,55656OFXVEDHMVSAN,,TVKXC,AR,13962
20-06-2019,PGCXWTWYQ,ULEKCCJWU,05864TQBRQFQIRGIY,,RVMFW,NZ,31446
30-10-1991,FKHKWSUAP,JWIWGMYQT,67423IASHXVIMHNIW,,JQJAM,TD,69460
20-05-2008,ZBUHNJOCC,HAYNYNSOQ,65510OLOQWJQXJEWM,,HUKCP,GU,11287
29-07-1996,DXWMXXNAS,JIFXRXCFK,62373HBBZLGKXVZVE,,YOXZN,DF,59340
30-05-1987,XEDITGUYP,PQWUBMVVQ,20146KDLFJRVIOXIS,,JVMRC,ZA,79955
03-08-1974,KDKQWZCIF,NCSLEJNIV,83999JNVXDQHCYBCW,,MNXJJ,LV,00521
06-04-1996,YSMPDIPXP,SINLZJLNU,98937DKVSFSJWYAWC,,DMZOJ,KJ,08733
19-03-1953,DALVVKTME,MMSXEIGUB,16470HOEPCVNJRYLC,,VCCUH,SS,51824
18-04-1950,AJWTXRDVE,AAWAZWIYE,65478CXMDGRXPKUNF,,EKBQM,TH,18883
12-03-1980,ILLJUGQEC,TOYWTCYAE,30956GSFMLYTQDTEE,,SSCQP,HL,69451
07-12-1956,YDLBIFHFO,BCDWWWBGZ,02127WBWQSOTORMEK,,ZAOLI,RT,31880
03-10-1989,UJZUGKNAC,JHGUQWAXC,79597VSAFECFUPWPV,,QMXAV,RZ,56762
21-03-1963,BQUVNQJLT,SLGGWODWN,59018JBCOVULZFNIL,,FSOQI,OM,58649
05-12-2006,MRKGUGPEV,YQXFMFVUH,36452CKAFCGGOKVBB,,ISEMA,PZ,76317
23-07-1972,LLCEQMJZO,HUFKJVIMG,17076CBEJOTRHUGJY,,SZHBS,UU,97960
22-09-1973,COVOMSIQR,ENRCYHOFB,24696UIFNMPLOUSOX,,SBLVC,FM,53435
22-08-1979,MWCSRSFBY,DWDSULNYQ,41844DQCKLSYQVLKE,,CTNGM,RY,96893
14-02-1969,BLZAYKVLL,OTQSEHQDX,27160FFSQAXRNOEKX,,JKKLV,WU,30701
07-03-1969,JWGQPUWXS,STKZCIZPT,44833QOYPHAGFTZAD,,HYCTT,GJ,42284
26-05-1990,EPUVZDYNF,RFMXJPQRW,21045AXSCIHSHHOFA,,YMRYW,CH,77236
29-03-1965,WZVAAZZJN,XWJLRSNRL,82031IRNTFEYDEIEQ,,TGWGA,DK,94430
06-06-2016,FWNWRTQHC,FHILKRCJK,99030CQIFZSECNQLU,,LFTOF,YQ,64736
12-03-1975,ZSELTFTUV,UFQTVSIKV,19898QMZSSGRGPGKW,,SOMTR,YR,20808
01-08-1996,JWOCVVAGZ,QTUHMRQOE,24301HKFFLPJOXIBG,,ZCQKQ,JT,78048
10-11-1956,AEHHSMMMS,SSRCLVRTB,36591EDXSZZXYFBQK,,VZJEQ,JL,76200
05-03-1967,DDVKRDOKX,PKVOPANGN,14818XKGTJXCEOHJN,,WFOHX,DP,62020
25-05-1981,AFZDRVNUE,SPQOMCTQJ,79982BGYMRIQEMENC,,FUYBJ,WH,71936
25-10-1980,ANJKCOJPJ,CVFSHZLUJ,90419XUSSSCLYXWXZ,,EKIKU,FU,95995
11-07-1979,KVOCNFODJ,NKRPIKXGX,48627IDIUTNZZFMYX,,VWJOU,PL,22248
25-05-1985,IFUJPAJZT,XTETUSUEA,79473UUWHDBZQJUOA,,LAGPA,XQ,97891
01-04-1978,FWVENFRYC,MDWRTVDVT,09812FCLHDHQXWXSN,,FICTO,MQ,14269
18-08-1959,VIPUSSCFB,ACNIMSGOV,58563JXZGCLWMTAVU,,AZWME,CK,88308
24-05-2005,JWONIWXGC,NROJHKMGH,34614SLYJVCDGCVCB,,DUSUU,RF,77952
19-01-1965,XIDJOOLTE,RYIPMBTIL,03717HZQZNPBHPUKC,,WMSJP,DS,08204
28-06-2007,UNIEKYRCI,FWKQGFYBY,09378UBSKZCDEXNHW,,EUTQW,IP,85432
05-11-1971,NWQXNAQFS,SSHXFJEHI,92980GFDWNQUAFGBF,,DTDNS,ZG,06380
08-10-1971,TEONPVLMF,VDZXTVJBW,41399XCLMEVXQIRKY,,PQHZS,LQ,86883
13-09-2010,LWBHMCKVK,KMNASOZOQ,96066QDIYDJVWAMKS,,NURWW,II,97104
15-10-1958,GSJCUDHTV,VSEKUPIQC,08469SCRSALOKWVNC,,ZXKBL,IY,80644
02-09-1958,NOLJPIFTB,ZWANTNJWQ,31881OJMVLTSOKAHX,,NHRZS,BA,82168
08-12-1999,LXFDMBMQF,ZONABRJUN,77196ZONPGJECXRLS,,UQZDU,YC,98610
04-01-2009,BQJDYFOMT,EBIURZSME,80573DMIMENJYGSAL,,HCESA,VI,84109
21-04-1997,RLDMSZRDP,ASPDCMXDE,14011OEEJJITHEBPV,,LYCWR,VQ,34748
08-01-1951,JDJXQOUXY,JPFYWXOII,99847HMGOGJGXAXHX,,SQWOU,XB,69057
25-07-2002,OQZHTXPLT,ISTGYLARE,06637KDXHCUMQMWLO,,JUSWF,IA,68657
23-12-1957,VSZJGJHRU,HOSDWKIEK,61608MIKLPOZRDKET,,HKHGO,IF,02776
29-07-1997,CDUIHBOQH,DCHVFRVPO,89829CMRQOSPCUOLZ,,VFDZW,JW,39449
23-12-1960,ILOVVIEWM,BULRWIJOO,69026KQBRENLTTGDB,,XOJNQ,HW,33017
29-07-2005,FSJHVETOD,ZHDOQKITY,77297SALBNWWYLSRY,,AMACN,PQ,63338
06-06-1985,GUWVYBREX,ZNPEIMEZN,28188GEFJKZBLJNBY,,VUNAZ,MN,84084
14-12-1989,DGUHGRFXR,VEBCCIVUS,43735UJLYOHGBEFEV,,HGESJ,VC,84045
01-05-1978,KMHQELQBP,CSJFQRCEZ,30633WPHZCUQLNJFY,,URONL,PX,79466
23-06-1964,FBTVACTUU,TULYRMZKW,66889IVTTDHAXRANL,,XPZUA,GN,40873
10-04-1999,VAELWSCVF,SBDNNRLCE,07094YRUSAUQNZZTD,,RXLLZ,WA,30466
02-11-1954,FJVMOTAUB,XUXEUAVBA,57523EWNACCEXQXWE,,IVJBL,YR,75767
06-08-1966,VFJAMYUMF,BHYUZPDPG,36990UMVRVTHZIRPD,,RHZVM,PR,06722
27-10-2007,VBOTTDUEF,OQNWFONVQ,30502SKCHZLLEJWBW,,JLJNJ,IJ,51632
06-06-2016,YOPJZDPSU,JDACWNTMW,78966RZIDBHQVRSBN,,IRFKX,AC,86742
11-03-1966,SEXGMSPAI,HMADJIFQD,36777BVFYAWWJHMIU,,FOQJG,UU,84677
20-03-1954,CDCDVRJOK,MABWZBARV,00328QVLSRGVOIRAM,,AGJCG,RM,93733
19-05-1993,DCFFXHNKM,ZSCTWLGLS,22858ZCQRQATQONRY,,SAURY,TC,05083
11-11-1991,PGCCMPKJF,KHWOUGMNR,86054ODTFNWYRFAFO,,VNZYI,WP,19342
21-03-1999,HWXQVPUUG,VJDQUJYOC,55197LYTIQCIHYGWR,,AGSQI,TI,76100
03-10-1957,GDYEBSZCU,TAROUQHQN,59685OWNDCJJFUXYW,,TFIHH,LV,13351
16-01-2011,PPZKZNAOH,TLULMVDKV,95314QWYEKETVKTKS,,YAHES,VK,75859
07-10-1964,ADVNDJBAS,FDOTNVEBX,42242GJDTVRLOKLQE,,KCMFN,LS,98983
14-10-1965,BPJPSXGQD,QHCAPFBKF,69560FRACUJCFYDPX,,BVDTS,XA,61063
19-02-2012,HPOHJFOOS,UMYPGKMBB,57015FFFCEKCZKPWW,,AKGPG,MS,94944
05-11-1980,VVJLOVYMW,DOYIOXLIV,72000XQSKIBPPYITR,,DBXDY,SD,84234
18-11-1977,RYOZPQJQM,IWYMWKGWK,26644KUGLFVMDLBLM,,WGDXK,YL,00095
23-10-1951,OWENGFJIH,ATBAOFWJP,91293LZBCXYVKCATK,,YANYO,EZ,13570
02-01-1956,GZCJDGBKW,MPWCYNBUM,80535DTLMEJZPANSM,,MPJEI,CM,43071
17-12-2001,XSAJGFFYJ,AKVLUGPLC,06922EYIAOTGALDJV,,VBSLB,FO,91647
24-02-1960,BUKVHHEAB,QPATHNMBR,21398GVOPBEAETCMB,,FKWOM,QV,45311
07-02-1989,NWHNQHZEE,GZXYURDBE,39552IREYIPSKOUUK,,NYNIE,OJ,87882
12-06-1990,WMMOVBNNN,UNZDJNWXR,87803EQIMFXGFZMPH,,ZACFK,VJ,17460
15-08-2011,PKYKCWKUK,XHRXOAIEK,14530HJXVQXXSWGVE,,GLQFW,OG,49348
24-05-1979,UUHIUZDRD,SKXKMKLYT,95097FACOPJVFGQUA,,BGSEC,ON,92147
30-03-1959,GIJNTOHGF,YJYTLNLBJ,55973TVVBUFJQHDEI,,EDCZF,KP,00189
18-10-1985,TWCZXKEUC,HACKYYJQQ,75728ZDQOMHIBTADA,,OFKXN,KX,31702
23-06-1958,UFBFUXSNR,YUPVJCYZM,66941NYDFYMYCFYXB,,YZPMO,YI,29037
31-12-1967,EDXKPLLQE,YWQVIWJVH,21399JGDLZPJYXKZD,,NTFRL,FY,93201
30-04-1959,MQWQNUWKI,CLNDQHNPJ,34481QBWSFSBEXWCT,,SOUFN,BW,52916
24-11-2001,HIACRRYAW,HGGMSVELV,93043ZMJQQJWWBJBT,,BVGNS,BV,83802
24-01-2019,RVITTHLKW,LMCMLBKLU,94864MKXMDOAZUWDW,,COYZA,TC,37434
06-09-1950,HVYMULNWG,VOJKOLZDZ,63398OOQHMODLFYEQ,,FNNQU,WE,11639
06-06-1961,XWYDJCJPV,YCZQUJHKA,01134IOIPYQHHRBAH,,TGPJG,BO,64109
14-08-1967,DNWLYEVLP,XTJCBDKCS,14931VNOCYGXZMZLT,,NICKM,IQ,74929
04-12-1998,RSRGVYWPJ,TUIJBGGZC,27587RUENIAZFOPYQ,,IJVSD,DL,30900
05-09-1994,TLKDTWHWK,RZXPFROUA,08606JQPFSMAYZERX,,PIOSL,GM,08629
10-04-2002,DGGKMYRAM,UYMHGEXZH,55264YZWMDGVTKEHB,,RLQRR,YN,58203
13-05-1950,WNCUUAKYE,IBLMEQPFR,52853TFQBMYTHYOFT,,GAVFI,RY,87703
28-02-1995,COZUJRTUI,NJNMKPMFF,51925AGEZNKYZXDFA,,BJNXV,EB,97882
12-06-1977,FKUQTYUHA,QVBRZYFBJ,24627EZYYLICDFIQS,,SKBOD,RP,16651
26-04-1957,MMKAXKPSN,FDWVFYLCK,82443UWMECSHXFTQN,,MJOKN,PU,65241
20-06-1977,NUXLCSPUQ,XKYIDMUBT,72610KNPQQLLDBVFB,,NXHDQ,GU,98739
04-11-1987,NKJKBZDCW,KNAGSOKUQ,34142QGYNZPORTRUK,,DJBPE,GD,03634
21-05-1957,BZZMPNINW,JOAXEKJSC,06945PCICBBVKVKTT,,BTNPE,LS,98089
06-03-1991,TZBAWGSYX,KEKMPWELI,87856XRLNLDCGLVIX,,PLMZI,AW,28142
03-01-1977,LIELWEQES,QEQPDGNZR,08783ATYCDDDOEPOS,,AERXH,PX,40126
08-07-1968,DRSWPELNL,UEUYUHWND,90474VVBRFANOQLUZ,,PZHEY,IP,29435
29-08-1998,IJETEJXMN,EQDBIVMYZ,49647CSNUTMVOFLFS,,JERFW,FI,70489
17-07-1965,HRXCJKOSF,XIFLUFXID,23100IWXLZTLXUUVI,,LOPKN,IU,19599
15-04-1962,YYWKAWCYD,OBHHDRPRQ,25020SKNLUDIBCYME,,FPZMS,PB,47581
23-08-2020,YXRKYPFTG,ZAQPNKNAB,66449BKYVSFPCQHKR,,VUYAZ,XK,98984
11-10-2020,CIIJXXGGD,YPCSNKDMR,71767RXPYJROUKGJC,,OBSUV,QP,32857
18-11-1962,EZPMJTGRT,QBQUSSCOX,52033GBXQQUZXDKHZ,,RPKSK,OS,15034
09-03-2011,DXQCOBTTS,SNLJQWBJQ,77897THKHVYQVRQQW,,ZZGKI,XP,19273
12-08-1953,IHVJQTEOK,TNIYUJUEP,68652RCWLVXNYWJZC,,DTDXD,QW,71739
24-03-1984,QPOKGSICB,FZOVMFPWE,30048DYTFPBNBNJJU,,XRRUW,NQ,03406
12-12-2011,YEFJUGPXJ,TZCTTUPUC,20371LKSRMAUYSKLK,,ULBYR,XO,29211
29-10-2009,OIUHQWHTZ,JMEHIRCWT,35203BOHJKTZRLELI,,QHMDE,XV,91908
22-02-2005,WAFXUMFOF,CCGNLOKDL,93370GBIZXWCSZLMF,,LQLVX,VY,64520
24-06-1995,ZJQHEQZOY,GCYDGHDPW,15634ZTAVKRZXTPSH,,IFJKO,AX,97304
30-09-1974,PXSJTLBUD,XBAWENEAT,68322WSIVYSJCZOJX,,PBLEV,NU,31992
11-05-1968,BLONXIKVG,XPGQDAJJD,86906JFFTNMREDCPT,,ANCYC,EJ,11396
11-11-2016,QXOFMTTNV,GTSUGKNPQ,58609TMAQRXKSTOWX,,GMFOM,JJ,98183
29-08-1956,LPFCPBHOC,PJLMFRCTG,93478KAMADDNBUHXJ,,LXRLU,DE,43794
01-09-1994,DMPNPUEUB,JKJLGWFXG,78024GQQQPHOHJHRL,,JZFCS,WW,32602
31-08-1959,FVQPBVZSW,CYQUNKDOI,11773VSNTFAUXCRDS,,CVSGU,ED,07684
15-08-2011,LLXGNFUFI,GOROIBGZG,69070LHIWDVZLTYDP,,OYPSV,CS,86194
02-03-1997,HEDTNPNJR,GBOQLZUVQ,35632BDBKCXGYDHTR,,CMLBJ,BQ,24699
17-01-2000,OWSWCOQYN,SLYHSGWFB,20540GGBSOUOCQEOG,,AXCLF,DT,63181
02-06-2009,LVXSHTKWD,OTNGTOQZE,21113GHIQFILIHEDW,,ORZVX,NZ,69152
06-11-1950,IXUHCCMIM,YZIKNCOVT,93665VMXWMSTPGLMM,,BYHGV,KD,60871
09-01-2014,RWAJIQLUR,DOPMFWJQN,83060YLDXOXTDWKLJ,,AXNYQ,IE,78586
14-07-1973,MSSMBWQYA,HQZKPJGSK,26162OZPMNYBPMNXE,,ZZOCI,YK,96506
04-04-1978,VLNGSSNME,PVIWSXJQW,41248VEIOTXJXFGTR,,CMOQV,DS,04175
25-07-2016,PVCBQVTWZ,SQCLODESE,48626GNQLSNDFGCJG,,HLMYR,KQ,81620
30-09-1968,NFJNYKDPM,SWKPQVBNT,28023BLDFCJUDFMCV,,SEIYS,NM,37675
05-09-2004,VWNOMQSPW,TTRDVRWMO,20273SAVGWBAXYFBD,,IPSUN,FL,47577
24-06-1999,MBTPVDTQA,BTOKXVQAU,70130TATRSAZFOBOT,,UNBCU,GC,39513
16-05-2008,IQAQIEIYD,ZYNYNRBPD,71154FQHHIHGHNKGB,,ZLDEZ,AZ,58714
24-04-2014,AIECCJMAT,SEJTAEXFO,27375CVRLFDWQKJHA,,XOVKD,QE,28766
15-07-1993,ZRWNDIJAI,CMBOJFQUX,22130SXUEQJTUIKUT,,TNHZS,QL,48851
01-02-1982,XAYHLQNAR,UTUVWNREV,01088PLIEOJSLKWKL,,RXKLG,JO,00785
10-07-1965,PGPROMALK,AZBPFCJAK,46749QUZOLJWYJSHL,,NGXIK,LI,83725
30-05-1970,HEOMQSTFA,SGXUSPQRC,94939IOLOJHDZBFHI,,GPAVD,JM,70641
09-07-2011,TMFYMBXZQ,PNEKOCUNU,28974WKUPBFWFCTQC,,PNMTH,RT,62311
07-01-1963,TTIJQNKSS,ODGCVDZIP,26792EJCLGTJFGDMB,,YTDKS,UZ,98077
31-10-1959,CDSSUCUGF,KWONFWUMZ,55061MKIRHRSVTPEL,,EFCRG,TK,13673
15-04-1988,NMOKPOYFV,UXMQNRIJW,70313EAXCYLDSZMAO,,WIQAU,ZG,75615
27-07-1966,CXUFZQMUR,VSFTISUCA,85026LKIUTFMMQQCT,,HMELZ,JY,14568
03-08-2018,ITOXSMSDX,RKGEPWKNP,83642YSMNOBFQSUBP,,OARGR,VO,17880
30-06-1958,EPGWGIQMR,PCOARVSRG,93995MHYKZVAWFTFS,,LTPBE,PU,52828
02-12-1959,FAJEVVZAT,XIPVMSXQP,12089BWECAOWHHIUX,,BBJJI,JJ,01062
14-06-1980,NJBKZPCBP,NDAHCMHRT,40874ETZEPPXDDRDU,,PHKAU,XP,11120
10-09-1966,ZCXJMUPUJ,VKPHFYHFP,91947GXWWQTZRLHWJ,,LFMIX,PG,18848
14-11-1967,XNOABZVOE,JXGFVKZRC,55723TADHYEPRUIVH,,PIADP,YY,87483
19-04-1976,RVGKSQEQF,CZGCTPMHS,20427JXRYJODJWYSM,,PLBVK,KT,09769
02-11-1973,NNAWMANEG,VFCPITROR,13547XOOMMGJOKJHT,,OFGAT,CP,52578
20-06-1991,CFLFVPTYY,LELKPJCDE,17979TKFIOPMWJJNK,,QGSRF,ZK,60965
05-05-1972,WFFFCPEAE,UNURUDQSF,60149NXGWAZZVCHIM,,LBNFK,IU,07400
07-04-1983,OWMKNUVHK,ODDHTAJJI,77681GOBXOPAVLMNE,,NJHYM,TR,41055
02-11-1985,OJWYPJWWI,YOOHETSMX,61368BVHRXTIYBYBQ,,NJZJA,YY,19852
18-02-1997,QEVYOZKRR,GOJRCYWMS,20988SNKBXJJWJMIC,,LHSMW,NR,70670
08-03-2021,BITMJURVV,LCLBPJRNN,26426CFSSLQORHOHI,,WDXHH,PV,46035
22-01-1978,LWTAKWWDE,VVYIQHGJU,18186LMQMVAXZVBOT,,CCUXG,IP,04471
08-07-1955,CIIGWEHKX,THWOJCCNN,06599PEQRHEYCZEOX,,IJYOT,AM,03812
24-04-2006,HWIBSNMXA,SRIWIZEKC,71724RAFKWBIZTCHK,,WBRET,IJ,49139
22-07-1991,ZRGMPSVZI,FZSKMXSAG,73110KFIMVQAALHPV,,RAYUI,WK,18495
06-03-1986,KIPRHYLSV,EMTGPJPZR,90097RCZJWIXUUGMX,,LDRHU,HJ,87947
11-08-1988,HZLMHRQUU,SWZYYFGNK,15364WIEBUFIGLOTB,,ILVOB,EN,43239
18-01-1972,RFRTTTMLL,KBOQCGWYJ,65263QKNINBVMVCYC,,HLRPF,LS,35322
05-09-2000,RDXJPXCOU,YNQVJZHVG,19889CYLZOVLQMDSW,,BDWMG,YR,22490
28-10-1985,AFHUZJHHC,GWAIYBONX,86844BLSPGYBEUNGM,,USHPG,RL,36882
22-10-1982,SGPIOXMFB,YHFILGVYB,28357TXLZBZGPOMBB,,AOGBF,EH,97369
07-01-1991,DHMAITQOI,IKPGMBLEK,97305JEQZGKQXQBGL,,CVYLQ,KS,98175
24-01-1993,AHVMWKNJO,JDFEGCLPU,94511CHCSGSLPIEGI,,SOAJM,KM,07385
09-03-1956,LEBHCVVMG,NGUJFBDLH,89288NXLYFJNLPEPF,,XIYEV,ES,47738
13-11-2000,EQQTAMCHW,WOBYSBORF,02385ZZUAAPGGYUBO,,ZCLXX,DR,16783
16-05-2011,UQJPHSHEW,IZSHWOORO,15152UFOFZUSBIWXJ,,RRMAJ,SN,68732
10-02-1993,QNLOMCRFD,PNSEOMPEH,39254XPEKCOVSOUGC,,JYJGT,QF,94678
23-02-2011,RPPEAEWNY,NIJETBNRU,86111TOZGEIKRGETD,,MKIBT,SU,72530
06-05-2001,ERVDAOMJA,ZVERGGGAU,11288UFHTTUWMMKMM,,DJLKG,IG,38837
20-11-2013,DPGYSIDPS,OCCQWNMYE,49735YGLSHKWVJGLF,,KSDXJ,HN,94481
20-12-2011,KYBMWFDHP,UJPIUCUPN,56953LPOTNOMPDUXK,,FSOBU,CG,51610
10-06-1972,IGOIRBFKB,QOEFSREPE,35150PPGHZXIOBIRQ,,GASVQ,GB,87678
01-03-1997,KUQPZWJBD,WFREOBVCC,44646JJJHRQDTXZLI,,NBMEH,EF,75985
03-12-2006,QOZYNGNIC,VTFKNPODC,67047YANVNRLAKNJT,,SGFBR,IV,27845
25-01-2016,NGSVNDVRV,LHSGPCZXU,72324WVOGXBEQPLHK,,WHPDE,RR,57255
12-08-1996,ZGILGMKLL,POAJAIYBC,73605XRYGVXGNYVST,,XEUVY,UN,91081
24-11-2014,YZONXWPYP,UTIXTQAMR,57277DEDWISUYLNQB,,CAQKA,JS,69967
04-03-2015,QMIYEMPPQ,ESHROHDBS,29032LAIBGICVFHNI,,UORZZ,GQ,62049
26-07-2013,NHVAYTYOY,MWVHVAIGT,13065AHHPWQKKTEHL,,QDPWW,TS,08528
16-08-1966,OLRLUVWLS,ZWIAQKIGI,19960BMVLENFEEXGZ,,CHPQJ,DK,17181
16-01-1967,RQOIILLNV,WLMUVQLPO,10200TPMPRAEAVMLU,,AOKXC,WD,65377
02-04-1961,JMFBAAORS,BHVKIYHXG,21822PTKSJMVXYMKC,,HUBXM,DG,39520
28-10-1952,XGEOPOQYP,MNMPEODLP,02851VZTQWKTCMGTZ,,MJYJW,FU,45880
04-02-2000,TGKGLOYQW,LPFZYGBIV,65659SWIVBHXTFTBV,,SPGWS,BS,00712
28-10-1980,EZUFUXERK,XCJSAFLFQ,82895QOIVQUYXJCAO,,KHVDU,FU,29709
07-02-1967,EICJEBBQA,SHAKJSBDJ,43710KHTVOYLYYZXN,,JAJJF,CH,08901
07-06-1970,TAHRGFDJY,QBIVRJJJY,45133GHVIPHLETNMX,,CASWK,EE,73120
15-07-1970,VAGYCPCQR,KZPXZJCXX,13943EQXZOLJAYLRJ,,BJNZL,NT,08128
05-03-1997,FDXPAPNMZ,JJDCXNYDH,00681AAMWVKAJPARE,,CHEAQ,OS,92179
14-02-1997,QHVTUUZRM,VCPEPSILH,92711HLMXGXBUXXYY,,QUJOV,TJ,01349
13-12-1954,XFNCTHEYR,HHVOPFJJI,61262ZXFRJMVHMFRE,,TCEUT,FJ,37517
26-05-2019,HRVQURPIE,HQHGJMKBL,47859GFADOTHNXUIY,,KZFWX,PF,52558
16-08-2008,NMOFXMDTZ,AGZDJSTGW,67903JCIUUBBBFWRR,,CXTQB,QG,34204
19-02-2007,MJZBUTXRJ,APDDOJCQW,36062WNWYEZPKDVJU,,AXGKV,GP,78191
03-07-2003,VYYFJLUFE,JHGEIOCBP,87920HFBSGTIMKWGS,,TPBHY,KU,81223
01-07-1962,PXHXLSNNM,WFDVTJMVE,27581EDXGNFIHTRHH,,CZOHJ,WY,64367
14-10-1985,GLIGGATWC,NFHSAKLEM,41799FVMGSFJUTWZE,,YNRHB,FE,37013
21-10-1984,WCTPITFQZ,HYOGVQCQC,13781VBPWURTYOWCF,,VIKLY,UW,39346
28-04-1982,KSLNDENUF,WGQAQHOIS,93825GMIDZEENMBAD,,HVARO,HT,86574
30-05-1995,QKMUOOQHV,IHBQPPEJD,37543VYSOFXNOTONK,,PXKZQ,RM,47147
18-11-1979,WJRAKCBQV,IPNGKMJXF,62462PNDXISJKDPIH,,YKGOH,CJ,91720
26-09-2016,WIJFQTAET,JBWLBMUUP,98712LKEBUDOYGTJU,,MIJUM,MY,81912
10-02-2006,MHQOUWVRP,QVCLQOSHY,59579CRBBLHNTJRFF,,WKDDJ,SP,35880
24-01-1955,ODMUNJVEM,QPWQMPXBM,22818ISEOHQIPNZAP,,PCLCZ,JG,59415
21-03-1962,ISMBZZJPU,QLJCVEGVG,66248SPOLBRXTHHZK,,HZQSF,TU,76278
21-12-1992,YAURLMESP,ZRENHROXX,80096AZMQPFDRBDKO,,QFPWA,HO,08644
07-01-1980,FWSPXSNMF,MEXVLRJXP,36360AMNQRCFIHOMH,,UFSUJ,SE,91812
22-07-1954,RSDVKGNEK,BZSOBSWRL,98400NJERJHPZMHSI,,WWNQK,GI,14903
13-08-1986,IRAZVBFDL,OVIMIGCYY,24783KJXRANKMHHWF,,IPDDH,ZG,02662
11-08-2012,KWVGNNZQK,TFHOQPCTU,74054TJOGSZSCFDAQ,,GUYGC,MQ,30620
10-09-2003,IJXIJWTLW,NOGVJNNGT,02810VWJTUERSNIEM,,QRAZZ,SP,20047
01-05-1954,TGHSIMSPV,DQJZNSCKY,10802TZMWTKYPWQEG,,LMKSA,NC,01777
23-07-1950,QHDBACLAH,EUXDBILUU,42934ERIWRZFAVGPO,,ZOHGC,SJ,97201
28-05-1988,QGUSULKUV,MDWPVJJZU,15238HFPPDQDKSASA,,LACKK,TP,35369
25-12-2007,ZVYUUAUJS,SJPGFNSJG,75171FJKBVCCQEYGL,,XKDZP,RI,16876
12-05-1982,QDLYYSWMG,VWHNWSVDL,55669MBMMVMKKJAKD,,XFCOF,HD,08928
03-12-1991,AAQCAVCCK,IOMVOVZJW,67519YAHKFUTVDYVP,,RMAIM,HT,93932
14-11-2020,OFWUJGZDQ,UCQHMPOOX,12946GKUAWBZOKHSD,,BOVNJ,SI,28896
23-12-1979,MVFGZZKPB,DTVNUAPIS,15088SNDMLJGTKNLL,,ZCAYM,TW,27106
21-08-1980,KSSWBOCWO,FQHWWZXVM,41980BHXHJOSJFGWE,,AALUE,PY,22804
17-04-1986,NOKDPDEUM,CMRDLOHKA,34019YHJOIKCXKZRP,,CZIUQ,DV,27890
11-04-1987,CIAQPFGEA,YFOXPZUSM,45284GTXYLXJGJLZY,,TNWNR,HL,59411
21-08-1956,GCBFTFKSC,UUVLYGKXG,89225RRFUCNZDZQAP,,AHYTQ,OW,46956
11-01-2012,NIPUFLYRJ,CNYLYKJRR,19755MDNULYJMHWMA,,NBTAD,FH,01693
06-11-1997,DFBAQKOKB,GNPPLGFQY,65343KUPDQDORKVJV,,KZKLZ,CB,76890
08-02-2012,PKDFNQOWV,PCOSCYUSO,82561AJIKZGXCLOGE,,UONQV,JM,74783
29-09-2000,OLNETWYVO,JELOAVYRO,55894TCCRJMBPUIIQ,,PDBBK,JM,50438
30-03-1990,BNAKOKQHY,CQUDQOMDE,53989TXKERBKHKWLE,,KXWRM,SM,66171
17-03-1950,PZUNBHQYW,JDZNSOOGQ,76631JXZTOLRANDXZ,,BVWQF,VV,85730
18-11-1970,HXJHDQGFR,SMYRNDSIL,03653XCSWSUIDPEWE,,ZOHFN,IK,47165
01-12-1982,TVOENJUHR,RNXKWBIRG,10898QWLCYXXNIFXY,,NWHSI,DG,14782
08-02-2013,WZPUEVQRN,SDYZAFRUJ,15003JVLXLLSLVOQM,,HTQCF,UX,57277
31-01-1974,PHOFQWMCZ,ZYMCRAKJQ,40268TKAQMYYETSFU,,NXEWN,GB,24031
18-12-2013,UPSMUQNIG,FJVHWRTRV,26711AQXXCTZSJXHT,,QUGOK,PO,11024
09-06-1990,XIPYZCOXF,VIFMJLIKC,91188XORUPQHNGYOH,,GNGXX,TK,95323
14-12-1952,BEGJBPDNZ,IGGLMDXVU,32984PYRHQZYXVJNP,,EYGSO,OP,84931
24-02-1951,GTIHHNKDE,DHVLEAELI,89441YGFUTAPRGIUO,,MDIIQ,EB,35522
25-07-2017,QQRWNOPRF,IIMOOBXPN,40279YFUDBOAHTQUS,,HWLWT,GL,60591
25-10-2003,IFHHDHXRW,YDRZOUUMG,29146XKMLKGGMXZMI,,RAMCS,XE,13844
10-06-1998,IUYBOQGWH,DUVKTYDQK,62597ZSMYTPMMHIUX,,FATJQ,IO,90010
21-09-1999,CLJMUWXSN,UFJHGDEFP,80830FWOZDIQWUDWL,,VAMWM,AN,77515
31-10-2013,FKBTTBEMB,FLSUVVGBG,16051HKFAALAYLMBB,,VVGYB,JM,40435
20-09-2017,IXULOSBJZ,PVPLCPEXS,56895RIEPAPQQRJHH,,SQYRK,GW,82333
19-02-2021,RDBMMULDJ,ERSAZRANT,64455MQEPQPLHIEXX,,LZTOV,YJ,25725
25-11-2015,PJFKHZJAJ,ZCEZWIMLJ,97537CBGGYRVULISP,,XMBDG,SZ,13951
17-12-2010,OVUBYKHGT,ORHWEYKNO,91944XKIZEMIOILLB,,EFTNM,UQ,69749
26-10-1969,JPORMNMQI,QTXBGJVXJ,08540PDSONUXWMRVS,,XMSMX,TT,18940
14-12-2016,QPXLLUAYV,BWPXMMKDN,36844RKEMFQEPNNDK,,VLYHQ,GM,44703
02-09-2001,WQBVUYHAD,KWQWDWCQO,97643ZLWQGLZFOJKW,,HKCIC,MJ,20591
01-08-2019,FFRMWRLHN,SYCWJCCJF,92357TXJCFKHQPOPS,,SMIUO,XN,56145
10-09-1958,PYRPHZAWH,IJGFCTXVL,21656WTWQVYFGNEFR,,QFQBK,RV,36237
12-05-1959,GEEUGQUIU,BISVJTMEV,78059MIAVLNKAAPNA,,MZJSR,SG,33474
29-04-2018,EDKJGMCFP,JVRGEQZQZ,43845RYQWDZBMPARS,,UXRVO,WC,78498
27-01-2020,SWNMLGGAY,LBHGMMZBB,43288DMJAQMWZOHBG,,DKFYA,ZZ,61389
23-11-1965,DAEOSBYPC,YYWRCPZTK,88457FOBDDLEBLVBT,,IJFQR,YM,76972
19-03-2021,JNFCWDKLL,LURMZTCDQ,87413YUYWAGQDLNKC,,XGZPZ,XW,82784
05-06-1954,TNUJBKXTB,XKJHIWCRJ,84847GUEHKBAQWCHS,,EYWED,AP,19595
12-01-2001,HTKWLIUFK,ZIAEWOJLA,65308UOJFLZNINHXM,,EYAXF,FP,11155
06-06-1980,IRDUTHIJD,NYVEUCJMK,41488NGHVZFITYYEL,,CRRNX,XK,43024
07-11-1950,CCRKYNVMN,VYWZRVGGR,16293QXRLIHVARXYG,,KUXYR,ZD,54654
20-01-1970,AGUOBCWQA,DFSWQDCEN,81389UVWUMFMPFXZI,,LTCUL,UB,85657
28-09-1969,WQBJOOWRU,DNIPDLIAK,72025DGYJDUKVRLLZ,,WOEBM,AK,41539
17-09-1989,PMQMLSQBR,BPORGSLYJ,75480FAZWWZCLHKHU,,KQTKH,ES,75063
31-03-1978,AZSYSBCNY,QJXVKPJOS,87326XCZKPKQFJYCS,,JICPS,LA,54211
21-08-2010,GZETTWHUN,JNFQWYOSB,31930WFSQOKRJJPES,,YZSUM,WG,76339
31-08-2011,GLPGTYMJN,WTVPVCBPQ,91717FHDDFNRNVQCV,,YDEQI,NN,50761
04-07-1951,YLMMYTNBL,LTJTWZYKP,57443OXFIXUJXAAIN,,PBTOB,CD,93431
20-09-1979,HHQZZMKWG,KSRORSCIA,53461JYNIQFWCIVPM,,OIQGA,LO,84935
16-04-2019,TKPISLQSB,KOCRLYPPF,13054UKIWGNDHLTZE,,OJWOT,RP,23749
27-08-1972,UHDJOUOXB,AKCKHYWJA,48543GXTRXEXUNLLB,,QYUJM,KG,95454
28-09-1999,EISEOUHWO,LHYLSGGXR,83741UMXVFVKRLGXA,,JDJHC,XU,09267
24-02-1975,QEQNGOFXI,BTMHQIJUY,01477KUAQMXEFTDIK,,CZRLN,KD,29773
01-02-1997,MHRTXSKKW,BPEJQEJMX,36994ZGKFSMTROHCC,,MGSGW,CA,75879
06-12-2001,SNVGCJCSC,TWRAIDSBL,34233LGWLIJYKAOYT,,BIPOB,HB,29263
30-06-1957,UUXHCJHKZ,EHSQXGTSA,84320DTMCCYDLZJAJ,,HMSVX,MS,77504
22-12-1988,BYMSCGDEW,FKQWJECUJ,48040OYIAZHKYWNUI,,YYGNV,WN,19593
31-10-2011,BWJRVJBMI,XNCWXNCKZ,91362ZFNRAGVBZBFU,,LLQIK,ON,79008
16-06-1990,XPCPTISKD,WPMERQCCF,55400JQEOWKYKCLNU,,BVOQT,YV,19630
26-04-1992,MGUHHCMRA,EOYLDCKZR,49310FIRAAEVGNVPZ,,FGXIT,XQ,36083
03-03-2018,NODSNWECI,XPWOEDCIE,76215SZDFMYTEUGEP,,XGYGI,ZH,11508
04-01-1974,HODZXXVZV,HAPEFEISI,16351SVFMJABQVKWV,,PHQYP,YX,61567
06-01-1998,OGRLFVJKL,RBDYLKUIP,81953TXQQZZYKZXJK,,YTVWO,CW,57156
10-03-1977,TTWXHKZWW,PKKBSNNAJ,78359COBJPEFPWACU,,WLLHC,FH,67895
10-01-1986,PPWFWMBIV,OLCVUZHPL,81538QYGTJHXRDLED,,FPCDN,EQ,95262
28-02-1991,MBHIOSRWC,XGTVCJDOA,85076GHWLQNTALMTO,,KKGYE,WY,21446
16-05-1957,YETHHUBLR,TRJJCZNIY,30506JJTXCGASPJLX,,XIGGQ,PR,57736
28-12-1990,OEFLHOCZC,YLHAJFHMD,19208WZSXWWRAATIF,,QPLJU,KZ,43026
05-10-1992,UNGDEIQVS,UNJJWLILG,44757NKCSLJAHMLTV,,ZULHX,GF,39285
24-08-1981,ZZTDRYVDR,UBQMICTYG,88141OILRFWMZQXKT,,PMVAZ,WJ,14690
10-04-1976,JYVPLFGJO,PQPXYAWGR,10429ZVQAUQATEMEM,,TELIC,LE,54628
23-10-1972,YEIRPEANO,ICEKUMAYG,15291QZCIAWZGPRDL,,JNFSJ,FM,13087
20-08-2005,IQIJCBMFL,FHQRBVUHJ,25977XBRPWWODMSBK,,EZICO,XN,12616
16-04-1961,STWKGMXTS,WBIFMQNUP,49690CLXLQMMKFLOK,,TNHPI,DX,12758
28-03-2019,XFJSWJPDO,CLAZKCFWA,31175CYRJEUJYHFHR,,UDOZZ,IY,69609
14-05-1954,TVLNMJFXP,GGQQWSOMA,35057FBPMLXXQGWAT,,SCXUK,KS,49119
02-03-1971,DXEXPOISR,QTIKZEBIV,41835JYODMYTLMVOS,,XJZOF,FX,04789
02-10-2014,FFTQWZLGL,LJQCITUSA,06484EZUSSPPQFHBD,,TVHYH,UC,01145
28-12-1989,YEJXWBRJY,TRUKOWKEJ,20083PSMIALCDXCGD,,RZQGA,QX,05659
06-12-1980,UTAUUBYOY,SEVLOTISE,86439LOXVNDLJGBDE,,DDCXV,RK,10215
25-07-2012,QKDQORUFT,PYFIMTAVG,68204JUZIFSFFEGPV,,SIPJD,GW,20982
21-06-1955,JWGEZILWM,KBXUEWOAS,18355HSEIGMXFOUPP,,JRFVE,VV,69671
19-01-1987,LHECMLJNQ,YFEMFUQUM,85446RYMLRPGIKRHZ,,LHFVT,OK,45445
13-06-1954,OWZMYUSBF,XAHASYQNU,34843QRMOQVVHKXHF,,TMNMU,MH,62734
04-09-1993,PWXUSVWCK,MOCDUCLSH,00527DGLJCCOEZJKU,,IGKYL,AC,92448
08-01-2001,XOQKCDFHE,NTHFBCRYH,64102TMQLCNFONFPE,,AECWR,WD,77593
25-08-1999,NGSZQNLNE,AEQHPZSXG,21140EXNXGBMCPNTU,,PMTTP,XC,99238
05-10-1999,JJPHWBGME,PXCKRLAAB,49155UZVBWOVSQSHI,,IISEG,EO,52067
15-05-2004,IIUVLICKD,MZVVMMTLW,32336QWYAHYWXYTZN,,BBSSR,YI,53397
27-02-1996,GKYEYWSPY,CGVRPYLFT,40644IXMXZONSMLWE,,JWNWT,PE,17006
16-06-2020,LLGDEFWTR,VJQSSIXUV,97436FJUEBTAMEEAQ,,TKCUQ,YF,53333
06-10-1958,UHQPCUGOT,NQUSUTADC,47461BBNNHXRDRHCC,,FJDAZ,KZ,03567
31-03-2001,DAGUKGRCN,VPNKGIOWK,60113UFNUWWHPKXBD,,EUDAD,FZ,86401
12-03-2019,EBWWMJTDB,DLLNDCGNX,25228TOSUGMOFCGNL,,OLBTC,HA,12503
26-04-1961,INSXTEBMU,UTBCYRATE,28543OYOQPKLDHELK,,CIPDF,FZ,13714
13-11-2020,DHFOGPNZZ,UNBZFHCOR,82399UIEXUTJGSMOZ,,PJCLL,XF,80552
18-04-2006,CNIPYRZAF,DFJKRXLAM,03373UJWLYDQZPVSR,,IQSGS,RR,34635
13-03-1994,LTRVIZFGP,AGVUOJWNU,95497SJRRNSMXHGRY,,CIQBF,NG,78514
30-08-1989,QSENXXTLW,TZBSFCXLP,12142TBHOFNULJLNO,,PKBEA,ED,68536
06-05-1998,NFPOQTWMF,RCGCUXVSF,86803TJAOAOHOJMKT,,ZYXNR,AJ,77088
12-05-1987,SCZCZDYGV,TCHNQSKXE,46125NEHLAVTMMUQL,,TQMFR,RY,02852
11-05-1993,OELPKQARZ,GUFZKJORZ,88283OULDHXFDDKGN,,HQHYO,IV,72474
19-03-1969,SZWBWEFDG,WHXSWRASP,96325DKTGMWHILNEE,,CGTLS,IR,80955
27-05-2017,UEDFJAAWT,MIFSLTSQK,09835QXVGHJTKBZOH,,KRSIW,VQ,52555
17-11-2001,AUTPQGDLX,XGWJALTYS,32571CLLNJGHEIKWQ,,QOAHC,QB,06820
14-05-1953,WEOSDFAOX,ADBVURNAH,60582RLNOSNQPVDPM,,XOHVC,KU,95343
16-12-1986,UIJGRESEQ,NKEKITGFX,80330GCIGVXMSMWEL,,JQDIE,NV,66551
04-04-2003,IYTYLTEHO,IZLEFMJHS,85278ACCGPXCBEHIC,,FRJWF,RK,80991
03-01-1977,SXYTFUPZF,OJWIUTSLK,58066MDKDXDMVEHBJ,,IUARC,VS,71558
24-04-2010,GBWANCSUR,GWAGKCOKK,48388ZYJGYIQXQYSU,,FRWWZ,IX,90489
16-06-1999,BDTCKMKQG,QHRLVDUXB,33242RQHPSSYCOWTU,,HCKSR,QN,78362
01-09-2018,BQVVOMBMK,SXGVNQLQW,60483HRNGXOAYEKMQ,,SVKIS,IM,80649
18-08-1962,PJBTPQGQN,LMYVYRJED,78401KSCBTMOTGSXQ,,VVYEU,EK,31497
07-08-2004,APJVXBHDU,RSHBLZRHK,71020JYKNFEIGYKWK,,RBLTK,YM,45708
18-05-1994,FJYDIICYG,NNVALDJYX,61938ZPNDMLHBZZHW,,RHRKR,FV,27990
10-05-1987,LABPCCRDF,AXOMFIEYP,07657IJTHMPWQPWUN,,XTGJC,KV,18145
27-06-1991,CSOFPINNZ,WUNXXBBJF,58090JCRTUTWWMIAR,,JNMYE,RP,50173
19-02-2015,OTBEZFIWD,EROSNKMNX,00445HPRRNUNMXITG,,JOTQS,ZJ,71419
30-03-1999,REOUSHTTO,FRVKEDQWU,90257NQXMZRDNRHGY,,NBHWA,YC,81024
28-10-1978,QIZICXPSO,MJQERXZYO,05552MEREYVNZHHBZ,,BSYJK,BO,91265
09-12-1973,GNTUMAGCB,JWDCXOCNT,22566JHGBHGVCZZUD,,EJDJT,UE,82072
22-07-2020,GVUBDIGLO,TDILAAUPF,37801EFBBYTTDYXVR,,JFLJY,HM,37744
15-08-2012,BLISRUMXW,AWAXRAIYE,08547YKOBZYXRDHYE,,SUPBR,CZ,35339
06-09-1988,FVVWSNGMY,GACFAVABC,58495CEYTQXIHKXRI,,DGCNW,TY,84379
08-04-2015,GHWOGRWDZ,YGMNLJQXU,52242KGDXCOLSJYKP,,FAEXL,HI,56967
23-01-1958,RLSUKSGGZ,OEFLURHPW,90369XWZJTXXPTPII,,RHTEZ,EB,32721
05-01-2021,VHOPODCSG,VEYYGYHSY,84792TJSCAGZAOLDA,,IPVCB,SS,80743
09-12-2009,YIZGKBIGW,URYUMBFIY,62276KYXLQJKFXKYE,,TUVCG,VQ,64793
11-09-2004,SMZZHIKGV,CNMAQUXDU,08914AIFDEVEDSUPV,,HJMEI,AZ,09703
07-02-1989,TJQCQZAMK,WBNYWYUBU,58449KARKJQRKUTGH,,JRHTW,RN,60652
30-09-1964,KKECKBTJX,ERGBFCBNU,99943NSECCLCDBHLF,,FFSKK,LI,18432
18-09-1954,JBVVEJIWT,BLMNDWPRA,14558MKCRUAXXYCWZ,,LILST,LB,37771
30-04-1953,HENHYOIYP,WLTJRYJTE,80254GXIPAAAPSWQV,,FZQVD,GF,18730
22-12-2000,CGIJVISTR,FAPKPADLR,37564DHDUIXEMAJTJ,,XULDF,GR,96615
16-07-1974,FXXDZVZJF,TIUSJFSPR,97538KJYLPPNHDMLV,,WNVVP,MU,47888
31-01-1995,TNEVPSXGW,TYUDLENFC,42288BTJYVEKNHHTB,,JOBMN,IZ,48706
03-08-1961,OQSQDZWSC,LGIYLEWWE,63010QWBGSCTMAZCB,,BIGWE,KX,23153
30-10-2008,OWKJFIQDY,BGMCWVYYN,57466ZVDNYPOZEDWA,,DVLXA,WL,42617
29-09-1961,MPASHIUCW,KQXSWKFPZ,36508WJYVPPLATICV,,WGJET,AK,16227
10-09-1987,ADTSCNTMS,BVNKCUMUE,23251ODHTTVGZEHRD,,LWRJZ,UT,65581
13-02-1976,AWXUPIYBV,VXBCFGQXW,96677MHREOHAHCYMA,,SCYSP,CY,49177
24-07-1984,BETFSFXAP,ZHPIPPGCA,68146VAJWMNJARVQF,,WGIJI,BD,46798
08-10-1978,OHEUPLLVV,YMNRPMVKS,13093JZYDTOLXAVGU,,KUBCY,VT,06039
07-01-1951,GVVFAIDJA,DWJBNPCIR,07182YBKXVNBEZFCK,,IYCKI,XY,54611
07-04-1978,BZSQNMFMN,JCFFFUZTJ,82141CAJWELGFKWFX,,EJCSL,JS,25826
13-11-2004,DHNTRLWWC,CUCJMHGQV,05742KCPRZIASVDNK,,SMEVT,NL,87939
22-09-1959,MGZHZJNFJ,BEVTUEIDS,67891UUWCGKNWMYZB,,TPFAD,DT,89456
11-07-2004,HIMVWKFQV,NABGJGDCN,48926RKJPQKDFTZQC,,EWZSJ,TT,80875
29-01-1996,NDHDDZMFM,PAXPFLGCK,69118NIWIUMUUZTHT,,USJAY,KO,94851
11-07-2017,TNRQFRRIW,FIQHVJELM,35534NLPXOSDJWBFW,,ZPFXK,OI,64853
05-02-1991,IRSHTPEFO,XWRQAHQGR,80106XEVXRFORRIHI,,EZMAV,PM,89094
25-06-2014,SZLQMECAO,IYEZBWGNN,78520MUAKKHAFPMZJ,,IDBOH,CA,87792
01-07-1952,UNAYHQAGO,TATGZAYSK,13753YYJGEBZPDFBC,,WRFLF,QG,15359
16-03-1995,YAGVHHFQA,BGFQYRRMD,07019CIJBFYUFWELC,,RWFZC,QH,41120
02-11-1983,VGTOGDPML,JRJHORDZV,08020ZZCBKZKKDJEL,,BWKSE,DL,23751
22-04-2001,RWPMSTRLR,FACGFJBWF,03996ENCGNHWNYOAK,,KSZNF,BH,40929
01-04-1989,EHBLQQLBH,DHOAUEOFM,37482LTNDMKTRPNKO,,HDZBG,PV,04412
30-12-1985,VFMFXJTYP,XRNYYIZJS,42649WECZREWMCOIO,,QQNMF,RC,40295
12-05-1967,EHGSUSOYW,NIMPTZBVI,76235AMOJIORQTZWJ,,UQZTX,RV,59346
15-12-1974,JUGCUELEN,QBFIHKIGI,76981IVYGYNFBYMLS,,QSRRT,ZK,66454
14-07-2000,VQLCTHPEQ,JJAUQWNYK,01037GSPAUODKGKOL,,LPWRR,GY,35009
06-03-1967,JFLDHJSAT,SRLPEWPCJ,37705LSSIDXRCTSCH,,XDTZR,VZ,35613
01-07-1970,YASKWRVIP,QFNQAQYFW,40875IXUWWWEGZCKI,,MVCSX,RE,66049
05-07-1987,LTHIDOFBU,QEMUYXKBS,11756PUQNCETPWYUZ,,ZASZE,SX,50852
11-10-1965,STGZBXPJX,WHEJXULPU,03946XYHVVZVRMAIR,,PQEGF,HI,50231
18-12-1979,KVVZWFHYW,JIZRXLKOV,94393UTWNSPNZTMRC,,TEBFY,NE,51344
24-03-1990,OJOPSESVW,GUUBHETNP,15585RLXWEDTYAOYD,,IWSHX,RC,74553
27-07-1973,NVQDZZWMH,FFRTFEDAA,83002WBEGFDEUJAPP,,GQUTE,HJ,07246
20-09-1965,HRMGAMJED,NHMIZEFCE,27077WBUQTBWGCMHR,,BEJBU,GG,41361
16-11-1982,UEJXLJJXG,MDSFMOVDZ,72384XGOSHPVFPPEK,,YKHOT,ZB,43176
06-12-2018,TTYSWXRDH,TSGBPNFZX,11736IGACLLRCOKUY,,AMAEO,GP,45093
14-11-1969,JBRYKQKCY,XSTZZAUVP,44987BGVBVGHJSDIM,,DUACG,EJ,78705
16-04-1967,MPQYHXXQJ,FIOTOADRS,57614PSDAZQEPKQZI,,RNZZR,SP,06719
09-01-2009,PQWKRZCMV,NKBETPSOI,00596DMFJPPLZWPVL,,YQXOY,BQ,77174
12-06-1995,MHTVHCKIH,ERVESJCPO,69223SVHDNVOSPMYL,,GSVSN,EE,10102
11-01-1990,NZGNXDZPD,UNZFJOPMO,18754MAICNBUDOUWE,,OLLOW,ZY,87291
07-05-1971,XVCFQPDWC,BATUQMDDO,23944XKUKJRFLOHMX,,GYGXB,VA,06104
03-06-1950,BELJVEHLZ,OFXELLLQP,02451KGEHLINKSEFA,,QETQE,VL,66930
14-08-1951,BRUKNPZLO,TTQWZHPBC,44965TGLKAKXIVYXS,,ONOFD,WO,26747
22-05-2015,LOKRXFKOB,GLDVUQGQQ,74719RFXILZVUKFIS,,WGKTD,KA,15421
03-11-1976,KPXWNFYGP,CFFNYTAVU,46221EGGUROGCRDFU,,AJHFK,FR,68751
25-11-1978,FXHCJVXKM,MMLNNMLDS,99738RXGHKMMECEKI,,JVVWG,II,20262
23-03-2010,MCYNATBEK,GDLDFPXIG,18881BOAGZXGQFJDR,,OKAAN,XI,14262
18-02-1987,KTYVYUEVB,GZOQGVUYK,46341IWMFGYOVWVBO,,JNPMP,GT,40797
24-12-1986,KYEPXNVKS,YGRXLYZOV,00727SXNTNCEBUOJW,,FVXVZ,KA,73757
07-03-1984,HKQXFSVHW,AMBFHXXMA,08425AKEXAGPYSLGX,,KAQXU,NU,43231
06-07-1967,LTONUKKWP,GECEAPPMD,31023JCBALYTYWVXO,,TGNOM,PG,92097
28-06-1971,JZIYQJHRA,LLVXKOADL,15654TJOHQGYYTXWD,,LDUDL,EG,78815
08-01-1979,HCVAESMAS,UZONECZPS,27017FHJZNNFOUYUA,,HGVSK,AI,43875
08-04-1980,GSPSCLXID,GPKPZTFHL,98674NWQZUDHMZOXT,,CNBZF,XB,74856
24-07-1983,SEOQQXEOT,PUUXSEGFZ,67831KLJPXDCYVJNO,,KXPRK,BI,75146
12-11-1959,AZRICQNOS,WNOVDMWLE,30704RWLGYZQCXEBO,,LITEC,MQ,90923
08-01-1964,VUQPIASVL,WDMNBOKZW,03717EUBZQWFJFLHV,,SXXAE,HX,18960
16-04-1964,ISUQQKBPJ,IZXGJDFTH,78171PIVGOJWKUXSQ,,EMEJX,RP,57960
18-10-1990,KFGOMHAEP,TJGOKLFPC,78595YRDNMFXXBOYT,,EJAKZ,TV,79262
22-02-1998,BZHESPRCV,GVSASWLSC,38198TKULAZJAGQXA,,DDCNV,LV,34196
11-03-2015,ZARNCDFMM,LXUWXPNIW,09695TATRXKYQUZUV,,AKWLZ,NH,84936
17-06-1982,BHHMFRXZW,OUKNHLGAF,89443NDTSATNYDGML,,VRUXR,LU,54659
18-02-1969,ULSIRJMXU,BOYPRSZGR,40062QASBYFRJJMIF,,ULSSM,RT,53874
12-02-1961,AAHOSMSTJ,HYMJJQJOK,33683JTMMGMXUBXTP,,GSATM,ZL,44969
10-06-1994,JNIVZPVWC,BLBPPAOKN,19540SHRKKHJGGIBP,,IMILQ,QH,41519
02-08-2020,RFAEFGXGV,RKXLVRKTU,05431ABHHFLOHJQII,,FNBPX,NU,84957
25-05-2018,JBGKTBVGJ,IMEWLZVYX,52422MGHWPQAUKUGY,,HPIVG,ZF,63585
21-07-1992,MHEVXXKCP,LAFVAHAXI,34516GCYFRYBFIKFI,,GOFQU,GN,70075
30-04-1960,DTAIRLGVJ,BOWFYRTXK,36535YDUWJYFJJSPO,,PCXRI,QP,82138
30-09-1954,XVFKAOVLM,WZOYOQRGE,68096RLOKDSZZKOYA,,YHMDX,VP,34113
25-02-1950,QDXCZJINF,SARGYFGQV,98045LKRTGAXVCUAE,,BFTDY,PL,49113
21-07-1983,XULZMRZDJ,JSQNXGLYX,79983ELDFUKGBRXHX,,VPUHO,KZ,09595
16-10-1986,FNRWGZCLK,RVPSBWTIM,99168YHTUAPBJKDDP,,AKMWP,CU,04155
23-05-1963,XKIAQDOFX,NDABFAPSD,77424YFTPKLSHHHXR,,KYOVY,QG,17247
18-09-2000,HRSOOTRYE,OCGCJYTJK,64585FCPKFSFTAFMH,,KXFOI,KD,78903
25-12-2015,PAQXUAMYS,TGLTPQFBT,43556GCQBDQRTPDDP,,MKARF,MQ,11397
14-01-2005,GPWUDXOUH,SGCVDJBEK,77261UMSTRCKDFCMU,,XXKLL,PV,38671
28-06-1957,TAQVFVUUW,FIEIUQCZV,72558XHJIKRNSDVFG,,AXPZE,GR,67271
13-10-1992,XORSEQWNW,YNWGTEZSE,59347LDUEOZRRZVZQ,,TGKFV,NQ,79415
09-06-1966,BHJNZOKSI,SRNATFZQK,49824PZVKPTPXQVWR,,DYOLT,AC,70721
09-04-1969,KVLUHMYAN,VNSYIMXOP,58974YJENQSVUCRZD,,XPJDO,IY,13382
01-12-1957,XBAMGOVMJ,KCAKXWYRW,07364ZWIGLZUUWWXM,,LCAHK,QK,73513
07-09-1971,LEJUWXDMH,UPZUEMFET,08983FNRXECSURMYJ,,GZFMY,TS,90118
04-09-1956,RWSIXTJGC,HDGJUEJNU,88425OCIZIUPRTBPD,,SFZSJ,JK,71831
04-08-1987,TLUQNRMVN,MPMRTWWIF,70291TYBCSAURCGOH,,SEOVF,JB,84517
07-05-1969,EJBEWRSVU,FMHDEQABK,87816EEOOULFFSBLC,,DMDTJ,LN,41001
31-07-1963,PLWDBIGPQ,TDRLREMNS,64550NPGDMGJOUYJU,,FXVQY,HB,28191
21-01-2008,UDYHZPKVN,VZSEHLPPM,79371UWGDPYCVTLYT,,NHCJR,CS,28337
10-01-2014,GMLOYWLTK,PUIREIGCV,44205DKZPDIYZSXVP,,RKZEB,IO,02640
24-04-1974,CEULPPADI,LUILXJPTO,92629PFOOJXBYRHXK,,VUCPP,WE,71393
10-02-2019,VJUPSXHIR,EKLDAPXKL,40553VKSVIXBRPDQK,,SGLKR,ZJ,49477
10-01-1970,LOFRACLLH,CMRYAZKEG,32041ATZWSITDHLQD,,FPHPS,XU,84803
22-05-2017,WQMVWXCOY,JKEIXEMYA,01026BWSXQSCEHIEA,,VXWZK,SJ,95800
12-04-2000,BXJRLIFKN,VBXXNGNBC,13075GNSPNSXGIDBA,,YKBYI,ZM,58294
24-05-1977,ILVLGSNAF,TCPBZRYBO,57179HJZRREUMBBHL,,YZOJI,CE,13102
05-03-1964,RPOPGEJML,DHSSGAXHS,72019ASWOFEUQPYYL,,EKYJS,GL,94524
13-10-2015,PSKXEKWAP,FYIBTKSYW,00441RUEZIRXVBXMI,,KWAVX,ZP,87487
27-02-2000,ELUMNJMSN,EFDLLWATI,97537QZQJNWQOJPKP,,BPHRO,MM,14655
19-05-1963,YRNYVATEK,LLVWJNSBZ,70870ZLRCAVLWFXFR,,TFEHL,JA,25699
23-12-2009,AKAREBSOR,XNDFCNUDF,91539WKULAXNHCGIT,,MUAZH,TY,97380
17-11-2019,UUNAGHMSQ,AQRZQSMMM,41785FPIXDQLLJNWU,,JVMOZ,YZ,90168
28-03-1962,AEANFHWFN,VUTNKNEVN,99112UTHAVZLLSAFZ,,PRCMK,PX,49122
06-04-1985,IHVZSPMJF,RYWEHGNWR,78094NWMIGFLRTLLI,,SGQMI,PJ,64040
09-12-1982,YQAIJBNDT,LQGCDFJTZ,42505BHZJPOUKKNLT,,RQMPW,RG,86394
25-08-2020,SEDWVZZWF,CZKTAGLED,55154TCDFSZESMJER,,YRYTB,RQ,83375
17-12-2002,INGUSDWUE,ZUXGSKKNI,84244ZIANCUKJNBQR,,OZWIS,WQ,98555
26-01-2002,NKGKKNQQV,EACLGSIKK,79878HLLJEQCWAQGJ,,CFRUO,ME,30897
19-10-1971,BXEPNPUEZ,YEUQEJSFH,58526LOFHZTYRVCYC,,NHFHC,LY,97403
10-07-1992,ZHKTTUFUL,VFHHAPKYP,91659PEGBZZKAZZUC,,TVMKO,WM,28339
07-05-2011,MVCWMZDFL,GPKPTRLNU,02724PLWFHXCTCKQZ,,RKBQI,NE,37997
07-05-1966,GAGMFNSNK,DCFDVCFJF,17485QPQZVYJPITHJ,,TBXXH,NU,05017
03-05-1993,LKKTWSOUE,GGZEAEUBD,83631VMZRKZCKLSXT,,SGRSE,QO,23891
07-04-1998,TIFQVLLOG,ZINDVWMRN,46811UEYGGBOPNIJX,,MUCTW,FV,01410
22-05-2018,KUMWUPPTO,ISYAFVKUO,63402GTXACPXHIYSX,,PSRLO,FV,77933
27-10-2000,TTLEOKLDP,LHTSNSTER,39249KXBAYXOKLPMS,,RYNIC,UO,85348
28-09-1988,GGPXACKRH,RALGTVIST,14354YWUIVUQRWEII,,MBQCW,QH,78004
12-04-2000,JIVJVKYKA,PWRPRRUTW,52919VGODFKKZDPYY,,ZFZHM,OZ,82066
30-09-2000,LXTTEBRNW,AESWRLUZT,32200WUFRMTFTNFFH,,WMJKO,RD,84757
15-09-1998,ECAKRDJDJ,AVLSTDQMU,28530OMJASEVEQQIX,,KDNMH,CM,05517
02-09-1980,VQRMTRNUS,ZWUVGWQNB,78899AXRBXOJVZDMY,,YNQGQ,SN,59967
25-03-1985,HFZGOQUIT,EUBCAXPOZ,72399DTXPGBUSBJIR,,TWBDW,KI,62657
30-06-1992,QLKLWTDNE,YLDNKNRZH,45390RRIXBYMGZLCD,,BFJAJ,FI,13497
22-04-1955,HKJWSENDD,JNLKMFPLH,12987XXCZSWXWICKQ,,QUNQZ,WT,12136
15-05-1954,ZMFKNDHIA,BFHFDPVDF,49748NISTRMONDYWI,,FZPMT,CS,36272
03-04-1997,GPJVZZBUQ,EJJYZAXGG,47898CPTBQSVLHPIJ,,IVOJS,IE,71241
22-08-1975,KGKGHXKOK,UWQFOMCLK,05484IKYNBTOCAHUU,,TOLKK,GB,83116
17-11-1967,SQUDGLUEU,LFPZEJHVC,99132JSWKGJFMJOKF,,DXXIU,CV,97556
19-06-2000,OJKJJVFSL,LMDOMNVIO,27715CIOTYQSHOXCY,,EEYUF,YX,99353
21-04-1978,TYBXBQUTR,ELIYHGXEG,88994ESAFVNXQJWLK,,EGXNJ,FB,11480
13-06-2013,FTEGUCNLK,KKMRFJTVI,47167EVMATBIQGNDO,,HFIEM,PP,10662
31-07-2018,PBXCNMMJI,YQHMNBWBK,88264DSKRWCQMZVKS,,YHHPG,WA,77585
22-05-1979,HIIHEWRIE,BXOWMKNON,18864FYRWYEGHMFHN,,UBDCX,TZ,82416
28-11-2014,PFEJOBRWN,QDFQJYYUI,37332WQUCDMEDKWOP,,AAYDM,UC,01517
23-02-2007,VQCDEQVCU,RYKSOAHPE,50622WOUNJMGPHZYO,,SLFUF,MI,90188
17-01-1958,OODMOTOZJ,LXYVMWIAL,51039ZAEOSLEZUUOW,,HZTGY,IX,97741
26-09-1998,WITICYEXB,MULGUKTWL,42118JKWDAEICBCDF,,FDQYS,WI,22407
08-11-1953,WCNBKOWAP,RXKGTYDFN,53237KLZJFOBRPLHQ,,AWUHQ,UC,33973
14-11-1950,HTHAZVVBX,FSLYKGECV,98711VPHWSGEOCZFR,,UJOAU,UJ,69131
26-01-1993,AYIWFSGYP,CBJLTZDTV,72776HLVDHCXYBHXS,,HOGWP,QK,15824
20-09-1970,MISZSEVWC,CFPXFDLAD,42996GWGEIFZJYIBD,,QIHVZ,US,09086
18-03-1954,SEFVCHGCN,EJRCLGIFC,69450SEMSWZTRDCJR,,JDTMC,CV,13399
06-04-2015,DLXEWOSAV,EWHYXPZQC,08529TQZIAHOJZTJD,,JUEWZ,JW,28412
